"Facility Name","Street Address","City Name","County","State","ZIP Code","Latitude","Longitude","Submissions","Toxic Release Inventory Report Link","Toxic Release Inventory - Form R Report Link","Risk-Screening Environmental Indicators Report Link"
"3M CO-PITTSBORO","4191 HWY 87 S","MONCURE","CHATHAM","NC","27559","35.660933","-79.167316","94","https://enviro.epa.gov/enviro/tris_control_v2.tris_print?tris_id=275593MCPT4191H","https://enviro.epa.gov/enviro/trisquery.dcn_details?tris_id=275593MCPT4191H","https://enviro.epa.gov/enviro/rsei.html?facid=275593MCPT4191H"
"AAR POWERBOSS INC","ANDERSON & TAYLOR STS","ABERDEEN","MOORE","NC","283151227","35.13588","-79.43619","9","https://enviro.epa.gov/enviro/tris_control_v2.tris_print?tris_id=28315RPWRBANDER","https://enviro.epa.gov/enviro/trisquery.dcn_details?tris_id=28315RPWRBANDER","https://enviro.epa.gov/enviro/rsei.html?facid=28315RPWRBANDER"
"ABB POWER T&D CO INC","2728 CAPITAL BLVD","RALEIGH","WAKE","NC","27604","35.81653","-78.60067","43","https://enviro.epa.gov/enviro/tris_control_v2.tris_print?tris_id=27604WSTNG2728N","https://enviro.epa.gov/enviro/trisquery.dcn_details?tris_id=27604WSTNG2728N","https://enviro.epa.gov/enviro/rsei.html?facid=27604WSTNG2728N"
"ADAMS AN OLDCASTLE CO - MORRISVILLE","5701 MCCRIMMON PKWY","MORRISVILLE","WAKE","NC","27560","35.84521","-78.83791","22","https://enviro.epa.gov/enviro/tris_control_v2.tris_print?tris_id=27560DMSPR5701M","https://enviro.epa.gov/enviro/trisquery.dcn_details?tris_id=27560DMSPR5701M","https://enviro.epa.gov/enviro/rsei.html?facid=27560DMSPR5701M"
"ADAMS AN OLDCASTLE CO-DUNN","192 GATEWAY DR","DUNN","HARNETT","NC","28334","35.26943","-78.63434","15","https://enviro.epa.gov/enviro/tris_control_v2.tris_print?tris_id=2833WLDCST192GA","https://enviro.epa.gov/enviro/trisquery.dcn_details?tris_id=2833WLDCST192GA","https://enviro.epa.gov/enviro/rsei.html?facid=2833WLDCST192GA"
"ADAMS PRODUCTS CO - FAYETTEVILLE","957 COUNTRY CLUB BLVD","FAYETTEVILLE","CUMBERLAND","NC","28301","35.0979","-78.91514","7","https://enviro.epa.gov/enviro/tris_control_v2.tris_print?tris_id=28301DMSPR957CO","https://enviro.epa.gov/enviro/trisquery.dcn_details?tris_id=28301DMSPR957CO","https://enviro.epa.gov/enviro/rsei.html?facid=28301DMSPR957CO"
"ADAMS WOOD TURNING INC","216 WOODBINE ST","HIGH POINT","GUILFORD","NC","27262","35.92624","-80.0299","3","https://enviro.epa.gov/enviro/tris_control_v2.tris_print?tris_id=27262DMSWD216WO","https://enviro.epa.gov/enviro/trisquery.dcn_details?tris_id=27262DMSWD216WO","https://enviro.epa.gov/enviro/rsei.html?facid=27262DMSWD216WO"
"ADAMS-MILLIS INFLUENTIAL 1","425 S CENTENNIAL ST","HIGH POINT","GUILFORD","NC","27260","35.95128","-79.99981","4","https://enviro.epa.gov/enviro/tris_control_v2.tris_print?tris_id=27260MRHSR425SO","https://enviro.epa.gov/enviro/trisquery.dcn_details?tris_id=27260MRHSR425SO","https://enviro.epa.gov/enviro/rsei.html?facid=27260MRHSR425SO"
"ADAMS-MILLIS WRANGLER","501 S CENTENNIAL ST","HIGH POINT","GUILFORD","NC","27260","35.94946","-79.99992","2","https://enviro.epa.gov/enviro/tris_control_v2.tris_print?tris_id=27260DMSML501SO","https://enviro.epa.gov/enviro/trisquery.dcn_details?tris_id=27260DMSML501SO","https://enviro.epa.gov/enviro/rsei.html?facid=27260DMSML501SO"
"AEROQUIP CORP MIDDLESEX PLANT","HWY 264 E ALTERNATE","MIDDLESEX","NASH","NC","275570369","35.78708","-78.18608","2","https://enviro.epa.gov/enviro/tris_control_v2.tris_print?tris_id=27557RQPCRHWY26","https://enviro.epa.gov/enviro/trisquery.dcn_details?tris_id=27557RQPCRHWY26","https://enviro.epa.gov/enviro/rsei.html?facid=27557RQPCRHWY26"
"AIR LIQUIDE INDUSTRIAL US LP","326 FORESTVILLE ROAD","WAKE FOREST","WAKE","NC","27587","35.956964","-78.518075","11","https://enviro.epa.gov/enviro/tris_control_v2.tris_print?tris_id=27587MGNDS326FO","https://enviro.epa.gov/enviro/trisquery.dcn_details?tris_id=27587MGNDS326FO","https://enviro.epa.gov/enviro/rsei.html?facid=27587MGNDS326FO"
"AIRCO SPECIAL GASES","11 TRIANGLE DR","RESEARCH TRIANGLE PARK","WAKE","NC","27709","35.89504","-78.8872","3","https://enviro.epa.gov/enviro/tris_control_v2.tris_print?tris_id=27709RCSPC11TRI","https://enviro.epa.gov/enviro/trisquery.dcn_details?tris_id=27709RCSPC11TRI","https://enviro.epa.gov/enviro/rsei.html?facid=27709RCSPC11TRI"
"AJINOMOTO HEALTH & NUTRITION N.A. INC.","4020 AJINOMOTO DR","RALEIGH","WAKE","NC","27610","35.77127","-78.56609","148","https://enviro.epa.gov/enviro/tris_control_v2.tris_print?tris_id=27610JNMTS4020A","https://enviro.epa.gov/enviro/trisquery.dcn_details?tris_id=27610JNMTS4020A","https://enviro.epa.gov/enviro/rsei.html?facid=27610JNMTS4020A"
"AKZONOBEL COATINGS INC","1431 PROGRESS AVE","HIGH POINT","GUILFORD","NC","27260","35.92387","-80.02214","315","https://enviro.epa.gov/enviro/tris_control_v2.tris_print?tris_id=27261RLNCN1431P","https://enviro.epa.gov/enviro/trisquery.dcn_details?tris_id=27261RLNCN1431P","https://enviro.epa.gov/enviro/rsei.html?facid=27261RLNCN1431P"
"ALCATEL NETWORK SYSTEMS INC","2912 WAKE FOREST RD","RALEIGH","WAKE","NC","27609","35.82181","-78.62301","26","https://enviro.epa.gov/enviro/tris_control_v2.tris_print?tris_id=27609LCTLN2912W","https://enviro.epa.gov/enviro/trisquery.dcn_details?tris_id=27609LCTLN2912W","https://enviro.epa.gov/enviro/rsei.html?facid=27609LCTLN2912W"
"ALCATEL USA","1210-1212 FRONT ST","RALEIGH","WAKE","NC","27609","35.82181","-78.62301","1","https://enviro.epa.gov/enviro/tris_control_v2.tris_print?tris_id=27609LCTLS12101","https://enviro.epa.gov/enviro/trisquery.dcn_details?tris_id=27609LCTLS12101","https://enviro.epa.gov/enviro/rsei.html?facid=27609LCTLS12101"
"ALCOA BADIN WORKS","HWY 740","BADIN","STANLY","NC","28009","35.4155","-80.11826","102","https://enviro.epa.gov/enviro/tris_control_v2.tris_print?tris_id=28009LMNMCHWY74","https://enviro.epa.gov/enviro/trisquery.dcn_details?tris_id=28009LMNMCHWY74","https://enviro.epa.gov/enviro/rsei.html?facid=28009LMNMCHWY74"
"ALMA DESK CO FURNITURE DIV","1301 LINCOLN DR","HIGH POINT","GUILFORD","NC","27261","35.93648","-80.01938","13","https://enviro.epa.gov/enviro/tris_control_v2.tris_print?tris_id=27261LMDSKPOBOX","https://enviro.epa.gov/enviro/trisquery.dcn_details?tris_id=27261LMDSKPOBOX","https://enviro.epa.gov/enviro/rsei.html?facid=27261LMDSKPOBOX"
"ALMA DESK CO PLANT 1","710 W GREEN DR","HIGH POINT","GUILFORD","NC","27261","35.95011","-80.01391","6","https://enviro.epa.gov/enviro/tris_control_v2.tris_print?tris_id=27261LMDSK710WE","https://enviro.epa.gov/enviro/trisquery.dcn_details?tris_id=27261LMDSK710WE","https://enviro.epa.gov/enviro/rsei.html?facid=27261LMDSK710WE"
"ALMA GROUP CASEGOODS PLANT","1300 PROSPECT ST","HIGH POINT","GUILFORD","NC","27261","35.92637","-80.02264","12","https://enviro.epa.gov/enviro/tris_control_v2.tris_print?tris_id=27261LMDSK1300P","https://enviro.epa.gov/enviro/trisquery.dcn_details?tris_id=27261LMDSK1300P","https://enviro.epa.gov/enviro/rsei.html?facid=27261LMDSK1300P"
"AMERADA HESS CORP SELMA NORTH TERMINAL","STATE RD 1929","SELMA","JOHNSTON","NC","27576","35.553611","-78.308333","12","https://enviro.epa.gov/enviro/tris_control_v2.tris_print?tris_id=27576MRDHSSTATE","https://enviro.epa.gov/enviro/trisquery.dcn_details?tris_id=27576MRDHSSTATE","https://enviro.epa.gov/enviro/rsei.html?facid=27576MRDHSSTATE"
"AMERICAN HOME PRODUCTS LEDERLE LABORATORIES DIV","4305 OAK PARK","SANFORD","LEE","NC","27330","35.53918","-79.17456","3","https://enviro.epa.gov/enviro/tris_control_v2.tris_print?tris_id=27330MRCNC4305O","https://enviro.epa.gov/enviro/trisquery.dcn_details?tris_id=27330MRCNC4305O","https://enviro.epa.gov/enviro/rsei.html?facid=27330MRCNC4305O"
"AMERICAN METAL TREATING INC.","500 MANLEY ST","HIGH POINT","GUILFORD","NC","27260","35.95178","-79.97732","49","https://enviro.epa.gov/enviro/tris_control_v2.tris_print?tris_id=27260MRCNM500MA","https://enviro.epa.gov/enviro/trisquery.dcn_details?tris_id=27260MRCNM500MA","https://enviro.epa.gov/enviro/rsei.html?facid=27260MRCNM500MA"
"AMERICAN PHOENIX INC.","318 BLOUNT STREET","FAYETTEVILLE","CUMBERLAND","NC","28301","35.04731","-78.88473","10","https://enviro.epa.gov/enviro/tris_control_v2.tris_print?tris_id=2830WMRCNP318BL","https://enviro.epa.gov/enviro/trisquery.dcn_details?tris_id=2830WMRCNP318BL","https://enviro.epa.gov/enviro/rsei.html?facid=2830WMRCNP318BL"
"AMERICHEM INC LNC","7279 LIBERTY PARK AVE","LIBERTY","RANDOLPH","NC","27298","35.82201","-79.5589","16","https://enviro.epa.gov/enviro/tris_control_v2.tris_print?tris_id=2729WMRCHM7279L","https://enviro.epa.gov/enviro/trisquery.dcn_details?tris_id=2729WMRCHM7279L","https://enviro.epa.gov/enviro/rsei.html?facid=2729WMRCHM7279L"
"AMETEK ESP","8001 KNIGHTDALE BLVD - SUITE 121","KNIGHTDALE","WAKE","NC","27545","35.80728","-78.46033","10","https://enviro.epa.gov/enviro/tris_control_v2.tris_print?tris_id=2754WMTKSP81KNI","https://enviro.epa.gov/enviro/trisquery.dcn_details?tris_id=2754WMTKSP81KNI","https://enviro.epa.gov/enviro/rsei.html?facid=2754WMTKSP81KNI"
"APAC CAROLINA TAPCO ASPHALT PLANT #10","5730 RIVERDALE DR","JAMESTOWN","GUILFORD","NC","27282","35.96367","-79.92144","1","https://enviro.epa.gov/enviro/tris_control_v2.tris_print?tris_id=27282PCCRL5730R","https://enviro.epa.gov/enviro/trisquery.dcn_details?tris_id=27282PCCRL5730R","https://enviro.epa.gov/enviro/rsei.html?facid=27282PCCRL5730R"
"APAC CAROLINA TAPCO ASPHALT PLANT #6","PINEVIEW ST","ASHEBORO","RANDOLPH","NC","27203","35.767976","-79.824749","1","https://enviro.epa.gov/enviro/tris_control_v2.tris_print?tris_id=27203PCCRLPINEV","https://enviro.epa.gov/enviro/trisquery.dcn_details?tris_id=27203PCCRLPINEV","https://enviro.epa.gov/enviro/rsei.html?facid=27203PCCRLPINEV"
"APAC FAYETTEVILLE ASPHALT PLANT","6030 MURCHISON RD","FAYETTEVILLE","CUMBERLAND","NC","28305","35.114927","-78.930593","2","https://enviro.epa.gov/enviro/tris_control_v2.tris_print?tris_id=28305PCCRW6030M","https://enviro.epa.gov/enviro/trisquery.dcn_details?tris_id=28305PCCRW6030M","https://enviro.epa.gov/enviro/rsei.html?facid=28305PCCRW6030M"
"ARAUCO N.A. INC.","985 CORINTH RD","MONCURE","CHATHAM","NC","27559","35.60067","-79.04634","93","https://enviro.epa.gov/enviro/tris_control_v2.tris_print?tris_id=27559WYRHSSTATE","https://enviro.epa.gov/enviro/trisquery.dcn_details?tris_id=27559WYRHSSTATE","https://enviro.epa.gov/enviro/rsei.html?facid=27559WYRHSSTATE"
"ARCLIN USA LLC","790 CORINTH RD","MONCURE","CHATHAM","NC","27559","35.603333","-79.048889","141","https://enviro.epa.gov/enviro/tris_control_v2.tris_print?tris_id=27559CHMBNSTATE","https://enviro.epa.gov/enviro/trisquery.dcn_details?tris_id=27559CHMBNSTATE","https://enviro.epa.gov/enviro/rsei.html?facid=27559CHMBNSTATE"
"ARGOS APEX CONCRETE PLANT","1501 E WILLIAMS ST","APEX","WAKE","NC","27539","35.71034","-78.83807","11","https://enviro.epa.gov/enviro/tris_control_v2.tris_print?tris_id=2750WPXCNC151EW","https://enviro.epa.gov/enviro/trisquery.dcn_details?tris_id=2750WPXCNC151EW","https://enviro.epa.gov/enviro/rsei.html?facid=2750WPXCNC151EW"
"ARGOS CHAPEL HILL CONCRETE PLANT","291 GUTHRIE AVE","CARRBORO","ORANGE","NC","27510","35.908554","-79.067154","6","https://enviro.epa.gov/enviro/tris_control_v2.tris_print?tris_id=2751WRGSCH291GU","https://enviro.epa.gov/enviro/trisquery.dcn_details?tris_id=2751WRGSCH291GU","https://enviro.epa.gov/enviro/rsei.html?facid=2751WRGSCH291GU"
"ARGOS GARNER CONCRETE PLANT","604 E GARNER RD","GARNER","WAKE","NC","27529","35.70435","-78.59646","8","https://enviro.epa.gov/enviro/tris_control_v2.tris_print?tris_id=2752WRGSGR64EGA","https://enviro.epa.gov/enviro/trisquery.dcn_details?tris_id=2752WRGSGR64EGA","https://enviro.epa.gov/enviro/rsei.html?facid=2752WRGSGR64EGA"
"ARGOS HIGH POINT CONCRETE PLANT","406 TOMLINSON ST","HIGH POINT","GUILFORD","NC","27260","35.95118","-80.00764","5","https://enviro.epa.gov/enviro/tris_control_v2.tris_print?tris_id=2726WRGSHG46TML","https://enviro.epa.gov/enviro/trisquery.dcn_details?tris_id=2726WRGSHG46TML","https://enviro.epa.gov/enviro/rsei.html?facid=2726WRGSHG46TML"
"ARGOS KNIGHTDALE CONCRETE PLANT","6835 FORESTVILLE RD","KNIGHTDALE","WAKE","NC","27545","35.80958","-78.48821","8","https://enviro.epa.gov/enviro/tris_control_v2.tris_print?tris_id=2754WRGSKN6835F","https://enviro.epa.gov/enviro/trisquery.dcn_details?tris_id=2754WRGSKN6835F","https://enviro.epa.gov/enviro/rsei.html?facid=2754WRGSKN6835F"
"ARGOS PERSHING RD CONCRETE PLANT","714 PERSHING RD.","RALEIGH","WAKE","NC","27608","35.8046","-78.62915","10","https://enviro.epa.gov/enviro/tris_control_v2.tris_print?tris_id=2760WRGSPR714PE","https://enviro.epa.gov/enviro/trisquery.dcn_details?tris_id=2760WRGSPR714PE","https://enviro.epa.gov/enviro/rsei.html?facid=2760WRGSPR714PE"
"ARGOS READY MIX CAPITAL BLVD CONCRETE PLANT","5025 UNICON DR","WAKE FOREST","WAKE","NC","27587","35.9247","-78.53783","10","https://enviro.epa.gov/enviro/tris_control_v2.tris_print?tris_id=2758WRGSRD525UN","https://enviro.epa.gov/enviro/trisquery.dcn_details?tris_id=2758WRGSRD525UN","https://enviro.epa.gov/enviro/rsei.html?facid=2758WRGSRD525UN"
"ARGOS READY MIX CARY CONCRETE PLANT","331 REEDY CREEK RD","CARY","WAKE","NC","27513","35.79214","-78.76847","12","https://enviro.epa.gov/enviro/tris_control_v2.tris_print?tris_id=2751WPLNTC331RE","https://enviro.epa.gov/enviro/trisquery.dcn_details?tris_id=2751WPLNTC331RE","https://enviro.epa.gov/enviro/rsei.html?facid=2751WPLNTC331RE"
"ARGOS READY MIX DUNN CONCRETE PLANT","401 N FAYETTEVILLE AVE","DUNN","HARNETT","NC","28334","35.31185","-78.60905","4","https://enviro.epa.gov/enviro/tris_control_v2.tris_print?tris_id=2833WRDYMX41NFA","https://enviro.epa.gov/enviro/trisquery.dcn_details?tris_id=2833WRDYMX41NFA","https://enviro.epa.gov/enviro/rsei.html?facid=2833WRDYMX41NFA"
"ARGOS READY MIX HWY 55 CONCRETE PLANT","3411 APEX HWY.","DURHAM","DURHAM","NC","27713","35.9311","-78.88851","10","https://enviro.epa.gov/enviro/tris_control_v2.tris_print?tris_id=2771WRGSRD3411A","https://enviro.epa.gov/enviro/trisquery.dcn_details?tris_id=2771WRGSRD3411A","https://enviro.epa.gov/enviro/rsei.html?facid=2771WRGSRD3411A"
"ARGOS READY MIX PLUM ST CONCRETE PLANT","312 S PLUM ST","DURHAM","DURHAM","NC","27703","35.9826","-78.88321","7","https://enviro.epa.gov/enviro/tris_control_v2.tris_print?tris_id=2770WPLMST312PL","https://enviro.epa.gov/enviro/trisquery.dcn_details?tris_id=2770WPLMST312PL","https://enviro.epa.gov/enviro/rsei.html?facid=2770WPLMST312PL"
"ARGOS READY MIX SMITHFIELD CONCRETE PLANT","502 W. MARKET STREET","SMITHFIELD","JOHNSTON","NC","27577","35.517416","-78.35465","10","https://enviro.epa.gov/enviro/tris_control_v2.tris_print?tris_id=2757WRGSRD52WMA","https://enviro.epa.gov/enviro/trisquery.dcn_details?tris_id=2757WRGSRD52WMA","https://enviro.epa.gov/enviro/rsei.html?facid=2757WRGSRD52WMA"
"ARROW INTERNATIONAL INC","312 COMMERCE PL","ASHEBORO","RANDOLPH","NC","27203","35.77845","-79.81504","36","https://enviro.epa.gov/enviro/tris_control_v2.tris_print?tris_id=27317RRWNT200CO","https://enviro.epa.gov/enviro/trisquery.dcn_details?tris_id=27317RRWNT200CO","https://enviro.epa.gov/enviro/rsei.html?facid=27317RRWNT200CO"
"ASTEELFLASH USA CORP","6833 MT HERMAN RD","MORRISVILLE","WAKE","NC","27560","35.900466","-78.772023","5","https://enviro.epa.gov/enviro/tris_control_v2.tris_print?tris_id=2756WSTLFL6833M","https://enviro.epa.gov/enviro/trisquery.dcn_details?tris_id=2756WSTLFL6833M","https://enviro.epa.gov/enviro/rsei.html?facid=2756WSTLFL6833M"
"ATHEY PRODUCTS CORP","1839 S MAIN ST","WAKE FOREST","WAKE","NC","27587","35.95213","-78.52815","6","https://enviro.epa.gov/enviro/tris_control_v2.tris_print?tris_id=27587THYPRUSHIG","https://enviro.epa.gov/enviro/trisquery.dcn_details?tris_id=27587THYPRUSHIG","https://enviro.epa.gov/enviro/rsei.html?facid=27587THYPRUSHIG"
"AUTOMATIC BLANKET","RTE HWY 95S WALPAT RD","SMITHFIELD","JOHNSTON","NC","27577","35.50102","-78.330146","6","https://enviro.epa.gov/enviro/tris_control_v2.tris_print?tris_id=27577TMTCBRTE1H","https://enviro.epa.gov/enviro/trisquery.dcn_details?tris_id=27577TMTCBRTE1H","https://enviro.epa.gov/enviro/rsei.html?facid=27577TMTCBRTE1H"
"AUTOMOTIVE MOTORS OF THOMASVIL LE,INC.","113 SUNRISE CENTER DR","THOMASVILLE","DAVIDSON","NC","27360","35.88122","-80.05736","6","https://enviro.epa.gov/enviro/tris_control_v2.tris_print?tris_id=27360TMTVM113SU","https://enviro.epa.gov/enviro/trisquery.dcn_details?tris_id=27360TMTVM113SU","https://enviro.epa.gov/enviro/rsei.html?facid=27360TMTVM113SU"
"AVX CORP","3900 ELECTRONICS DR","RALEIGH","WAKE","NC","27604","35.83248","-78.60479","53","https://enviro.epa.gov/enviro/tris_control_v2.tris_print?tris_id=27604VXCRP3900E","https://enviro.epa.gov/enviro/trisquery.dcn_details?tris_id=27604VXCRP3900E","https://enviro.epa.gov/enviro/rsei.html?facid=27604VXCRP3900E"
"AXALTA COATING SYSTEMS USA LLC - HIGH POINT","1717 WEST ENGLISH RD","HIGH POINT","GUILFORD","NC","27262","35.945162","-80.022598","409","https://enviro.epa.gov/enviro/tris_control_v2.tris_print?tris_id=27260THLLL1717E","https://enviro.epa.gov/enviro/trisquery.dcn_details?tris_id=27260THLLL1717E","https://enviro.epa.gov/enviro/rsei.html?facid=27260THLLL1717E"
"B & H PANEL CO","230 W ACADEMY ST","ASHEBORO","RANDOLPH","NC","27203","35.70347","-79.81668","23","https://enviro.epa.gov/enviro/tris_control_v2.tris_print?tris_id=27203BHPNL230WE","https://enviro.epa.gov/enviro/trisquery.dcn_details?tris_id=27203BHPNL230WE","https://enviro.epa.gov/enviro/rsei.html?facid=27203BHPNL230WE"
"B B WALKER CO","414 E DIXIE DR","ASHEBORO","RANDOLPH","NC","27204","35.68859","-79.81189","17","https://enviro.epa.gov/enviro/tris_control_v2.tris_print?tris_id=27203BBWLK414EA","https://enviro.epa.gov/enviro/trisquery.dcn_details?tris_id=27203BBWLK414EA","https://enviro.epa.gov/enviro/rsei.html?facid=27203BBWLK414EA"
"BARNHARDT MANUFACTURING CO","1561 PROSPECT ST","HIGH POINT","GUILFORD","NC","27260","35.92254","-80.02375","9","https://enviro.epa.gov/enviro/tris_control_v2.tris_print?tris_id=27260BRNHR1561P","https://enviro.epa.gov/enviro/trisquery.dcn_details?tris_id=27260BRNHR1561P","https://enviro.epa.gov/enviro/rsei.html?facid=27260BRNHR1561P"
"BEAUTIMAR MANUFACTURING MARBLE INC","1221 HOME CT","RALEIGH","WAKE","NC","27603","35.69751","-78.67572","27","https://enviro.epa.gov/enviro/tris_control_v2.tris_print?tris_id=27603BTMRM1221H","https://enviro.epa.gov/enviro/trisquery.dcn_details?tris_id=27603BTMRM1221H","https://enviro.epa.gov/enviro/rsei.html?facid=27603BTMRM1221H"
"BERK-TEK LLC","100 TECHNOLOGY PARK LN","FUQUAY VARINA","WAKE","NC","27526","35.61851","-78.80765","50","https://enviro.epa.gov/enviro/tris_control_v2.tris_print?tris_id=27526BRKTK100TE","https://enviro.epa.gov/enviro/trisquery.dcn_details?tris_id=27526BRKTK100TE","https://enviro.epa.gov/enviro/rsei.html?facid=27526BRKTK100TE"
"BFI ORGANICS INC #1238-06 PIONEER SOUTHERN DIV","STATE RD 1369","STAR","MONTGOMERY","NC","27356","35.39784","-79.75264","1","https://enviro.epa.gov/enviro/tris_control_v2.tris_print?tris_id=27356PNRSTSTATE","https://enviro.epa.gov/enviro/trisquery.dcn_details?tris_id=27356PNRSTSTATE","https://enviro.epa.gov/enviro/rsei.html?facid=27356PNRSTSTATE"
"BIOGEN IDEC US LP","5000 DAVIS DR","RESEARCH TRIANGLE PARK","WAKE","NC","27709","35.860766","-78.870583","10","https://enviro.epa.gov/enviro/tris_control_v2.tris_print?tris_id=27709BGNNC5000D","https://enviro.epa.gov/enviro/trisquery.dcn_details?tris_id=27709BGNNC5000D","https://enviro.epa.gov/enviro/rsei.html?facid=27709BGNNC5000D"
"BIOGEN RTP","900 DAVIS DR","MORRISVILLE","DURHAM","NC","27560","35.86754","-78.87033","11","https://enviro.epa.gov/enviro/tris_control_v2.tris_print?tris_id=2756WBGNRT9DAVI","https://enviro.epa.gov/enviro/trisquery.dcn_details?tris_id=2756WBGNRT9DAVI","https://enviro.epa.gov/enviro/rsei.html?facid=2756WBGNRT9DAVI"
"BLACK & DECKER (US) INC","HWY 301 S","FAYETTEVILLE","CUMBERLAND","NC","28306","35.001328","-78.901196","73","https://enviro.epa.gov/enviro/tris_control_v2.tris_print?tris_id=28306BLCKDHWY30","https://enviro.epa.gov/enviro/trisquery.dcn_details?tris_id=28306BLCKDHWY30","https://enviro.epa.gov/enviro/rsei.html?facid=28306BLCKDHWY30"
"BLANCHARD TERMINAL CO - SELMA BUFFALO NC TERMINAL","3707 BUFFALO ROAD","SELMA","JOHNSTON","NC","27576","35.54906","-78.306319","93","https://enviro.epa.gov/enviro/tris_control_v2.tris_print?tris_id=2757WBPPRD377BU","https://enviro.epa.gov/enviro/trisquery.dcn_details?tris_id=2757WBPPRD377BU","https://enviro.epa.gov/enviro/rsei.html?facid=2757WBPPRD377BU"
"BOISE CASCADE WOOD PRODUCTS-MONCURE PLYWOOD","306 CORINTH RD","MONCURE","CHATHAM","NC","27559","35.61084","-79.04777","31","https://enviro.epa.gov/enviro/tris_control_v2.tris_print?tris_id=27559WLLMTSTATE","https://enviro.epa.gov/enviro/trisquery.dcn_details?tris_id=27559WLLMTSTATE","https://enviro.epa.gov/enviro/rsei.html?facid=27559WLLMTSTATE"
"BOLING CO","108 W 3RD ST","SILER CITY","CHATHAM","NC","27344","35.724731","-79.464723","12","https://enviro.epa.gov/enviro/tris_control_v2.tris_print?tris_id=27344THBLN108WE","https://enviro.epa.gov/enviro/trisquery.dcn_details?tris_id=27344THBLN108WE","https://enviro.epa.gov/enviro/rsei.html?facid=27344THBLN108WE"
"BONELESS HAMS INC","SUSAN TART ROAD","DUNN","HARNETT","NC","28334","35.308326","-78.637807","4","https://enviro.epa.gov/enviro/tris_control_v2.tris_print?tris_id=28334BNLSSSUSAN","https://enviro.epa.gov/enviro/trisquery.dcn_details?tris_id=28334BNLSSSUSAN","https://enviro.epa.gov/enviro/rsei.html?facid=28334BNLSSSUSAN"
"BRAINERD CHEMICAL CO LLC OF NORTH CAROLINA","1600 S WILSON AVENUES","DUNN","HARNETT","NC","28334","35.294444","-78.621111","103","https://enviro.epa.gov/enviro/tris_control_v2.tris_print?tris_id=28334MCPGN1600S","https://enviro.epa.gov/enviro/trisquery.dcn_details?tris_id=28334MCPGN1600S","https://enviro.epa.gov/enviro/rsei.html?facid=28334MCPGN1600S"
"BRASSCRAFT - THOMASVILLE","1024 RANDOLPH ST","THOMASVILLE","DAVIDSON","NC","27360","35.86641","-80.07204","87","https://enviro.epa.gov/enviro/tris_control_v2.tris_print?tris_id=27360THMSM1024R","https://enviro.epa.gov/enviro/trisquery.dcn_details?tris_id=27360THMSM1024R","https://enviro.epa.gov/enviro/rsei.html?facid=27360THMSM1024R"
"BRAXTON CULLER INC","1950 W GREEN DR","HIGH POINT","GUILFORD","NC","27261","35.93241","-80.0155","10","https://enviro.epa.gov/enviro/tris_control_v2.tris_print?tris_id=27262BRXTN1950W","https://enviro.epa.gov/enviro/trisquery.dcn_details?tris_id=27262BRXTN1950W","https://enviro.epa.gov/enviro/rsei.html?facid=27262BRXTN1950W"
"BRAYTON INTL COLLECTION INC","220 SWATHMORE AVE","HIGH POINT","GUILFORD","NC","272647288","35.91913","-79.98527","2","https://enviro.epa.gov/enviro/tris_control_v2.tris_print?tris_id=27264BRYTN220SW","https://enviro.epa.gov/enviro/trisquery.dcn_details?tris_id=27264BRYTN220SW","https://enviro.epa.gov/enviro/rsei.html?facid=27264BRYTN220SW"
"BRAYTON INTL COLLECTION INC","255 SWATHMORE AVE","HIGH POINT","GUILFORD","NC","27264","35.91914","-79.98747","5","https://enviro.epa.gov/enviro/tris_control_v2.tris_print?tris_id=27264BRYTN255SW","https://enviro.epa.gov/enviro/trisquery.dcn_details?tris_id=27264BRYTN255SW","https://enviro.epa.gov/enviro/rsei.html?facid=27264BRYTN255SW"
"BRAYTON INTL COLLECTION INC","265 SWATHMORE AVE","HIGH POINT","GUILFORD","NC","27264","35.91915","-79.98955","4","https://enviro.epa.gov/enviro/tris_control_v2.tris_print?tris_id=27264BRYTN265SW","https://enviro.epa.gov/enviro/trisquery.dcn_details?tris_id=27264BRYTN265SW","https://enviro.epa.gov/enviro/rsei.html?facid=27264BRYTN265SW"
"BRENNTAG MID-SOUTH","2000 E PETTIGREW ST","DURHAM","DURHAM","NC","27703","35.979401","-78.880293","471","https://enviro.epa.gov/enviro/tris_control_v2.tris_print?tris_id=27702STHCH2000E","https://enviro.epa.gov/enviro/trisquery.dcn_details?tris_id=27702STHCH2000E","https://enviro.epa.gov/enviro/rsei.html?facid=27702STHCH2000E"
"BRISTOL-MYERS SQUIBB CO","9707 CHAPEL HILL RD","MORRISVILLE","WAKE","NC","275600300","35.8077","-78.81359","23","https://enviro.epa.gov/enviro/tris_control_v2.tris_print?tris_id=27560BRSTL9707C","https://enviro.epa.gov/enviro/trisquery.dcn_details?tris_id=27560BRSTL9707C","https://enviro.epa.gov/enviro/rsei.html?facid=27560BRSTL9707C"
"BURLINGTON IND, WAKE PLANT","9701 CAPITOL BLVD","WAKE FOREST","WAKE","NC","27587","35.9136","-78.55085","23","https://enviro.epa.gov/enviro/tris_control_v2.tris_print?tris_id=27587WKFNS9701N","https://enviro.epa.gov/enviro/trisquery.dcn_details?tris_id=27587WKFNS9701N","https://enviro.epa.gov/enviro/rsei.html?facid=27587WKFNS9701N"
"BURT'S BEES MANUFACTURING","701 DISTRIBUTION DR","DURHAM","DURHAM","NC","27709","35.86901","-78.8594","6","https://enviro.epa.gov/enviro/tris_control_v2.tris_print?tris_id=2770WBRTSB71DIS","https://enviro.epa.gov/enviro/trisquery.dcn_details?tris_id=2770WBRTSB71DIS","https://enviro.epa.gov/enviro/rsei.html?facid=2770WBRTSB71DIS"
"CAMPBELL OIL & GAS CO.","224 FAISON HWY","CLINTON","SAMPSON","NC","28328","35.00735","-78.30882","177","https://enviro.epa.gov/enviro/tris_control_v2.tris_print?tris_id=28328CMPBL224FA","https://enviro.epa.gov/enviro/trisquery.dcn_details?tris_id=28328CMPBL224FA","https://enviro.epa.gov/enviro/rsei.html?facid=28328CMPBL224FA"
"CAPITAL MARBLE CREATIONS  INC.","309 W DUNCAN ST","LILLINGTON","HARNETT","NC","27546","35.40568","-78.81776","45","https://enviro.epa.gov/enviro/tris_control_v2.tris_print?tris_id=27546CPTLM309WD","https://enviro.epa.gov/enviro/trisquery.dcn_details?tris_id=27546CPTLM309WD","https://enviro.epa.gov/enviro/rsei.html?facid=27546CPTLM309WD"
"CARBORUNDUM ABRASIVES CO N A","2041 BREVARD RD","HIGH POINT","GUILFORD","NC","27263","35.92847","-79.99699","7","https://enviro.epa.gov/enviro/tris_control_v2.tris_print?tris_id=27263CRBRN2041B","https://enviro.epa.gov/enviro/trisquery.dcn_details?tris_id=27263CRBRN2041B","https://enviro.epa.gov/enviro/rsei.html?facid=27263CRBRN2041B"
"CARGILL INC","1754 RIVER RD","FAYETTEVILLE","CUMBERLAND","NC","28312","35.087889","-78.844949","77","https://enviro.epa.gov/enviro/tris_control_v2.tris_print?tris_id=28302CRGLLRIVER","https://enviro.epa.gov/enviro/trisquery.dcn_details?tris_id=28302CRGLLRIVER","https://enviro.epa.gov/enviro/rsei.html?facid=28302CRGLLRIVER"
"CARGILL INC RALEIGH FACILITY","1400 S BLOUNT ST","RALEIGH","WAKE","NC","27603","35.76093","-78.63754","35","https://enviro.epa.gov/enviro/tris_control_v2.tris_print?tris_id=27603CRGLL1400S","https://enviro.epa.gov/enviro/trisquery.dcn_details?tris_id=27603CRGLL1400S","https://enviro.epa.gov/enviro/rsei.html?facid=27603CRGLL1400S"
"CAROLINA FUR DRESSING","900 FREEDOM DR","RALEIGH","WAKE","NC","27610","35.79312","-78.55665","3","https://enviro.epa.gov/enviro/tris_control_v2.tris_print?tris_id=27610CRLNF9FREE","https://enviro.epa.gov/enviro/trisquery.dcn_details?tris_id=27610CRLNF9FREE","https://enviro.epa.gov/enviro/rsei.html?facid=27610CRLNF9FREE"
"CAROLINA SEATING CO","101 LIBERTY DR","THOMASVILLE","DAVIDSON","NC","27263","35.88507","-80.06566","1","https://enviro.epa.gov/enviro/tris_control_v2.tris_print?tris_id=27263CRLNS101LI","https://enviro.epa.gov/enviro/trisquery.dcn_details?tris_id=27263CRLNS101LI","https://enviro.epa.gov/enviro/rsei.html?facid=27263CRLNS101LI"
"CAROLINA SUNROCK LLC - EASTERN WAKE","1524 OLD US HIGHWAY 264","ZEBULON","WAKE","NC","27597","35.819183","-78.274883","2","https://enviro.epa.gov/enviro/tris_control_v2.tris_print?tris_id=2759WCRLNS1524L","https://enviro.epa.gov/enviro/trisquery.dcn_details?tris_id=2759WCRLNS1524L","https://enviro.epa.gov/enviro/rsei.html?facid=2759WCRLNS1524L"
"CAROLINA SUNROCK LLC - NORTH RALEIGH","5043 UNICON DRIVE","WAKE FOREST","WAKE","NC","27587","35.92231","-78.53867","6","https://enviro.epa.gov/enviro/tris_control_v2.tris_print?tris_id=2758WCRLNS543UN","https://enviro.epa.gov/enviro/trisquery.dcn_details?tris_id=2758WCRLNS543UN","https://enviro.epa.gov/enviro/rsei.html?facid=2758WCRLNS543UN"
"CAROLINA SUNROCK LLC - RDU","8620 BAREFOOT INDUSTRIAL","RALEIGH","WAKE","NC","27617","35.89245","-78.745766","6","https://enviro.epa.gov/enviro/tris_control_v2.tris_print?tris_id=2761WCRLNS862BA","https://enviro.epa.gov/enviro/trisquery.dcn_details?tris_id=2761WCRLNS862BA","https://enviro.epa.gov/enviro/rsei.html?facid=2761WCRLNS862BA"
"CASA BIQUE INC","500 CAROLIN AVE","THOMASVILLE","DAVIDSON","NC","27360","35.88085","-80.07131","3","https://enviro.epa.gov/enviro/tris_control_v2.tris_print?tris_id=27360CSBXX500CA","https://enviro.epa.gov/enviro/trisquery.dcn_details?tris_id=27360CSBXX500CA","https://enviro.epa.gov/enviro/rsei.html?facid=27360CSBXX500CA"
"CASCADE DIE CASTING/ATLANTIC","1800 ALBERTSON RD","HIGH POINT","GUILFORD","NC","27260","35.92874","-80.02799","61","https://enviro.epa.gov/enviro/tris_control_v2.tris_print?tris_id=27260STHRN1800A","https://enviro.epa.gov/enviro/trisquery.dcn_details?tris_id=27260STHRN1800A","https://enviro.epa.gov/enviro/rsei.html?facid=27260STHRN1800A"
"CATERPILLAR INC","5000 WOMACK RD","SANFORD","LEE","NC","27330","35.54703","-79.1716","30","https://enviro.epa.gov/enviro/tris_control_v2.tris_print?tris_id=27330SMNSN5000W","https://enviro.epa.gov/enviro/trisquery.dcn_details?tris_id=27330SMNSN5000W","https://enviro.epa.gov/enviro/rsei.html?facid=27330SMNSN5000W"
"CATERPILLAR INC CLAYTON NC","954 NC HWY 42 E","CLAYTON","JOHNSTON","NC","27527","35.643462","-78.426869","45","https://enviro.epa.gov/enviro/tris_control_v2.tris_print?tris_id=27520CTRPL954NC","https://enviro.epa.gov/enviro/trisquery.dcn_details?tris_id=27520CTRPL954NC","https://enviro.epa.gov/enviro/rsei.html?facid=27520CTRPL954NC"
"CAVALIER INDUSTRIES INC MANSION HOMES DIV","2863 OLD PLANK RD","ROBBINS","MOORE","NC","27325","35.43557","-79.5799","7","https://enviro.epa.gov/enviro/tris_control_v2.tris_print?tris_id=27325MNSNHPLANK","https://enviro.epa.gov/enviro/trisquery.dcn_details?tris_id=27325MNSNHPLANK","https://enviro.epa.gov/enviro/rsei.html?facid=27325MNSNHPLANK"
"CELESTICA CORP","3600 TARHEEL DR","RALEIGH","WAKE","NC","27609","35.8293","-78.60798","1","https://enviro.epa.gov/enviro/tris_control_v2.tris_print?tris_id=27609CLSTC3600T","https://enviro.epa.gov/enviro/trisquery.dcn_details?tris_id=27609CLSTC3600T","https://enviro.epa.gov/enviro/rsei.html?facid=27609CLSTC3600T"
"CELESTICA CORPORATION","9400 GLOBE CENTER DRIVE SUITE 121","MORRISVILLE","WAKE","NC","27560","35.89265","-78.80121","2","https://enviro.epa.gov/enviro/tris_control_v2.tris_print?tris_id=27560CLSTC94GLB","https://enviro.epa.gov/enviro/trisquery.dcn_details?tris_id=27560CLSTC94GLB","https://enviro.epa.gov/enviro/rsei.html?facid=27560CLSTC94GLB"
"CENTRAL CHAIR CO","277 NORTH PARK ST","ASHEBORO","RANDOLPH","NC","272040548","35.71012","-79.82093","5","https://enviro.epa.gov/enviro/tris_control_v2.tris_print?tris_id=27204CNTRL277NP","https://enviro.epa.gov/enviro/trisquery.dcn_details?tris_id=27204CNTRL277NP","https://enviro.epa.gov/enviro/rsei.html?facid=27204CNTRL277NP"
"CHAIR CO","457 W SWANNANOA","LIBERTY","RANDOLPH","NC","272980457","35.852366","-79.578676","3","https://enviro.epa.gov/enviro/tris_control_v2.tris_print?tris_id=27298CHRCX457WS","https://enviro.epa.gov/enviro/trisquery.dcn_details?tris_id=27298CHRCX457WS","https://enviro.epa.gov/enviro/rsei.html?facid=27298CHRCX457WS"
"CHAMPAGNE DYE WORKS INC","210 YZEX ST","ASHEBORO","RANDOLPH","NC","27203","35.75799","-79.8088","2","https://enviro.epa.gov/enviro/tris_control_v2.tris_print?tris_id=27203CHMPG210YZ","https://enviro.epa.gov/enviro/trisquery.dcn_details?tris_id=27203CHMPG210YZ","https://enviro.epa.gov/enviro/rsei.html?facid=27203CHMPG210YZ"
"CHAMPION HOME BUILDERS INC","4055 HWY 401 S","LILLINGTON","HARNETT","NC","27546","35.36299","-78.80416","13","https://enviro.epa.gov/enviro/tris_control_v2.tris_print?tris_id=27546CHMPN455HW","https://enviro.epa.gov/enviro/trisquery.dcn_details?tris_id=27546CHMPN455HW","https://enviro.epa.gov/enviro/rsei.html?facid=27546CHMPN455HW"
"CHAMPION HOMES BUILDERS CO","4055 HWY 401 S","LILLINGTON","HARNETT","NC","27546","35.42387","-78.86351","16","https://enviro.epa.gov/enviro/tris_control_v2.tris_print?tris_id=27546CHMPN3204S","https://enviro.epa.gov/enviro/trisquery.dcn_details?tris_id=27546CHMPN3204S","https://enviro.epa.gov/enviro/rsei.html?facid=27546CHMPN3204S"
"CHAMPION PRODUCTS INC","200 CHAMPION DR","DUNN","HARNETT","NC","28334","35.32086","-78.62971","23","https://enviro.epa.gov/enviro/tris_control_v2.tris_print?tris_id=28334CHMPN200CH","https://enviro.epa.gov/enviro/trisquery.dcn_details?tris_id=28334CHMPN200CH","https://enviro.epa.gov/enviro/rsei.html?facid=28334CHMPN200CH"
"CHAMPION PRODUCTS INC","350 ATKINSON ST","CLAYTON","JOHNSTON","NC","275200156","35.65748","-78.47088","15","https://enviro.epa.gov/enviro/tris_control_v2.tris_print?tris_id=27520CHMPNPOBOX","https://enviro.epa.gov/enviro/trisquery.dcn_details?tris_id=27520CHMPNPOBOX","https://enviro.epa.gov/enviro/rsei.html?facid=27520CHMPNPOBOX"
"CHANDLER CONCRETE-DURHAM PLANT 603","2700 E PETTIGREW","DURHAM","DURHAM","NC","27703","35.97448","-78.87013","1","https://enviro.epa.gov/enviro/tris_control_v2.tris_print?tris_id=2770WCHNDL27EPE","https://enviro.epa.gov/enviro/trisquery.dcn_details?tris_id=2770WCHNDL27EPE","https://enviro.epa.gov/enviro/rsei.html?facid=2770WCHNDL27EPE"
"CHEROKEE SANFORD GROUP INC","11354 BRICKYARD RD","NORWOOD","STANLY","NC","28138","35.22795","-80.1371","7","https://enviro.epa.gov/enviro/tris_control_v2.tris_print?tris_id=28138CHRKS11354","https://enviro.epa.gov/enviro/trisquery.dcn_details?tris_id=28138CHRKS11354","https://enviro.epa.gov/enviro/rsei.html?facid=28138CHRKS11354"
"CHEROKEE SANFORD GROUP INC","BRICKYARD RD","GULF","CHATHAM","NC","27256","35.575298","-79.279586","2","https://enviro.epa.gov/enviro/tris_control_v2.tris_print?tris_id=27256CHRKSBRICK","https://enviro.epa.gov/enviro/trisquery.dcn_details?tris_id=27256CHRKSBRICK","https://enviro.epa.gov/enviro/rsei.html?facid=27256CHRKSBRICK"
"CHEROKEE SANFORD GROUP INC","RTE 1","MONCURE","CHATHAM","NC","27559","35.627398","-79.063628","5","https://enviro.epa.gov/enviro/tris_control_v2.tris_print?tris_id=27559CHRKSRTE1X","https://enviro.epa.gov/enviro/trisquery.dcn_details?tris_id=27559CHRKSRTE1X","https://enviro.epa.gov/enviro/rsei.html?facid=27559CHRKSRTE1X"
"CHEROKEE SANFORD GROUP LLC LEE COUNTY PLANT NO 23","737 COLON RD","SANFORD","LEE","NC","27330","35.49609","-79.1686","16","https://enviro.epa.gov/enviro/tris_control_v2.tris_print?tris_id=27330CHRKS737CO","https://enviro.epa.gov/enviro/trisquery.dcn_details?tris_id=27330CHRKS737CO","https://enviro.epa.gov/enviro/rsei.html?facid=27330CHRKS737CO"
"CHROMA COLOR CORP (FORMERLY PLASTIC COLOR CORP","1134 HIGHWAY 49 SOUTH","ASHEBORO","RANDOLPH","NC","27205","35.72108","-79.756344","140","https://enviro.epa.gov/enviro/tris_control_v2.tris_print?tris_id=27203PLSTCHWY49","https://enviro.epa.gov/enviro/trisquery.dcn_details?tris_id=27203PLSTCHWY49","https://enviro.epa.gov/enviro/rsei.html?facid=27203PLSTCHWY49"
"CHROMCRAFT MONARCH","600 N SCIENTIFIC","HIGH POINT","GUILFORD","NC","27261","35.98735","-79.95152","6","https://enviro.epa.gov/enviro/tris_control_v2.tris_print?tris_id=27261CHRMC600NS","https://enviro.epa.gov/enviro/trisquery.dcn_details?tris_id=27261CHRMC600NS","https://enviro.epa.gov/enviro/rsei.html?facid=27261CHRMC600NS"
"CLASSIC DYESTUFFS INC","301 BRENTWOOD ST","HIGH POINT","GUILFORD","NC","27260","35.96313","-79.9781","25","https://enviro.epa.gov/enviro/tris_control_v2.tris_print?tris_id=27261CLSSC31BRE","https://enviro.epa.gov/enviro/trisquery.dcn_details?tris_id=27261CLSSC31BRE","https://enviro.epa.gov/enviro/rsei.html?facid=27261CLSSC31BRE"
"CMC REBAR NC RALEIGH","2126 GARNER RD","RALEIGH","WAKE","NC","27610","35.751245","-78.631163","1","https://enviro.epa.gov/enviro/tris_control_v2.tris_print?tris_id=2761WCMCRB2126G","https://enviro.epa.gov/enviro/trisquery.dcn_details?tris_id=2761WCMCRB2126G","https://enviro.epa.gov/enviro/rsei.html?facid=2761WCMCRB2126G"
"COLLIER KEYWORTH CO","330 N GREENSBORO ST","LIBERTY","RANDOLPH","NC","27298","35.85846","-79.57221","8","https://enviro.epa.gov/enviro/tris_control_v2.tris_print?tris_id=27298CLLRX330NG","https://enviro.epa.gov/enviro/trisquery.dcn_details?tris_id=27298CLLRX330NG","https://enviro.epa.gov/enviro/rsei.html?facid=27298CLLRX330NG"
"COLONIAL ABRASIVE PRODUCTS CO","312 SOUTH PINE ST   PO BOX 895","ABERDEEN","MOORE","NC","28315","35.126926","-79.428283","6","https://enviro.epa.gov/enviro/tris_control_v2.tris_print?tris_id=28315CLNLBPOBOX","https://enviro.epa.gov/enviro/trisquery.dcn_details?tris_id=28315CLNLBPOBOX","https://enviro.epa.gov/enviro/rsei.html?facid=28315CLNLBPOBOX"
"COMMONWEALTH CONTRACT FURNISHING","1567 PROSPECT ST","HIGH POINT","GUILFORD","NC","27260","35.92209","-80.02414","26","https://enviro.epa.gov/enviro/tris_control_v2.tris_print?tris_id=27260CMMNW1567P","https://enviro.epa.gov/enviro/trisquery.dcn_details?tris_id=27260CMMNW1567P","https://enviro.epa.gov/enviro/rsei.html?facid=27260CMMNW1567P"
"COMPONENT CONCEPTS INC","200 MASON WAY","THOMASVILLE","DAVIDSON","NC","27360","35.88223","-80.06032","20","https://enviro.epa.gov/enviro/tris_control_v2.tris_print?tris_id=27360MSNTC200MA","https://enviro.epa.gov/enviro/trisquery.dcn_details?tris_id=27360MSNTC200MA","https://enviro.epa.gov/enviro/rsei.html?facid=27360MSNTC200MA"
"CONCEPT PLASTICS INC.","1218 HICKORY CHAPEL RD","HIGH POINT","GUILFORD","NC","27260","35.953146","-79.969818","45","https://enviro.epa.gov/enviro/tris_control_v2.tris_print?tris_id=27261CNCPT2631E","https://enviro.epa.gov/enviro/trisquery.dcn_details?tris_id=27261CNCPT2631E","https://enviro.epa.gov/enviro/rsei.html?facid=27261CNCPT2631E"
"CONCRETE PIPE & PRECAST LLC-DUNN PRECAST PLANT","451 WEBB RD","DUNN","HARNETT","NC","28334","35.34635","-78.54638","16","https://enviro.epa.gov/enviro/tris_control_v2.tris_print?tris_id=2833WHNSNP451WE","https://enviro.epa.gov/enviro/trisquery.dcn_details?tris_id=2833WHNSNP451WE","https://enviro.epa.gov/enviro/rsei.html?facid=2833WHNSNP451WE"
"CONCRETE SUPPLY CO  LLC - THOMASVILLE PLANT","5813 CLAYTON STREET","ARCHDALE","DAVIDSON","NC","27263","35.9109","-80.0476","1","https://enviro.epa.gov/enviro/tris_control_v2.tris_print?tris_id=2726WCNCRT5813C","https://enviro.epa.gov/enviro/trisquery.dcn_details?tris_id=2726WCNCRT5813C","https://enviro.epa.gov/enviro/rsei.html?facid=2726WCNCRT5813C"
"CONCRETE SUPPLY CO.  LLC - ABERDEEN","1250 HWY 5 WEST","ABERDEEN","MOORE","NC","28315","35.141816","-79.445983","6","https://enviro.epa.gov/enviro/tris_control_v2.tris_print?tris_id=2831WCMXBR125HW","https://enviro.epa.gov/enviro/trisquery.dcn_details?tris_id=2831WCMXBR125HW","https://enviro.epa.gov/enviro/rsei.html?facid=2831WCMXBR125HW"
"CONCRETE SUPPLY CO.  LLC - DURANT PARK","3740 OVERLOOK RD","RALEIGH","WAKE","NC","27616","35.880844","-78.577966","10","https://enviro.epa.gov/enviro/tris_control_v2.tris_print?tris_id=2761WCNCRT374VE","https://enviro.epa.gov/enviro/trisquery.dcn_details?tris_id=2761WCNCRT374VE","https://enviro.epa.gov/enviro/rsei.html?facid=2761WCNCRT374VE"
"CONCRETE SUPPLY CO.  LLC - MORRISVILLE","222 INTERNATIONAL DRIVE","MORRISVILLE","WAKE","NC","27560","35.83902","-78.82453","13","https://enviro.epa.gov/enviro/tris_control_v2.tris_print?tris_id=2756WCMXMR222IN","https://enviro.epa.gov/enviro/trisquery.dcn_details?tris_id=2756WCMXMR222IN","https://enviro.epa.gov/enviro/rsei.html?facid=2756WCMXMR222IN"
"CONCRETE SUPPLY CO. LLC - FUQUAY","243 PROGRESS DR","FUQUAY VARINA","HARNETT","NC","27526","35.56566","-78.86686","3","https://enviro.epa.gov/enviro/tris_control_v2.tris_print?tris_id=2752WFQYXX243PR","https://enviro.epa.gov/enviro/trisquery.dcn_details?tris_id=2752WFQYXX243PR","https://enviro.epa.gov/enviro/rsei.html?facid=2752WFQYXX243PR"
"CONITRON","RTE #2 GLENOLA AVE","TRINITY","RANDOLPH","NC","27370","35.911074","-80.016826","3","https://enviro.epa.gov/enviro/tris_control_v2.tris_print?tris_id=27370CNTRNRTE2G","https://enviro.epa.gov/enviro/trisquery.dcn_details?tris_id=27370CNTRNRTE2G","https://enviro.epa.gov/enviro/rsei.html?facid=27370CNTRNRTE2G"
"CONTECH US LLC ALBEMARLE","1600 WOODHURST LN","ALBEMARLE","STANLY","NC","28001","35.3419","-80.16976","28","https://enviro.epa.gov/enviro/tris_control_v2.tris_print?tris_id=28001MTLFR1600X","https://enviro.epa.gov/enviro/trisquery.dcn_details?tris_id=28001MTLFR1600X","https://enviro.epa.gov/enviro/rsei.html?facid=28001MTLFR1600X"
"COOPERTOOLS INC  APEX NORTH CAROLINA OPERATIONS","1000 LUFKIN RD","APEX","WAKE","NC","27539","35.71783","-78.83589","134","https://enviro.epa.gov/enviro/tris_control_v2.tris_print?tris_id=27502LFKNXLUFKI","https://enviro.epa.gov/enviro/trisquery.dcn_details?tris_id=27502LFKNXLUFKI","https://enviro.epa.gov/enviro/rsei.html?facid=27502LFKNXLUFKI"
"COTY US LLC","1400 BROADWAY RD","SANFORD","LEE","NC","27332","35.45809","-79.11269","23","https://enviro.epa.gov/enviro/tris_control_v2.tris_print?tris_id=27330CTYXX1400B","https://enviro.epa.gov/enviro/trisquery.dcn_details?tris_id=27330CTYXX1400B","https://enviro.epa.gov/enviro/rsei.html?facid=27330CTYXX1400B"
"COUNCILL CO LLC PLANT # 2","236 N JONES ST","DENTON","DAVIDSON","NC","27239","35.63756","-80.11607","11","https://enviro.epa.gov/enviro/tris_control_v2.tris_print?tris_id=28071CNCLLNORTH","https://enviro.epa.gov/enviro/trisquery.dcn_details?tris_id=28071CNCLLNORTH","https://enviro.epa.gov/enviro/rsei.html?facid=28071CNCLLNORTH"
"COUNCILL CO LLC PLANT 1","267 COUNCILL ACCESS RD","DENTON","DAVIDSON","NC","27239","35.628023","-80.122585","30","https://enviro.epa.gov/enviro/tris_control_v2.tris_print?tris_id=27239CNCLBPOBOX","https://enviro.epa.gov/enviro/trisquery.dcn_details?tris_id=27239CNCLBPOBOX","https://enviro.epa.gov/enviro/rsei.html?facid=27239CNCLBPOBOX"
"COUNCILL CRAFTSMEN INC PLANT 2","1161 N MAIN ST","DENTON","DAVIDSON","NC","27239","35.648492","-80.106072","11","https://enviro.epa.gov/enviro/tris_control_v2.tris_print?tris_id=28071CNCLCOLDHW","https://enviro.epa.gov/enviro/trisquery.dcn_details?tris_id=28071CNCLCOLDHW","https://enviro.epa.gov/enviro/rsei.html?facid=28071CNCLCOLDHW"
"COVANCE BIOTECHNOLOGY SERVICES INC","6051 GEORGE WATTS HILL DR","RESEARCH TRIANGLE PARK","WAKE","NC","27709","35.84109","-78.852696","4","https://enviro.epa.gov/enviro/tris_control_v2.tris_print?tris_id=27709CVNCB6051G","https://enviro.epa.gov/enviro/trisquery.dcn_details?tris_id=27709CVNCB6051G","https://enviro.epa.gov/enviro/rsei.html?facid=27709CVNCB6051G"
"CREE RESEARCH INC","2810 MERIDIAN PKY SUITE 176","DURHAM","DURHAM","NC","27713","35.91356","-78.89794","2","https://enviro.epa.gov/enviro/tris_control_v2.tris_print?tris_id=27713CRRSR2810M","https://enviro.epa.gov/enviro/trisquery.dcn_details?tris_id=27713CRRSR2810M","https://enviro.epa.gov/enviro/rsei.html?facid=27713CRRSR2810M"
"CROWN CENTRAL PETROLEUM CORP","2999 WEST OAK ST","SELMA","JOHNSTON","NC","27576","35.553157","-78.311899","35","https://enviro.epa.gov/enviro/tris_control_v2.tris_print?tris_id=27576CRWNC2999W","https://enviro.epa.gov/enviro/trisquery.dcn_details?tris_id=27576CRWNC2999W","https://enviro.epa.gov/enviro/rsei.html?facid=27576CRWNC2999W"
"CULPEPER OF RAMSEUR LLC","4034 HWY 22S","RAMSEUR","RANDOLPH","NC","27316","35.684352","-79.628421","70","https://enviro.epa.gov/enviro/tris_control_v2.tris_print?tris_id=27234STRCTPOBOX","https://enviro.epa.gov/enviro/trisquery.dcn_details?tris_id=27234STRCTPOBOX","https://enviro.epa.gov/enviro/rsei.html?facid=27234STRCTPOBOX"
"CUSTOM FINISHERS INC","2213 SHORE ST","HIGH POINT","GUILFORD","NC","27264","35.91981","-80.00308","61","https://enviro.epa.gov/enviro/tris_control_v2.tris_print?tris_id=27264CSTMF2213S","https://enviro.epa.gov/enviro/trisquery.dcn_details?tris_id=27264CSTMF2213S","https://enviro.epa.gov/enviro/rsei.html?facid=27264CSTMF2213S"
"CUSTOM PROCESSING & MFG","1110 SURRETT DR","HIGH POINT","GUILFORD","NC","27261","35.93288","-80.00352","16","https://enviro.epa.gov/enviro/tris_control_v2.tris_print?tris_id=27262CSTMP1110S","https://enviro.epa.gov/enviro/trisquery.dcn_details?tris_id=27262CSTMP1110S","https://enviro.epa.gov/enviro/rsei.html?facid=27262CSTMP1110S"
"DAR-RAN FURNITURE INDUSTRIES INC","2402-2404 SHORE ST","HIGH POINT","RANDOLPH","NC","27261","35.91296","-80.00419","14","https://enviro.epa.gov/enviro/tris_control_v2.tris_print?tris_id=27263DRRNF2402S","https://enviro.epa.gov/enviro/trisquery.dcn_details?tris_id=27263DRRNF2402S","https://enviro.epa.gov/enviro/rsei.html?facid=27263DRRNF2402S"
"DATA GENERAL CORP","NC HWY 42-E","CLAYTON","JOHNSTON","NC","27520","35.633645","-78.432783","68","https://enviro.epa.gov/enviro/tris_control_v2.tris_print?tris_id=27520DTGNRPOBOX","https://enviro.epa.gov/enviro/trisquery.dcn_details?tris_id=27520DTGNRPOBOX","https://enviro.epa.gov/enviro/rsei.html?facid=27520DTGNRPOBOX"
"DATA GENERAL CORP","TECHNOLOGY DR","APEX","WAKE","NC","27502","35.69462","-78.83532","3","https://enviro.epa.gov/enviro/tris_control_v2.tris_print?tris_id=27520DTGNRTECHN","https://enviro.epa.gov/enviro/trisquery.dcn_details?tris_id=27520DTGNRTECHN","https://enviro.epa.gov/enviro/rsei.html?facid=27520DTGNRTECHN"
"DAVIS FURNITURE INDUSTRIES INC","2401 SOUTH COLLEGE DR","HIGH POINT","GUILFORD","NC","27260","35.93543","-80.00224","2","https://enviro.epa.gov/enviro/tris_control_v2.tris_print?tris_id=27260DVSFR2401S","https://enviro.epa.gov/enviro/trisquery.dcn_details?tris_id=27260DVSFR2401S","https://enviro.epa.gov/enviro/rsei.html?facid=27260DVSFR2401S"
"DFA DAIRY BRANDS FLUID LLC DBA PET DAIRY","1350 W FAIRFIELD RD","HIGH POINT","GUILFORD","NC","27263","35.9217","-80.01229","44","https://enviro.epa.gov/enviro/tris_control_v2.tris_print?tris_id=27264SPRBR1350W","https://enviro.epa.gov/enviro/trisquery.dcn_details?tris_id=27264SPRBR1350W","https://enviro.epa.gov/enviro/rsei.html?facid=27264SPRBR1350W"
"DIVERSIFIED TECHNOLOGIES INC.","125 WADE ST","JAMESTOWN","GUILFORD","NC","272822039","35.9908","-79.94258","6","https://enviro.epa.gov/enviro/tris_control_v2.tris_print?tris_id=27282DVRSF125WA","https://enviro.epa.gov/enviro/trisquery.dcn_details?tris_id=27282DVRSF125WA","https://enviro.epa.gov/enviro/rsei.html?facid=27282DVRSF125WA"
"DIXIE FURNITURE CO INC","728 SOUTH FAYETTEVILLE ST","ASHEBORO","RANDOLPH","NC","272036406","35.69805","-79.81508","14","https://enviro.epa.gov/enviro/tris_control_v2.tris_print?tris_id=27203DXFRN728SO","https://enviro.epa.gov/enviro/trisquery.dcn_details?tris_id=27203DXFRN728SO","https://enviro.epa.gov/enviro/rsei.html?facid=27203DXFRN728SO"
"DT MAGNETICS","1001 STEEPLE SQUARE CT","KNIGHTDALE","WAKE","NC","27545","35.8028","-78.48936","1","https://enviro.epa.gov/enviro/tris_control_v2.tris_print?tris_id=27545DTMGN1001S","https://enviro.epa.gov/enviro/trisquery.dcn_details?tris_id=27545DTMGN1001S","https://enviro.epa.gov/enviro/rsei.html?facid=27545DTMGN1001S"
"DUBOSE NATIONAL ENERGY SERVICES INC.","900 INDUSTRIAL DR","CLINTON","SAMPSON","NC","28328","35.023","-78.33492","13","https://enviro.epa.gov/enviro/tris_control_v2.tris_print?tris_id=2832WDBSNT9INDU","https://enviro.epa.gov/enviro/trisquery.dcn_details?tris_id=2832WDBSNT9INDU","https://enviro.epa.gov/enviro/rsei.html?facid=2832WDBSNT9INDU"
"DUBOSE STRAPPING INC","906 INDUSTRIAL DR","CLINTON","SAMPSON","NC","28328","35.019539","-78.334228","45","https://enviro.epa.gov/enviro/tris_control_v2.tris_print?tris_id=28328DBSST906IN","https://enviro.epa.gov/enviro/trisquery.dcn_details?tris_id=28328DBSST906IN","https://enviro.epa.gov/enviro/rsei.html?facid=28328DBSST906IN"
"DUKE ENERGY PROGRESS INC  - CAPE FEAR STEAM ELECTRIC PLANT","500 CP&L RD","MONCURE","CHATHAM","NC","275599517","35.595","-79.0492","231","https://enviro.epa.gov/enviro/tris_control_v2.tris_print?tris_id=27559CPFRS500CP","https://enviro.epa.gov/enviro/trisquery.dcn_details?tris_id=27559CPFRS500CP","https://enviro.epa.gov/enviro/rsei.html?facid=27559CPFRS500CP"
"DUPONT","14 T W ALEXANDER DR","RESEARCH TRIANGLE PARK","DURHAM","NC","27709","35.926389","-78.872778","4","https://enviro.epa.gov/enviro/tris_control_v2.tris_print?tris_id=27709DPNTR14TWA","https://enviro.epa.gov/enviro/trisquery.dcn_details?tris_id=27709DPNTR14TWA","https://enviro.epa.gov/enviro/rsei.html?facid=27709DPNTR14TWA"
"DURAFIBER TECHNOLOGIES INC-MONCURE PLANT","338 PEA RIDGE RD","NEW HILL","CHATHAM","NC","27562","35.62051","-79.0504","127","https://enviro.epa.gov/enviro/tris_control_v2.tris_print?tris_id=27559LLSSGPEARI","https://enviro.epa.gov/enviro/trisquery.dcn_details?tris_id=27559LLSSGPEARI","https://enviro.epa.gov/enviro/rsei.html?facid=27559LLSSGPEARI"
"E R CARPENTER CO INC","1021 SPRINGFIELD RD","HIGH POINT","GUILFORD","NC","27264","35.93308","-79.96831","6","https://enviro.epa.gov/enviro/tris_control_v2.tris_print?tris_id=27264RCRPN1021S","https://enviro.epa.gov/enviro/trisquery.dcn_details?tris_id=27264RCRPN1021S","https://enviro.epa.gov/enviro/rsei.html?facid=27264RCRPN1021S"
"EAGLE ELECTRIC SANFORD DIV","310 MCNEIL RD","SANFORD","LEE","NC","27330","35.51163","-79.20662","1","https://enviro.epa.gov/enviro/tris_control_v2.tris_print?tris_id=27330GLLCT310MC","https://enviro.epa.gov/enviro/trisquery.dcn_details?tris_id=27330GLLCT310MC","https://enviro.epa.gov/enviro/rsei.html?facid=27330GLLCT310MC"
"EAST CAROLINA METAL TREATING INC.","1010 S SAUNDERS ST","RALEIGH","WAKE","NC","27603","35.76853","-78.64863","25","https://enviro.epa.gov/enviro/tris_control_v2.tris_print?tris_id=27603STCRL1014S","https://enviro.epa.gov/enviro/trisquery.dcn_details?tris_id=27603STCRL1014S","https://enviro.epa.gov/enviro/rsei.html?facid=27603STCRL1014S"
"EAST CAROLINA METAL TREATING INC.","1117 CAPITAL BLVD.","RALEIGH","WAKE","NC","27603","35.79776","-78.6402","17","https://enviro.epa.gov/enviro/tris_control_v2.tris_print?tris_id=2760WSTCRL1117C","https://enviro.epa.gov/enviro/trisquery.dcn_details?tris_id=2760WSTCRL1117C","https://enviro.epa.gov/enviro/rsei.html?facid=2760WSTCRL1117C"
"EATON - FAYETTEVILLE","2900 DOC BENNETT RD","FAYETTEVILLE","CUMBERLAND","NC","28306","34.99451","-78.89144","93","https://enviro.epa.gov/enviro/tris_control_v2.tris_print?tris_id=28306WSTNG2900D","https://enviro.epa.gov/enviro/trisquery.dcn_details?tris_id=28306WSTNG2900D","https://enviro.epa.gov/enviro/rsei.html?facid=28306WSTNG2900D"
"EATON AEROQUIP","680 LANIER RD","NORWOOD","STANLY","NC","28128","35.21367","-80.10884","35","https://enviro.epa.gov/enviro/tris_control_v2.tris_print?tris_id=28128RQPCRHIGHW","https://enviro.epa.gov/enviro/trisquery.dcn_details?tris_id=28128RQPCRHIGHW","https://enviro.epa.gov/enviro/rsei.html?facid=28128RQPCRHIGHW"
"EATON CORP","2933 S MIAMI BLVD","DURHAM","DURHAM","NC","27703","35.926","-78.84572","11","https://enviro.epa.gov/enviro/tris_control_v2.tris_print?tris_id=27703CTLRH2933S","https://enviro.epa.gov/enviro/trisquery.dcn_details?tris_id=27703CTLRH2933S","https://enviro.epa.gov/enviro/rsei.html?facid=27703CTLRH2933S"
"EATON CORP","9400 GLOBE CENTER DR - SUITE 121","MORRISVILLE","WAKE","NC","27560","35.89267","-78.80081","5","https://enviro.epa.gov/enviro/tris_control_v2.tris_print?tris_id=27560TNCRP94GLB","https://enviro.epa.gov/enviro/trisquery.dcn_details?tris_id=27560TNCRP94GLB","https://enviro.epa.gov/enviro/rsei.html?facid=27560TNCRP94GLB"
"EDWARDS WOOD PRODUCTS INC.","3230 STALEY STORE RD","LIBERTY","ALAMANCE","NC","27298","35.85687","-79.530762","20","https://enviro.epa.gov/enviro/tris_control_v2.tris_print?tris_id=27298DWRDS323ST","https://enviro.epa.gov/enviro/trisquery.dcn_details?tris_id=27298DWRDS323ST","https://enviro.epa.gov/enviro/rsei.html?facid=27298DWRDS323ST"
"ELECTRONIC DATA MAGNETICS INC","210 OLD THOMASVILLE RD","HIGH POINT","GUILFORD","NC","272600000","35.93153","-80.03133","15","https://enviro.epa.gov/enviro/tris_control_v2.tris_print?tris_id=27260LCTRN210OL","https://enviro.epa.gov/enviro/trisquery.dcn_details?tris_id=27260LCTRN210OL","https://enviro.epa.gov/enviro/rsei.html?facid=27260LCTRN210OL"
"ELSTER ELECTRICITY LLC","201 S ROGERS LN","RALEIGH","WAKE","NC","27610","35.77635","-78.54594","34","https://enviro.epa.gov/enviro/tris_control_v2.tris_print?tris_id=27610BBPWR201SR","https://enviro.epa.gov/enviro/trisquery.dcn_details?tris_id=27610BBPWR201SR","https://enviro.epa.gov/enviro/rsei.html?facid=27610BBPWR201SR"
"ENERGIZER  MANUFACTURING INC","419 ART BRYAN DR","ASHEBORO","RANDOLPH","NC","27203","35.77017","-79.81418","125","https://enviro.epa.gov/enviro/tris_control_v2.tris_print?tris_id=27204VRDYB419AR","https://enviro.epa.gov/enviro/trisquery.dcn_details?tris_id=27204VRDYB419AR","https://enviro.epa.gov/enviro/rsei.html?facid=27204VRDYB419AR"
"ENERGY CONVERSION SYSTEMS HOLDINGS LLC","ONE MORGANITE DR","DUNN","HARNETT","NC","28334","35.31823","-78.62076","114","https://enviro.epa.gov/enviro/tris_control_v2.tris_print?tris_id=28334MRGNTONEMO","https://enviro.epa.gov/enviro/trisquery.dcn_details?tris_id=28334MRGNTONEMO","https://enviro.epa.gov/enviro/rsei.html?facid=28334MRGNTONEMO"
"ENGINEERED POLYMER SOLUTIONS INC (DBA VALSPAR COATINGS)","2147 BREVARD RD","HIGH POINT","GUILFORD","NC","27261","35.92471","-79.99828","137","https://enviro.epa.gov/enviro/tris_control_v2.tris_print?tris_id=27263GRDSM2147B","https://enviro.epa.gov/enviro/trisquery.dcn_details?tris_id=27263GRDSM2147B","https://enviro.epa.gov/enviro/rsei.html?facid=27263GRDSM2147B"
"ENGINEERED POLYMER SOLUTIONS INC. D/B/A VALSPAR COATINGS","1647 ENGLISH RD","HIGH POINT","GUILFORD","NC","27261","35.946841","-80.020924","263","https://enviro.epa.gov/enviro/tris_control_v2.tris_print?tris_id=27260THVLS1647E","https://enviro.epa.gov/enviro/trisquery.dcn_details?tris_id=27260THVLS1647E","https://enviro.epa.gov/enviro/rsei.html?facid=27260THVLS1647E"
"ENNIS-FLINT INC - CLC FACILITY","505 COUNTY LINE RD","THOMASVILLE","RANDOLPH","NC","27360","35.87711","-80.04906","1","https://enviro.epa.gov/enviro/tris_control_v2.tris_print?tris_id=2736WNNSFL59CUN","https://enviro.epa.gov/enviro/trisquery.dcn_details?tris_id=2736WNNSFL59CUN","https://enviro.epa.gov/enviro/rsei.html?facid=2736WNNSFL59CUN"
"ENNIS-FLINT INC - HIGH POINT FACILITY","201 OLD THOMASVILLE RD","HIGH POINT","GUILFORD","NC","27260","35.93417","-80.02944","37","https://enviro.epa.gov/enviro/tris_control_v2.tris_print?tris_id=27262NVCHM201OL","https://enviro.epa.gov/enviro/trisquery.dcn_details?tris_id=27262NVCHM201OL","https://enviro.epa.gov/enviro/rsei.html?facid=27262NVCHM201OL"
"ENNIS-FLINT INC - TODD COURT FACILITY","115 TODD CT","THOMASVILLE","DAVIDSON","NC","27360","35.88786","-80.0579","1","https://enviro.epa.gov/enviro/tris_control_v2.tris_print?tris_id=2736WNNSFL115TD","https://enviro.epa.gov/enviro/trisquery.dcn_details?tris_id=2736WNNSFL115TD","https://enviro.epa.gov/enviro/rsei.html?facid=2736WNNSFL115TD"
"ERICO INTERNATIONAL CORP","188 CAROLINA RD","ABERDEEN","MOORE","NC","28315","35.11347","-79.38958","132","https://enviro.epa.gov/enviro/tris_control_v2.tris_print?tris_id=28315CRLNGSR207","https://enviro.epa.gov/enviro/trisquery.dcn_details?tris_id=28315CRLNGSR207","https://enviro.epa.gov/enviro/rsei.html?facid=28315CRLNGSR207"
"EVEREADY BATTERY CO INC","800 ALBEMARLE RD","ASHEBORO","RANDOLPH","NC","27203","35.68998","-79.8252","22","https://enviro.epa.gov/enviro/tris_control_v2.tris_print?tris_id=27203VRDYB800AL","https://enviro.epa.gov/enviro/trisquery.dcn_details?tris_id=27203VRDYB800AL","https://enviro.epa.gov/enviro/rsei.html?facid=27203VRDYB800AL"
"EXIDE ELECTRONICS","3301 SPRING FOREST RD","RALEIGH","WAKE","NC","27604","35.85517","-78.5852","4","https://enviro.epa.gov/enviro/tris_control_v2.tris_print?tris_id=27604XDLCT3301S","https://enviro.epa.gov/enviro/trisquery.dcn_details?tris_id=27604XDLCT3301S","https://enviro.epa.gov/enviro/rsei.html?facid=27604XDLCT3301S"
"FEDERAL PAPER BOARD CO INC","923 FRANKLIN ST","DURHAM","DURHAM","NC","27702","35.990223","-78.888992","7","https://enviro.epa.gov/enviro/tris_control_v2.tris_print?tris_id=27702FDRLP923FR","https://enviro.epa.gov/enviro/trisquery.dcn_details?tris_id=27702FDRLP923FR","https://enviro.epa.gov/enviro/rsei.html?facid=27702FDRLP923FR"
"FLAKEBOARD AMERICA LLC","157 ATC DR","BISCOE","MONTGOMERY","NC","27209","35.328611","-79.767778","8","https://enviro.epa.gov/enviro/tris_control_v2.tris_print?tris_id=2720WFLKBR157AT","https://enviro.epa.gov/enviro/trisquery.dcn_details?tris_id=2720WFLKBR157AT","https://enviro.epa.gov/enviro/rsei.html?facid=2720WFLKBR157AT"
"FLEXLINE IND, DIV NATL FIRE HOSE CORP","121 DICKENS RD","FUQUAY-VARINA","WAKE","NC","27526","35.61468","-78.80859","7","https://enviro.epa.gov/enviro/tris_control_v2.tris_print?tris_id=27526FLXLN121DI","https://enviro.epa.gov/enviro/trisquery.dcn_details?tris_id=27526FLXLN121DI","https://enviro.epa.gov/enviro/rsei.html?facid=27526FLXLN121DI"
"FLOWSERVE - RALEIGH","1900 S SAUNDERS ST","RALEIGH","WAKE","NC","27603","35.75664","-78.64916","67","https://enviro.epa.gov/enviro/tris_control_v2.tris_print?tris_id=27603DWRDV1900S","https://enviro.epa.gov/enviro/trisquery.dcn_details?tris_id=27603DWRDV1900S","https://enviro.epa.gov/enviro/rsei.html?facid=27603DWRDV1900S"
"FOAM DESIGN INC","2425 S ALSTON AVE","DURHAM","DURHAM","NC","27713","35.95477","-78.88222","7","https://enviro.epa.gov/enviro/tris_control_v2.tris_print?tris_id=27713FMDSG2425S","https://enviro.epa.gov/enviro/trisquery.dcn_details?tris_id=27713FMDSG2425S","https://enviro.epa.gov/enviro/rsei.html?facid=27713FMDSG2425S"
"FOAMEX","2827 EARLHAM PL","HIGH POINT","GUILFORD","NC","27263","35.9199","-79.98472","9","https://enviro.epa.gov/enviro/tris_control_v2.tris_print?tris_id=27264RVSBR2228S","https://enviro.epa.gov/enviro/trisquery.dcn_details?tris_id=27264RVSBR2228S","https://enviro.epa.gov/enviro/rsei.html?facid=27264RVSBR2228S"
"FORTRESS WOOD PRODUCTS INC","3874 BETHEL DR EXT","HIGH POINT","RANDOLPH","NC","27260","35.912831","-80.043254","10","https://enviro.epa.gov/enviro/tris_control_v2.tris_print?tris_id=2726WFRTRS3874B","https://enviro.epa.gov/enviro/trisquery.dcn_details?tris_id=2726WFRTRS3874B","https://enviro.epa.gov/enviro/rsei.html?facid=2726WFRTRS3874B"
"FOUNDATION LABS BY PLY GEM LLC","2520 S TRICENTER BLVD","DURHAM","DURHAM","NC","27713","35.92028","-78.88503","5","https://enviro.epa.gov/enviro/tris_control_v2.tris_print?tris_id=2771WPLYGM252ST","https://enviro.epa.gov/enviro/trisquery.dcn_details?tris_id=2771WPLYGM252ST","https://enviro.epa.gov/enviro/rsei.html?facid=2771WPLYGM252ST"
"FRUIT OF THE LOOM HOSIERY STAR DIV","RUSSELL DR","STAR","MONTGOMERY","NC","27356","35.4055","-79.78493","3","https://enviro.epa.gov/enviro/tris_control_v2.tris_print?tris_id=27356FRTFTRUSSE","https://enviro.epa.gov/enviro/trisquery.dcn_details?tris_id=27356FRTFTRUSSE","https://enviro.epa.gov/enviro/rsei.html?facid=27356FRTFTRUSSE"
"FUTURE FOAM INC","1300 PROSPECT","HIGH POINT","GUILFORD","NC","27260","35.926111","-80.023056","42","https://enviro.epa.gov/enviro/tris_control_v2.tris_print?tris_id=27260FFNCN1300P","https://enviro.epa.gov/enviro/trisquery.dcn_details?tris_id=27260FFNCN1300P","https://enviro.epa.gov/enviro/rsei.html?facid=27260FFNCN1300P"
"GALEY & LORD INDUSTRIES INC ASHEBORO PLANT","1947 N FAYETTEVILLE ST","ASHEBORO","RANDOLPH","NC","27203","35.75234","-79.80523","5","https://enviro.epa.gov/enviro/tris_control_v2.tris_print?tris_id=27203GLYLR1947N","https://enviro.epa.gov/enviro/trisquery.dcn_details?tris_id=27203GLYLR1947N","https://enviro.epa.gov/enviro/rsei.html?facid=27203GLYLR1947N"
"GENERAL ELECTRIC AVIATION - DURHAM ENGINE FACILITY","3701 S MIAMI BLVD","DURHAM","DURHAM","NC","27703","35.916166","-78.834116","54","https://enviro.epa.gov/enviro/tris_control_v2.tris_print?tris_id=27709GNRLL3701S","https://enviro.epa.gov/enviro/trisquery.dcn_details?tris_id=27709GNRLL3701S","https://enviro.epa.gov/enviro/rsei.html?facid=27709GNRLL3701S"
"GENERAL SHALE BRICK INC MONCURE FACILITY PLANTS 24 & 25","300 BRICK PLANT RD","MONCURE","CHATHAM","NC","27559","35.57239","-79.03505","64","https://enviro.epa.gov/enviro/tris_control_v2.tris_print?tris_id=27559CHRKSSTATE","https://enviro.epa.gov/enviro/trisquery.dcn_details?tris_id=27559CHRKSSTATE","https://enviro.epa.gov/enviro/rsei.html?facid=27559CHRKSSTATE"
"GENERAL SHALE BRICK INC SANFORD PLANT NO 22","1604 COLON RD","SANFORD","LEE","NC","27330","35.52966","-79.1612","32","https://enviro.epa.gov/enviro/tris_control_v2.tris_print?tris_id=27330SNFRD1600C","https://enviro.epa.gov/enviro/trisquery.dcn_details?tris_id=27330SNFRD1600C","https://enviro.epa.gov/enviro/rsei.html?facid=27330SNFRD1600C"
"GENERAL TIMBER INC","625 FARMVILLE MINE RD","SANFORD","CHATHAM","NC","27330","35.56473","-79.21155","184","https://enviro.epa.gov/enviro/tris_control_v2.tris_print?tris_id=27730GNRLTROUTE","https://enviro.epa.gov/enviro/trisquery.dcn_details?tris_id=27730GNRLTROUTE","https://enviro.epa.gov/enviro/rsei.html?facid=27730GNRLTROUTE"
"GEORGIA-PACIFIC CHEMICALS LLC","18846 NC HWY 8","DENTON","DAVIDSON","NC","27239","35.6125","-80.176667","46","https://enviro.epa.gov/enviro/tris_control_v2.tris_print?tris_id=27239DPNTCRT1BO","https://enviro.epa.gov/enviro/trisquery.dcn_details?tris_id=27239DPNTCRT1BO","https://enviro.epa.gov/enviro/rsei.html?facid=27239DPNTCRT1BO"
"GEORGIA-PACIFIC CORP PACKAGING DIV","200 MCDOWELL RD","ASHEBORO","RANDOLPH","NC","27203","35.66976","-79.82607","1","https://enviro.epa.gov/enviro/tris_control_v2.tris_print?tris_id=27203GRGPC200MC","https://enviro.epa.gov/enviro/trisquery.dcn_details?tris_id=27203GRGPC200MC","https://enviro.epa.gov/enviro/rsei.html?facid=27203GRGPC200MC"
"GKN DRIVELINE SANFORD PRECISIO N FORMING PLANT","4901 WOMACK RD","SANFORD","LEE","NC","27330","35.54897","-79.17383","24","https://enviro.epa.gov/enviro/tris_control_v2.tris_print?tris_id=27330GKNTM4901W","https://enviro.epa.gov/enviro/trisquery.dcn_details?tris_id=27330GKNTM4901W","https://enviro.epa.gov/enviro/rsei.html?facid=27330GKNTM4901W"
"GLASS UNLIMITED","2149 BREVARD RD","HIGH POINT","GUILFORD","NC","27263","35.92338","-79.99837","20","https://enviro.epa.gov/enviro/tris_control_v2.tris_print?tris_id=27263GLSSN2149B","https://enviro.epa.gov/enviro/trisquery.dcn_details?tris_id=27263GLSSN2149B","https://enviro.epa.gov/enviro/rsei.html?facid=27263GLSSN2149B"
"GLAXO WELLCOME INC","5 MOORE DR","RESEARCH TRIANGLE PARK","DURHAM","NC","27709","35.939776","-78.863888","6","https://enviro.epa.gov/enviro/tris_control_v2.tris_print?tris_id=27709GLXNC5MOOR","https://enviro.epa.gov/enviro/trisquery.dcn_details?tris_id=27709GLXNC5MOOR","https://enviro.epa.gov/enviro/rsei.html?facid=27709GLXNC5MOOR"
"GLAXOSMITHKLINE INC","1011 N ARENDELL AVE","ZEBULON","WAKE","NC","27597","35.832054","-78.319739","57","https://enviro.epa.gov/enviro/tris_control_v2.tris_print?tris_id=27597GLXNC1011N","https://enviro.epa.gov/enviro/trisquery.dcn_details?tris_id=27597GLXNC1011N","https://enviro.epa.gov/enviro/rsei.html?facid=27597GLXNC1011N"
"GOLD KIST SILER CITY PROCESSING PLANT","602 S CHATHAM AVE","SILER CITY","CHATHAM","NC","27344","35.71708","-79.45971","3","https://enviro.epa.gov/enviro/tris_control_v2.tris_print?tris_id=27344SHWLL602SC","https://enviro.epa.gov/enviro/trisquery.dcn_details?tris_id=27344SHWLL602SC","https://enviro.epa.gov/enviro/rsei.html?facid=27344SHWLL602SC"
"GOLDEN BELT MANUFACTURING CO","807 E MAIN ST","DURHAM","DURHAM","NC","27701","35.98964","-78.89134","30","https://enviro.epa.gov/enviro/tris_control_v2.tris_print?tris_id=27701GLDNB807EA","https://enviro.epa.gov/enviro/trisquery.dcn_details?tris_id=27701GLDNB807EA","https://enviro.epa.gov/enviro/rsei.html?facid=27701GLDNB807EA"
"GOLDEN BELT MFG CO","105 COMMERCE PL","RANDLEMAN","RANDOLPH","NC","27317","35.77847","-79.81202","7","https://enviro.epa.gov/enviro/tris_control_v2.tris_print?tris_id=27317GLDNB105CO","https://enviro.epa.gov/enviro/trisquery.dcn_details?tris_id=27317GLDNB105CO","https://enviro.epa.gov/enviro/rsei.html?facid=27317GLDNB105CO"
"GOLDSTON LUMBER INC","2304 S MAIN ST","GOLDSTON","CHATHAM","NC","27252","35.589426","-79.325816","48","https://enviro.epa.gov/enviro/tris_control_v2.tris_print?tris_id=27252GLDSTSOUTH","https://enviro.epa.gov/enviro/trisquery.dcn_details?tris_id=27252GLDSTSOUTH","https://enviro.epa.gov/enviro/rsei.html?facid=27252GLDSTSOUTH"
"GOODMARK FOODS INC","4851 JONES SAUSAGE RD","GARNER","WAKE","NC","275299438","35.72387","-78.58765","2","https://enviro.epa.gov/enviro/tris_control_v2.tris_print?tris_id=27529GDMRK4851J","https://enviro.epa.gov/enviro/trisquery.dcn_details?tris_id=27529GDMRK4851J","https://enviro.epa.gov/enviro/rsei.html?facid=27529GDMRK4851J"
"GREDE II LLC","530 E MAIN","BISCOE","MONTGOMERY","NC","27209","35.3607","-79.7686","73","https://enviro.epa.gov/enviro/tris_control_v2.tris_print?tris_id=27209FNDRY530EM","https://enviro.epa.gov/enviro/trisquery.dcn_details?tris_id=27209FNDRY530EM","https://enviro.epa.gov/enviro/rsei.html?facid=27209FNDRY530EM"
"GREGSON FURNITURE IND","206 E FRAZIER AVE","LIBERTY","RANDOLPH","NC","27298","35.84424","-79.56836","4","https://enviro.epa.gov/enviro/tris_control_v2.tris_print?tris_id=27298GRGSN206EA","https://enviro.epa.gov/enviro/trisquery.dcn_details?tris_id=27298GRGSN206EA","https://enviro.epa.gov/enviro/rsei.html?facid=27298GRGSN206EA"
"GRIFOLS THERAPEUTICS LLC","8368 US 70 B US HWY W","CLAYTON","JOHNSTON","NC","27520","35.61961","-78.42068","85","https://enviro.epa.gov/enviro/tris_control_v2.tris_print?tris_id=27520MLSNCHWY70","https://enviro.epa.gov/enviro/trisquery.dcn_details?tris_id=27520MLSNCHWY70","https://enviro.epa.gov/enviro/rsei.html?facid=27520MLSNCHWY70"
"GULISTAN CARPET","3140 HWY 5","ABERDEEN","MOORE","NC","28315","35.135556","-79.435","22","https://enviro.epa.gov/enviro/tris_control_v2.tris_print?tris_id=28315GLSTN3140H","https://enviro.epa.gov/enviro/trisquery.dcn_details?tris_id=28315GLSTN3140H","https://enviro.epa.gov/enviro/rsei.html?facid=28315GLSTN3140H"
"GULTECH NC INC","5800 MC HINES PL","RALEIGH","WAKE","NC","27616","35.85925","-78.59482","47","https://enviro.epa.gov/enviro/tris_control_v2.tris_print?tris_id=27604PRRYC5800M","https://enviro.epa.gov/enviro/trisquery.dcn_details?tris_id=27604PRRYC5800M","https://enviro.epa.gov/enviro/rsei.html?facid=27604PRRYC5800M"
"H W ANDERSEN PRODUCTS INC HEALTH SCIENCE PARK","3202 CAROLINE DR","HAW RIVER","ALAMANCE","NC","272588710","35.98282","-79.27727","15","https://enviro.epa.gov/enviro/tris_control_v2.tris_print?tris_id=27258HWNDR5344N","https://enviro.epa.gov/enviro/trisquery.dcn_details?tris_id=27258HWNDR5344N","https://enviro.epa.gov/enviro/rsei.html?facid=27258HWNDR5344N"
"HAMILTON BEACH PROCTOR-SILEX INC","261 YADKIN RD","SOUTHERN PINES","MOORE","NC","28387","35.18916","-79.37895","8","https://enviro.epa.gov/enviro/tris_control_v2.tris_print?tris_id=28387HMLTN575YA","https://enviro.epa.gov/enviro/trisquery.dcn_details?tris_id=28387HMLTN575YA","https://enviro.epa.gov/enviro/rsei.html?facid=28387HMLTN575YA"
"HANSON BRICK PLEASANT GARDEN PLANT","1410 FOREST ACRES CIR","PLEASANT GARDEN","GUILFORD","NC","27313","35.968414","-79.764518","35","https://enviro.epa.gov/enviro/tris_control_v2.tris_print?tris_id=27313BRNCL1410F","https://enviro.epa.gov/enviro/trisquery.dcn_details?tris_id=27313BRNCL1410F","https://enviro.epa.gov/enviro/rsei.html?facid=27313BRNCL1410F"
"HARCROS CHEMICALS INC","125 SEDGEHILL RD","THOMASVILLE","DAVIDSON","NC","27360","35.86271","-80.07625","8","https://enviro.epa.gov/enviro/tris_control_v2.tris_print?tris_id=27360HRCRS125SE","https://enviro.epa.gov/enviro/trisquery.dcn_details?tris_id=27360HRCRS125SE","https://enviro.epa.gov/enviro/rsei.html?facid=27360HRCRS125SE"
"HARRISS & COVINGTON HOSIERY MILLS INC","1250 HICKORY CHAPEL RD","HIGH POINT","GUILFORD","NC","27260","35.952951","-79.96705","13","https://enviro.epa.gov/enviro/tris_control_v2.tris_print?tris_id=27262HRRSS2525E","https://enviro.epa.gov/enviro/trisquery.dcn_details?tris_id=27262HRRSS2525E","https://enviro.epa.gov/enviro/rsei.html?facid=27262HRRSS2525E"
"HATTERAS YACHTS INC","2100 KIVETT DR","HIGH POINT","GUILFORD","NC","27260","35.96575","-79.96889","30","https://enviro.epa.gov/enviro/tris_control_v2.tris_print?tris_id=27260HTTRS2100K","https://enviro.epa.gov/enviro/trisquery.dcn_details?tris_id=27260HTTRS2100K","https://enviro.epa.gov/enviro/rsei.html?facid=27260HTTRS2100K"
"HAWORTH INC","801 MILLIS ST","HIGH POINT","GUILFORD","NC","27262","35.9488","-80.01597","18","https://enviro.epa.gov/enviro/tris_control_v2.tris_print?tris_id=27261MYRTLCOROF","https://enviro.epa.gov/enviro/trisquery.dcn_details?tris_id=27261MYRTLCOROF","https://enviro.epa.gov/enviro/rsei.html?facid=27261MYRTLCOROF"
"HAWORTH WOOD SEATING","1673 ENGLISH RD","HIGH POINT","GUILFORD","NC","27262","35.9463","-80.0214","2","https://enviro.epa.gov/enviro/tris_control_v2.tris_print?tris_id=27262HWRTH1673E","https://enviro.epa.gov/enviro/trisquery.dcn_details?tris_id=27262HWRTH1673E","https://enviro.epa.gov/enviro/rsei.html?facid=27262HWRTH1673E"
"HEXION INC-FAYETTEVILLE FACILITY","1411 INDUSTRIAL DR","FAYETTEVILLE","CUMBERLAND","NC","28301","35.02915","-78.861916","250","https://enviro.epa.gov/enviro/tris_control_v2.tris_print?tris_id=28302BRDNN1411I","https://enviro.epa.gov/enviro/trisquery.dcn_details?tris_id=28302BRDNN1411I","https://enviro.epa.gov/enviro/rsei.html?facid=28302BRDNN1411I"
"HEXION SPECIALTY CHEMICALS INC.","1717 WARD ST","HIGH POINT","GUILFORD","NC","27261","35.93822","-80.02614","27","https://enviro.epa.gov/enviro/tris_control_v2.tris_print?tris_id=27261BRDNN1717W","https://enviro.epa.gov/enviro/trisquery.dcn_details?tris_id=27261BRDNN1717W","https://enviro.epa.gov/enviro/rsei.html?facid=27261BRDNN1717W"
"HICKORY SPRINGS MANUFACTURING CO","1141 CORP BLVD","HIGH POINT","GUILFORD","NC","27261","35.91607","-80.00353","11","https://enviro.epa.gov/enviro/tris_control_v2.tris_print?tris_id=27261HCKRY1141C","https://enviro.epa.gov/enviro/trisquery.dcn_details?tris_id=27261HCKRY1141C","https://enviro.epa.gov/enviro/rsei.html?facid=27261HCKRY1141C"
"HICKORY SPRINGS MANUFACTURING CO","N/S HWY 27","BISCOE","MONTGOMERY","NC","27209","35.359726","-79.802582","4","https://enviro.epa.gov/enviro/tris_control_v2.tris_print?tris_id=27209HCKRYNSHWY","https://enviro.epa.gov/enviro/trisquery.dcn_details?tris_id=27209HCKRYNSHWY","https://enviro.epa.gov/enviro/rsei.html?facid=27209HCKRYNSHWY"
"HIGH POINT FURNITURE COMPONENTS","1430 SHERMAN CT","HIGH POINT","GUILFORD","NC","27260","35.930872","-80.022763","3","https://enviro.epa.gov/enviro/tris_control_v2.tris_print?tris_id=27260HGHPN143SH","https://enviro.epa.gov/enviro/trisquery.dcn_details?tris_id=27260HGHPN143SH","https://enviro.epa.gov/enviro/rsei.html?facid=27260HGHPN143SH"
"HIGHLAND FABRICATORS","237 KETTERING RD","HIGH POINT","GUILFORD","NC","27263","35.9259","-79.99076","11","https://enviro.epa.gov/enviro/tris_control_v2.tris_print?tris_id=27262HGHLN237KE","https://enviro.epa.gov/enviro/trisquery.dcn_details?tris_id=27262HGHLN237KE","https://enviro.epa.gov/enviro/rsei.html?facid=27262HGHLN237KE"
"HOMES BY OAKWOOD INC PLANT 3","US HWY 1 S","PINEBLUFF","MOORE","NC","28373","35.08194","-79.48777","11","https://enviro.epa.gov/enviro/tris_control_v2.tris_print?tris_id=28373HMSBYUSHWY","https://enviro.epa.gov/enviro/trisquery.dcn_details?tris_id=28373HMSBYUSHWY","https://enviro.epa.gov/enviro/rsei.html?facid=28373HMSBYUSHWY"
"HOOKER FURNITURE INC PLEASANT GARDEN DIV","1212 THROWER RD","PLEASANT GARDEN","GUILFORD","NC","27313","35.96191","-79.765","68","https://enviro.epa.gov/enviro/tris_control_v2.tris_print?tris_id=27313THMSV1212T","https://enviro.epa.gov/enviro/trisquery.dcn_details?tris_id=27313THMSV1212T","https://enviro.epa.gov/enviro/rsei.html?facid=27313THMSV1212T"
"HOUSEHOLD PRODS INC","1758 S FAYETTEVILLE ST","ASHEBORO","RANDOLPH","NC","27203","35.68213","-79.81714","13","https://enviro.epa.gov/enviro/tris_control_v2.tris_print?tris_id=27203BLCKD1758S","https://enviro.epa.gov/enviro/trisquery.dcn_details?tris_id=27203BLCKD1758S","https://enviro.epa.gov/enviro/rsei.html?facid=27203BLCKD1758S"
"HSM-HIGH POINT (PLANT 1)","1325 BAKER RD","HIGH POINT","GUILFORD","NC","27263","35.93848","-79.96596","47","https://enviro.epa.gov/enviro/tris_control_v2.tris_print?tris_id=27260TRDFB1325B","https://enviro.epa.gov/enviro/trisquery.dcn_details?tris_id=27260TRDFB1325B","https://enviro.epa.gov/enviro/rsei.html?facid=27260TRDFB1325B"
"HUBBARD FEEDS INC","39 ALLIED MILLS RD","SELMA","JOHNSTON","NC","27576","35.541101","-78.256327","27","https://enviro.epa.gov/enviro/tris_control_v2.tris_print?tris_id=27576CNTNNUZZIE","https://enviro.epa.gov/enviro/trisquery.dcn_details?tris_id=27576CNTNNUZZIE","https://enviro.epa.gov/enviro/rsei.html?facid=27576CNTNNUZZIE"
"HUBBELL INDUSTRIAL CONTROLS","4301 CHEYENNE DR","ARCHDALE","RANDOLPH","NC","27263","35.8931","-79.9596","18","https://enviro.epa.gov/enviro/tris_control_v2.tris_print?tris_id=27263HBBLL4301C","https://enviro.epa.gov/enviro/trisquery.dcn_details?tris_id=27263HBBLL4301C","https://enviro.epa.gov/enviro/rsei.html?facid=27263HBBLL4301C"
"HUNTER FARMS DAIRY","1900 N MAIN ST","HIGH POINT","GUILFORD","NC","27262","35.980278","-80.020833","21","https://enviro.epa.gov/enviro/tris_control_v2.tris_print?tris_id=27262BRDNN1900N","https://enviro.epa.gov/enviro/trisquery.dcn_details?tris_id=27262BRDNN1900N","https://enviro.epa.gov/enviro/rsei.html?facid=27262BRDNN1900N"
"HYDRO SERVICE & SUPPLIES INC","513 UNITED DRIVE","DURHAM","DURHAM","NC","27713","35.93701","-78.90658","14","https://enviro.epa.gov/enviro/tris_control_v2.tris_print?tris_id=27713HYDRS513UN","https://enviro.epa.gov/enviro/trisquery.dcn_details?tris_id=27713HYDRS513UN","https://enviro.epa.gov/enviro/rsei.html?facid=27713HYDRS513UN"
"HYOSUNG USA, INC.","890 PINEVIEW RD","ASHEBORO","RANDOLPH","NC","27203","35.772637","-79.823853","108","https://enviro.epa.gov/enviro/tris_control_v2.tris_print?tris_id=27317GDYRT800PI","https://enviro.epa.gov/enviro/trisquery.dcn_details?tris_id=27317GDYRT800PI","https://enviro.epa.gov/enviro/rsei.html?facid=27317GDYRT800PI"
"IBM CORP","3039 CORNWALLIS RD","RESEARCH TRIANGLE PARK","DURHAM","NC","277092195","35.908285","-78.86294","13","https://enviro.epa.gov/enviro/tris_control_v2.tris_print?tris_id=27709BMXXX3039C","https://enviro.epa.gov/enviro/trisquery.dcn_details?tris_id=27709BMXXX3039C","https://enviro.epa.gov/enviro/rsei.html?facid=27709BMXXX3039C"
"INCO ALLOYS INTERNATIONAL INC","PITTSBORO INDUSTRIAL PARK HWY 64E","PITTSBORO","CHATHAM","NC","27312","35.71356","-79.15988","4","https://enviro.epa.gov/enviro/tris_control_v2.tris_print?tris_id=27312NCLLYPITTS","https://enviro.epa.gov/enviro/trisquery.dcn_details?tris_id=27312NCLLYPITTS","https://enviro.epa.gov/enviro/rsei.html?facid=27312NCLLYPITTS"
"INDUSTRIAL WOOD PRODUCTS","9205 NC HWY 22 N","CLIMAX","GUILFORD","NC","27233","35.9075","-79.7071","21","https://enviro.epa.gov/enviro/tris_control_v2.tris_print?tris_id=27233NDSTR6924H","https://enviro.epa.gov/enviro/trisquery.dcn_details?tris_id=27233NDSTR6924H","https://enviro.epa.gov/enviro/rsei.html?facid=27233NDSTR6924H"
"INGERSOLL RAND","1725 US HWY 1 N","SOUTHERN PINES","MOORE","NC","28387","35.189722","-79.387049","41","https://enviro.epa.gov/enviro/tris_control_v2.tris_print?tris_id=28387NGRSL1725U","https://enviro.epa.gov/enviro/trisquery.dcn_details?tris_id=28387NGRSL1725U","https://enviro.epa.gov/enviro/rsei.html?facid=28387NGRSL1725U"
"INGRAM PLYWOODS INC","718 BASSETT DR","THOMASVILLE","DAVIDSON","NC","273610947","35.9111","-80.04967","1","https://enviro.epa.gov/enviro/tris_control_v2.tris_print?tris_id=27361NGRMP718BA","https://enviro.epa.gov/enviro/trisquery.dcn_details?tris_id=27361NGRMP718BA","https://enviro.epa.gov/enviro/rsei.html?facid=27361NGRMP718BA"
"INNOSPEC ACTIVE CHEMICALS","510 W GRIMES AVE","HIGH POINT","GUILFORD","NC","27260","35.950596","-80.009533","255","https://enviro.epa.gov/enviro/tris_control_v2.tris_print?tris_id=27262PRCHM1670E","https://enviro.epa.gov/enviro/trisquery.dcn_details?tris_id=27262PRCHM1670E","https://enviro.epa.gov/enviro/rsei.html?facid=27262PRCHM1670E"
"INTEGRATED DNA TECHNOLOGIES","4800 DAVIS DR","MORRISVILLE","WAKE","NC","27560","35.853317","-78.864928","5","https://enviro.epa.gov/enviro/tris_control_v2.tris_print?tris_id=2756WNTGRT48DAV","https://enviro.epa.gov/enviro/trisquery.dcn_details?tris_id=2756WNTGRT48DAV","https://enviro.epa.gov/enviro/rsei.html?facid=2756WNTGRT48DAV"
"INTEK","300 TAYLOR ST","ABERDEEN","MOORE","NC","28315","35.13534","-79.43643","2","https://enviro.epa.gov/enviro/tris_control_v2.tris_print?tris_id=28315NTKXX300TA","https://enviro.epa.gov/enviro/trisquery.dcn_details?tris_id=28315NTKXX300TA","https://enviro.epa.gov/enviro/rsei.html?facid=28315NTKXX300TA"
"INTERNATIONAL PAPER CO","2215 S WILMINGTON ST","RALEIGH","WAKE","NC","27603","35.75139","-78.64241","7","https://enviro.epa.gov/enviro/tris_control_v2.tris_print?tris_id=27603NTRNT2215S","https://enviro.epa.gov/enviro/trisquery.dcn_details?tris_id=27603NTRNT2215S","https://enviro.epa.gov/enviro/rsei.html?facid=27603NTRNT2215S"
"IPS STRUCTURAL ADHESIVES INC.","600 ELLIS RD","DURHAM","DURHAM","NC","27703","35.97239","-78.86697","30","https://enviro.epa.gov/enviro/tris_control_v2.tris_print?tris_id=27703PSCRP6ELLI","https://enviro.epa.gov/enviro/trisquery.dcn_details?tris_id=27703PSCRP6ELLI","https://enviro.epa.gov/enviro/rsei.html?facid=27703PSCRP6ELLI"
"ITHACA INDUSTRIES INC ROBBINS FACILITY","824 HEMP ST","ROBBINS","MOORE","NC","27325","35.42424","-79.570139","7","https://enviro.epa.gov/enviro/tris_control_v2.tris_print?tris_id=27325THCNDHEMPS","https://enviro.epa.gov/enviro/trisquery.dcn_details?tris_id=27325THCNDHEMPS","https://enviro.epa.gov/enviro/rsei.html?facid=27325THCNDHEMPS"
"J.J. CONVERTING L.L.C.","917 J. R. INDUSTRIAL DR","SANFORD","LEE","NC","27330","35.45952","-79.13361","6","https://enviro.epa.gov/enviro/tris_control_v2.tris_print?tris_id=27330JJCNV917JR","https://enviro.epa.gov/enviro/trisquery.dcn_details?tris_id=27330JJCNV917JR","https://enviro.epa.gov/enviro/rsei.html?facid=27330JJCNV917JR"
"JMC (USA) INC","ONE INNOVATION DR","RESEARCH TRIANGLE PARK","DURHAM","NC","27709","35.87595","-78.88483","97","https://enviro.epa.gov/enviro/tris_control_v2.tris_print?tris_id=27709JMCSNONEIN","https://enviro.epa.gov/enviro/trisquery.dcn_details?tris_id=27709JMCSNONEIN","https://enviro.epa.gov/enviro/rsei.html?facid=27709JMCSNONEIN"
"JOHN DEERE TURF CARE","6501 SOUTH NC 55 HWY","FUQUAY VARINA","WAKE","NC","27526","35.58289","-78.75688","72","https://enviro.epa.gov/enviro/tris_control_v2.tris_print?tris_id=27526JHNDR6501H","https://enviro.epa.gov/enviro/trisquery.dcn_details?tris_id=27526JHNDR6501H","https://enviro.epa.gov/enviro/rsei.html?facid=27526JHNDR6501H"
"JORDAN LUMBER & SUPPLY CO","1959 HIGHWAY 109 SOUTH","MOUNT GILEAD","MONTGOMERY","NC","27306","35.257891","-79.979323","7","https://enviro.epa.gov/enviro/tris_control_v2.tris_print?tris_id=2730WJRDNL1959H","https://enviro.epa.gov/enviro/trisquery.dcn_details?tris_id=2730WJRDNL1959H","https://enviro.epa.gov/enviro/rsei.html?facid=2730WJRDNL1959H"
"JOWAT CORP","6058 LOIS LN","HIGH POINT","RANDOLPH","NC","27263","35.90182","-80.01005","18","https://enviro.epa.gov/enviro/tris_control_v2.tris_print?tris_id=2726WJWTCR658LI","https://enviro.epa.gov/enviro/trisquery.dcn_details?tris_id=2726WJWTCR658LI","https://enviro.epa.gov/enviro/rsei.html?facid=2726WJWTCR658LI"
"K M MACHINE CO","201 MCCASKILL ST","BISCOE","MONTGOMERY","NC","27209","35.35814","-79.77009","48","https://enviro.epa.gov/enviro/tris_control_v2.tris_print?tris_id=27209KMMCH201MC","https://enviro.epa.gov/enviro/trisquery.dcn_details?tris_id=27209KMMCH201MC","https://enviro.epa.gov/enviro/rsei.html?facid=27209KMMCH201MC"
"KAO SPECIALTIES AMERICAS LLC","243 WOODBINE ST","HIGH POINT","GUILFORD","NC","27260","35.92333","-80.02967","475","https://enviro.epa.gov/enviro/tris_control_v2.tris_print?tris_id=27261HGHPN255BE","https://enviro.epa.gov/enviro/trisquery.dcn_details?tris_id=27261HGHPN255BE","https://enviro.epa.gov/enviro/rsei.html?facid=27261HGHPN255BE"
"KAYSER-ROTH CORP","515 W  BALFOUR AVE","ASHEBORO","RANDOLPH","NC","27203","35.74892","-79.81591","10","https://enviro.epa.gov/enviro/tris_control_v2.tris_print?tris_id=27203KYSRR515WB","https://enviro.epa.gov/enviro/trisquery.dcn_details?tris_id=27203KYSRR515WB","https://enviro.epa.gov/enviro/rsei.html?facid=27203KYSRR515WB"
"KEENER LUMBER CO INC.","1209 W MARKET ST","SMITHFIELD","JOHNSTON","NC","27577","35.52617","-78.36281","6","https://enviro.epa.gov/enviro/tris_control_v2.tris_print?tris_id=27577KNRLM129WM","https://enviro.epa.gov/enviro/trisquery.dcn_details?tris_id=27577KNRLM129WM","https://enviro.epa.gov/enviro/rsei.html?facid=27577KNRLM129WM"
"KEENER LUMBER CO INC.","8100 HOBTON HWY","CLINTON","SAMPSON","NC","28328","35.118449","-78.318127","4","https://enviro.epa.gov/enviro/tris_control_v2.tris_print?tris_id=28328KNRLM81HBT","https://enviro.epa.gov/enviro/trisquery.dcn_details?tris_id=28328KNRLM81HBT","https://enviro.epa.gov/enviro/rsei.html?facid=28328KNRLM81HBT"
"KELLOGG'S SNACKS - CARY BAKERY","ONE QUALITY LN","CARY","WAKE","NC","27513","35.81696","-78.80972","32","https://enviro.epa.gov/enviro/tris_control_v2.tris_print?tris_id=27513STNQLONEQU","https://enviro.epa.gov/enviro/trisquery.dcn_details?tris_id=27513STNQLONEQU","https://enviro.epa.gov/enviro/rsei.html?facid=27513STNQLONEQU"
"KENNAMETAL INC","201 YZEX ST","ASHEBORO","RANDOLPH","NC","27203","35.75794","-79.80731","53","https://enviro.epa.gov/enviro/tris_control_v2.tris_print?tris_id=27204CLVLN201YZ","https://enviro.epa.gov/enviro/trisquery.dcn_details?tris_id=27204CLVLN201YZ","https://enviro.epa.gov/enviro/rsei.html?facid=27204CLVLN201YZ"
"KENNAMETAL INC","5108 REX MCLEOD DR","SANFORD","LEE","NC","27330","35.55127","-79.17928","1","https://enviro.epa.gov/enviro/tris_control_v2.tris_print?tris_id=27330KNNMT5108R","https://enviro.epa.gov/enviro/trisquery.dcn_details?tris_id=27330KNNMT5108R","https://enviro.epa.gov/enviro/rsei.html?facid=27330KNNMT5108R"
"KENNEDY OIL CO INC","1203 COURTESY RD","HIGH POINT","GUILFORD","NC","27260","35.94314","-80.02049","68","https://enviro.epa.gov/enviro/tris_control_v2.tris_print?tris_id=27260KNNDY1203C","https://enviro.epa.gov/enviro/trisquery.dcn_details?tris_id=27260KNNDY1203C","https://enviro.epa.gov/enviro/rsei.html?facid=27260KNNDY1203C"
"KURZ-KASCH SANFORD DIV","2627 WATSON AVE","SANFORD","LEE","NC","27330","35.4547","-79.14737","13","https://enviro.epa.gov/enviro/tris_control_v2.tris_print?tris_id=27330CLGTP2627W","https://enviro.epa.gov/enviro/trisquery.dcn_details?tris_id=27330CLGTP2627W","https://enviro.epa.gov/enviro/rsei.html?facid=27330CLGTP2627W"
"LAIRD TECHNOLOGIES INC","116 YZEX ST","ASHEBORO","RANDOLPH","NC","27203","35.75793","-79.80682","2","https://enviro.epa.gov/enviro/tris_control_v2.tris_print?tris_id=27203LRDTC116YZ","https://enviro.epa.gov/enviro/trisquery.dcn_details?tris_id=27203LRDTC116YZ","https://enviro.epa.gov/enviro/rsei.html?facid=27203LRDTC116YZ"
"LAMPE & MALPHRUS LUMBER CO","210 N TENTH ST","SMITHFIELD","JOHNSTON","NC","27577","35.5094","-78.3361","24","https://enviro.epa.gov/enviro/tris_control_v2.tris_print?tris_id=27577LMPML210N2","https://enviro.epa.gov/enviro/trisquery.dcn_details?tris_id=27577LMPML210N2","https://enviro.epa.gov/enviro/rsei.html?facid=27577LMPML210N2"
"LAN-O-SHEEN INC","201 DICKENS RD","FUQUAY-VARINA","WAKE","NC","27526","35.61457","-78.8064","10","https://enviro.epa.gov/enviro/tris_control_v2.tris_print?tris_id=27526LNSHN201DI","https://enviro.epa.gov/enviro/trisquery.dcn_details?tris_id=27526LNSHN201DI","https://enviro.epa.gov/enviro/rsei.html?facid=27526LNSHN201DI"
"LEE BRICK & TILE CO","3704 HAWKINS AVE","SANFORD","LEE","NC","27330","35.54708","-79.19088","77","https://enviro.epa.gov/enviro/tris_control_v2.tris_print?tris_id=27330LBRCK3704H","https://enviro.epa.gov/enviro/trisquery.dcn_details?tris_id=27330LBRCK3704H","https://enviro.epa.gov/enviro/rsei.html?facid=27330LBRCK3704H"
"LEGGETT & PLATT SLEEPER COMPONENTS","1639 BLANDWOOD DR","HIGH POINT","GUILFORD","NC","27264","35.927433","-80.02641","12","https://enviro.epa.gov/enviro/tris_control_v2.tris_print?tris_id=27260LGGTT1639B","https://enviro.epa.gov/enviro/trisquery.dcn_details?tris_id=27260LGGTT1639B","https://enviro.epa.gov/enviro/rsei.html?facid=27260LGGTT1639B"
"LFC2","500 OAK TREE DR","SELMA","JOHNSTON","NC","27576","35.53571","-78.30021","57","https://enviro.epa.gov/enviro/tris_control_v2.tris_print?tris_id=27576SMBNR500OA","https://enviro.epa.gov/enviro/trisquery.dcn_details?tris_id=27576SMBNR500OA","https://enviro.epa.gov/enviro/rsei.html?facid=27576SMBNR500OA"
"LITESPEC OPTICAL FIBER LLC","76 ALEXANDER DRIVE","RESEARCH TRIANGLE PARK","DURHAM","NC","27709","35.916667","-78.866667","9","https://enviro.epa.gov/enviro/tris_control_v2.tris_print?tris_id=27709LTSPC76ALE","https://enviro.epa.gov/enviro/trisquery.dcn_details?tris_id=27709LTSPC76ALE","https://enviro.epa.gov/enviro/rsei.html?facid=27709LTSPC76ALE"
"LITHO INDUSTRIES","ONE LITHO WAY","DURHAM","DURHAM","NC","27709","35.930005","-78.808848","5","https://enviro.epa.gov/enviro/tris_control_v2.tris_print?tris_id=27709LTHNDONELI","https://enviro.epa.gov/enviro/trisquery.dcn_details?tris_id=27709LTHNDONELI","https://enviro.epa.gov/enviro/rsei.html?facid=27709LTHNDONELI"
"MAGNETI MARELLI POWERTRAIN USA LLC","2101 NASH ST","SANFORD","LEE","NC","27330","35.46449","-79.1436","117","https://enviro.epa.gov/enviro/tris_control_v2.tris_print?tris_id=27330WBRSN2101N","https://enviro.epa.gov/enviro/trisquery.dcn_details?tris_id=27330WBRSN2101N","https://enviro.epa.gov/enviro/rsei.html?facid=27330WBRSN2101N"
"MAJESTIC MARBLE & GLASS CO","6009 TRIANGLE DR","RALEIGH","WAKE","NC","276174744","35.893989","-78.745187","10","https://enviro.epa.gov/enviro/tris_control_v2.tris_print?tris_id=27613MJSTC6009T","https://enviro.epa.gov/enviro/trisquery.dcn_details?tris_id=27613MJSTC6009T","https://enviro.epa.gov/enviro/rsei.html?facid=27613MJSTC6009T"
"MAJESTIC MARBLE & GLASS CO","8805 ICE DR","RALEIGH","WAKE","NC","27613","35.902315","-78.758338","1","https://enviro.epa.gov/enviro/tris_control_v2.tris_print?tris_id=27613MJSTC8805I","https://enviro.epa.gov/enviro/trisquery.dcn_details?tris_id=27613MJSTC8805I","https://enviro.epa.gov/enviro/rsei.html?facid=27613MJSTC8805I"
"MALLINCKRODT PHARMACEUTICALS","8801 CAPITAL BLVD","RALEIGH","WAKE","NC","27616","35.90059","-78.56164","216","https://enviro.epa.gov/enviro/tris_control_v2.tris_print?tris_id=27604MLLNC8801N","https://enviro.epa.gov/enviro/trisquery.dcn_details?tris_id=27604MLLNC8801N","https://enviro.epa.gov/enviro/rsei.html?facid=27604MLLNC8801N"
"MANN + HUMMEL PUROLATOR FILTERS LLC","3200 NATAL RD","FAYETTEVILLE","CUMBERLAND","NC","28306","35.01388","-78.91885","192","https://enviro.epa.gov/enviro/tris_control_v2.tris_print?tris_id=28306FCTPR3200N","https://enviro.epa.gov/enviro/trisquery.dcn_details?tris_id=28306FCTPR3200N","https://enviro.epa.gov/enviro/rsei.html?facid=28306FCTPR3200N"
"MANNINGTON CERAMIC TILE","HWY 731","MOUNT GILEAD","MONTGOMERY","NC","27306","35.211401","-80.025114","8","https://enviro.epa.gov/enviro/tris_control_v2.tris_print?tris_id=27306MNNNGHWY73","https://enviro.epa.gov/enviro/trisquery.dcn_details?tris_id=27306MNNNGHWY73","https://enviro.epa.gov/enviro/rsei.html?facid=27306MNNNGHWY73"
"MAOLA HIGH POINT","1900 N MAIN ST","HIGH POINT","GUILFORD","NC","27262","35.97952","-80.02114","1","https://enviro.epa.gov/enviro/tris_control_v2.tris_print?tris_id=2726WMLHGH19NMA","https://enviro.epa.gov/enviro/trisquery.dcn_details?tris_id=2726WMLHGH19NMA","https://enviro.epa.gov/enviro/rsei.html?facid=2726WMLHGH19NMA"
"MARLOWE-VAN LOAN CORP","1511 JOSHUA CIRCLE","HIGH POINT","GUILFORD","NC","27260","35.93959","-80.02231","30","https://enviro.epa.gov/enviro/tris_control_v2.tris_print?tris_id=27261MRLWV1511J","https://enviro.epa.gov/enviro/trisquery.dcn_details?tris_id=27261MRLWV1511J","https://enviro.epa.gov/enviro/rsei.html?facid=27261MRLWV1511J"
"MARSH ARMFIELD INC","1237 HICKORY CHAPEL RD","HIGH POINT","GUILFORD","NC","27261","35.953063","-79.967044","14","https://enviro.epa.gov/enviro/tris_control_v2.tris_print?tris_id=27261MRSHR2612E","https://enviro.epa.gov/enviro/trisquery.dcn_details?tris_id=27261MRSHR2612E","https://enviro.epa.gov/enviro/rsei.html?facid=27261MRSHR2612E"
"MARSH FURNITURE CO","1001 S CENTENNIAL ST","HIGH POINT","GUILFORD","NC","27260","35.943189","-79.999779","160","https://enviro.epa.gov/enviro/tris_control_v2.tris_print?tris_id=27261MRSHF1001S","https://enviro.epa.gov/enviro/trisquery.dcn_details?tris_id=27261MRSHF1001S","https://enviro.epa.gov/enviro/rsei.html?facid=27261MRSHF1001S"
"MASTERCRAFT FABRICS LLC SILER CITY PLANT","1311 E ELEVENTH ST","SILER CITY","CHATHAM","NC","27344","35.73278","-79.44861","6","https://enviro.epa.gov/enviro/tris_control_v2.tris_print?tris_id=27344CLLNSHWY64","https://enviro.epa.gov/enviro/trisquery.dcn_details?tris_id=27344CLLNSHWY64","https://enviro.epa.gov/enviro/rsei.html?facid=27344CLLNSHWY64"
"MASTERPIECE HOUSING","2000 STERLING DR","ALBEMARLE","STANLY","NC","28001","35.34026","-80.16648","16","https://enviro.epa.gov/enviro/tris_control_v2.tris_print?tris_id=28001MSTRP2000S","https://enviro.epa.gov/enviro/trisquery.dcn_details?tris_id=28001MSTRP2000S","https://enviro.epa.gov/enviro/rsei.html?facid=28001MSTRP2000S"
"MATLAB INC","HWY 49 S","ASHEBORO","RANDOLPH","NC","272042046","35.678083","-79.855416","6","https://enviro.epa.gov/enviro/tris_control_v2.tris_print?tris_id=27204MTLBNHWY49","https://enviro.epa.gov/enviro/trisquery.dcn_details?tris_id=27204MTLBNHWY49","https://enviro.epa.gov/enviro/rsei.html?facid=27204MTLBNHWY49"
"MAYCRAFT BOATS LLC","96 HILSBORO RD","FOUR OAKS","JOHNSTON","NC","27524","35.45918","-78.38705","28","https://enviro.epa.gov/enviro/tris_control_v2.tris_print?tris_id=27524MYCRF96HIL","https://enviro.epa.gov/enviro/trisquery.dcn_details?tris_id=27524MYCRF96HIL","https://enviro.epa.gov/enviro/rsei.html?facid=27524MYCRF96HIL"
"MCKENZIE SPORTS PRODUCTS LLC DBA MARTIN INDUSTRIES","1135 MONTGOMERY DR","ALBEMARLE","STANLY","NC","28001","35.35537","-80.18022","30","https://enviro.epa.gov/enviro/tris_control_v2.tris_print?tris_id=28001RMNDS714MO","https://enviro.epa.gov/enviro/trisquery.dcn_details?tris_id=28001RMNDS714MO","https://enviro.epa.gov/enviro/rsei.html?facid=28001RMNDS714MO"
"MCRAE FOOTWEAR: TROY","1737 HWY 24-27","TROY","MONTGOMERY","NC","27371","35.325289","-79.939302","12","https://enviro.epa.gov/enviro/tris_control_v2.tris_print?tris_id=2737WMCRFT1737H","https://enviro.epa.gov/enviro/trisquery.dcn_details?tris_id=2737WMCRFT1737H","https://enviro.epa.gov/enviro/rsei.html?facid=2737WMCRFT1737H"
"MCRAE INDUSTRIES INC FOOTWEAR DIV","HWY 109 N, PO BOX 726","MOUNT GILEAD","MONTGOMERY","NC","27306","35.282803","-79.968651","7","https://enviro.epa.gov/enviro/tris_control_v2.tris_print?tris_id=27306MCRNDHWY10","https://enviro.epa.gov/enviro/trisquery.dcn_details?tris_id=27306MCRNDHWY10","https://enviro.epa.gov/enviro/rsei.html?facid=27306MCRNDHWY10"
"MEMOREX TELEX NV","3301 TERMINAL DR","RALEIGH","WAKE","NC","27604","35.80065","-78.58538","2","https://enviro.epa.gov/enviro/tris_control_v2.tris_print?tris_id=27604MMRXT3301T","https://enviro.epa.gov/enviro/trisquery.dcn_details?tris_id=27604MMRXT3301T","https://enviro.epa.gov/enviro/rsei.html?facid=27604MMRXT3301T"
"METAFAB INDUSTRIES","2528 E GREEN DR","HIGH POINT","GUILFORD","NC","27260","35.952645","-79.971222","5","https://enviro.epa.gov/enviro/tris_control_v2.tris_print?tris_id=27260MTFBN2528E","https://enviro.epa.gov/enviro/trisquery.dcn_details?tris_id=27260MTFBN2528E","https://enviro.epa.gov/enviro/rsei.html?facid=27260MTFBN2528E"
"METAL CREATIONS","3521ARMORY DR","HIGH POINT","GUILFORD","NC","27260","35.95667","-79.94564","22","https://enviro.epa.gov/enviro/tris_control_v2.tris_print?tris_id=27261MTLCR3521A","https://enviro.epa.gov/enviro/trisquery.dcn_details?tris_id=27261MTLCR3521A","https://enviro.epa.gov/enviro/rsei.html?facid=27261MTLCR3521A"
"METOKOTE CORP PLANT 29","5000 WOMACK RD","SANFORD","LEE","NC","27330","35.54703","-79.1716","2","https://enviro.epa.gov/enviro/tris_control_v2.tris_print?tris_id=27330MTKTC5000W","https://enviro.epa.gov/enviro/trisquery.dcn_details?tris_id=27330MTKTC5000W","https://enviro.epa.gov/enviro/rsei.html?facid=27330MTKTC5000W"
"MICHELIN AIRCRAFT TIRE CO MICHELIN NORTH DIV","40589 S STANLY SCHOOL RD","NORWOOD","STANLY","NC","28128","35.23264","-80.1623","64","https://enviro.epa.gov/enviro/tris_control_v2.tris_print?tris_id=28128BFGDRSOUTH","https://enviro.epa.gov/enviro/trisquery.dcn_details?tris_id=28128BFGDRSOUTH","https://enviro.epa.gov/enviro/rsei.html?facid=28128BFGDRSOUTH"
"MICKEY TRUCK BODIES INC","1305 TRINTY AVE PO BOX 2044","HIGH POINT","GUILFORD","NC","272612004","35.92531","-80.01725","99","https://enviro.epa.gov/enviro/tris_control_v2.tris_print?tris_id=27261WFMCK1305T","https://enviro.epa.gov/enviro/trisquery.dcn_details?tris_id=27261WFMCK1305T","https://enviro.epa.gov/enviro/rsei.html?facid=27261WFMCK1305T"
"MICROELECTRONICS CENTER OF, NORTH CAROLINA","3021 CORNWALLIS RD","RESEARCH TRIANGLE PARK","DURHAM","NC","27709","35.91764","-78.87097","6","https://enviro.epa.gov/enviro/tris_control_v2.tris_print?tris_id=27709MCRLC3021C","https://enviro.epa.gov/enviro/trisquery.dcn_details?tris_id=27709MCRLC3021C","https://enviro.epa.gov/enviro/rsei.html?facid=27709MCRLC3021C"
"MILLIKEN & CO, ROBBINS PLANT","101 KENNEDY ST","ROBBINS","MOORE","NC","27325","35.4291","-79.57955","4","https://enviro.epa.gov/enviro/tris_control_v2.tris_print?tris_id=27325RBBNS101KE","https://enviro.epa.gov/enviro/trisquery.dcn_details?tris_id=27325RBBNS101KE","https://enviro.epa.gov/enviro/rsei.html?facid=27325RBBNS101KE"
"MITSUBISHI SEMICONDUCTOR, AMERICA INC","THREE DIAMOND LN","DURHAM","DURHAM","NC","27704","35.993343","-78.82421","47","https://enviro.epa.gov/enviro/tris_control_v2.tris_print?tris_id=27704MTSBSTHREE","https://enviro.epa.gov/enviro/trisquery.dcn_details?tris_id=27704MTSBSTHREE","https://enviro.epa.gov/enviro/rsei.html?facid=27704MTSBSTHREE"
"MOEN INC","2609 COX MILL RD","SANFORD","LEE","NC","27332","35.45538","-79.10586","196","https://enviro.epa.gov/enviro/tris_control_v2.tris_print?tris_id=27330STNDY2609C","https://enviro.epa.gov/enviro/trisquery.dcn_details?tris_id=27330STNDY2609C","https://enviro.epa.gov/enviro/rsei.html?facid=27330STNDY2609C"
"MORTON METALCRAFT OF NC","2080 E WILLIAMS ST","APEX","WAKE","NC","27539","35.68902","-78.83397","2","https://enviro.epa.gov/enviro/tris_control_v2.tris_print?tris_id=27539MRTNM28EWI","https://enviro.epa.gov/enviro/trisquery.dcn_details?tris_id=27539MRTNM28EWI","https://enviro.epa.gov/enviro/rsei.html?facid=27539MRTNM28EWI"
"MOTIVA ENTERPRISES LLC FAYETTEVILLE TERMINAL","992 SHAW MILL RD","FAYETTEVILLE","CUMBERLAND","NC","28311","35.114929","-78.917925","33","https://enviro.epa.gov/enviro/tris_control_v2.tris_print?tris_id=2831WMTVNT992SH","https://enviro.epa.gov/enviro/trisquery.dcn_details?tris_id=2831WMTVNT992SH","https://enviro.epa.gov/enviro/rsei.html?facid=2831WMTVNT992SH"
"MOTIVA RALEIGH TERMINAL","2232 TEN-TEN ROAD","APEX","WAKE","NC","275398115","35.717035","-78.814921","33","https://enviro.epa.gov/enviro/tris_control_v2.tris_print?tris_id=2753WMTVRL2232T","https://enviro.epa.gov/enviro/trisquery.dcn_details?tris_id=2753WMTVRL2232T","https://enviro.epa.gov/enviro/rsei.html?facid=2753WMTVRL2232T"
"MOUNTAIRE FARMS - SILER CITY PLANT","1101 EAST THIRD STREET","SILER CITY","CHATHAM","NC","27344","35.732234","-79.449483","5","https://enviro.epa.gov/enviro/tris_control_v2.tris_print?tris_id=2734WMNTRF111EA","https://enviro.epa.gov/enviro/trisquery.dcn_details?tris_id=2734WMNTRF111EA","https://enviro.epa.gov/enviro/rsei.html?facid=2734WMNTRF111EA"
"MOUNTAIRE FARMS INC- CANDOR FEED MILL","203 MORRIS FARM RD","CANDOR","MONTGOMERY","NC","27229","35.299233","-79.715983","76","https://enviro.epa.gov/enviro/tris_control_v2.tris_print?tris_id=27229MNTRF203MO","https://enviro.epa.gov/enviro/trisquery.dcn_details?tris_id=27229MNTRF203MO","https://enviro.epa.gov/enviro/rsei.html?facid=27229MNTRF203MO"
"MPLX TERMINALS LLC - SELMA W OAK ST TERMINAL","2555 W OAK ST","SELMA","JOHNSTON","NC","27576","35.552185","-78.310067","131","https://enviro.epa.gov/enviro/tris_control_v2.tris_print?tris_id=27576XXNMB2555W","https://enviro.epa.gov/enviro/trisquery.dcn_details?tris_id=27576XXNMB2555W","https://enviro.epa.gov/enviro/rsei.html?facid=27576XXNMB2555W"
"NATIONAL FOAM INC","141 JUNNY RD","ANGIER","HARNETT","NC","27501","35.51852","-78.73848","44","https://enviro.epa.gov/enviro/tris_control_v2.tris_print?tris_id=27501KDDFR141JU","https://enviro.epa.gov/enviro/trisquery.dcn_details?tris_id=27501KDDFR141JU","https://enviro.epa.gov/enviro/rsei.html?facid=27501KDDFR141JU"
"NATVAR","8720 US 70 W","CLAYTON","JOHNSTON","NC","27520","35.6247","-78.42423","35","https://enviro.epa.gov/enviro/tris_control_v2.tris_print?tris_id=27520NTRXX8720U","https://enviro.epa.gov/enviro/trisquery.dcn_details?tris_id=27520NTRXX8720U","https://enviro.epa.gov/enviro/rsei.html?facid=27520NTRXX8720U"
"NORCRAFT COS LP DBA ULTRACRAFT CABINETRY","6163 OLD 421 RD","LIBERTY","RANDOLPH","NC","27298","35.88335","-79.58006","29","https://enviro.epa.gov/enviro/tris_control_v2.tris_print?tris_id=27298SSCTD6163O","https://enviro.epa.gov/enviro/trisquery.dcn_details?tris_id=27298SSCTD6163O","https://enviro.epa.gov/enviro/rsei.html?facid=27298SSCTD6163O"
"NORTEL NORTHERN TELECOM","4001 E CHAPELL HILL NELSON HWY","RESEARCH TRIANGLE PARK","DURHAM","NC","27709","35.889479","-78.852911","25","https://enviro.epa.gov/enviro/tris_control_v2.tris_print?tris_id=27709NRTHR4001E","https://enviro.epa.gov/enviro/trisquery.dcn_details?tris_id=27709NRTHR4001E","https://enviro.epa.gov/enviro/rsei.html?facid=27709NRTHR4001E"
"NORTHERN TELECOM INC","4600 EMPEROR BLVD","MORRISVILLE","WAKE","NC","27560","35.875471","-78.838212","14","https://enviro.epa.gov/enviro/tris_control_v2.tris_print?tris_id=27560NRTHR4600E","https://enviro.epa.gov/enviro/trisquery.dcn_details?tris_id=27560NRTHR4600E","https://enviro.epa.gov/enviro/rsei.html?facid=27560NRTHR4600E"
"NOVO NORDISK DAPI-US","3611 POWHATAN RD","CLAYTON","JOHNSTON","NC","27527","35.61703","-78.40426","13","https://enviro.epa.gov/enviro/tris_control_v2.tris_print?tris_id=2752WNVNRD3611P","https://enviro.epa.gov/enviro/trisquery.dcn_details?tris_id=2752WNVNRD3611P","https://enviro.epa.gov/enviro/rsei.html?facid=2752WNVNRD3611P"
"NOVO NORDISK PHARMACEUTICALS INDUSTRIES ,LP","3612 POWHATAN RD","CLAYTON","JOHNSTON","NC","27527","35.61728","-78.40945","13","https://enviro.epa.gov/enviro/tris_control_v2.tris_print?tris_id=2752WNVNRD3612P","https://enviro.epa.gov/enviro/trisquery.dcn_details?tris_id=2752WNVNRD3612P","https://enviro.epa.gov/enviro/rsei.html?facid=2752WNVNRD3612P"
"OAKDALE COTTON MILLS","710 OAKDALE RD","JAMESTOWN","GUILFORD","NC","27282","35.982319","-79.927127","4","https://enviro.epa.gov/enviro/tris_control_v2.tris_print?tris_id=27282KDLCT710OA","https://enviro.epa.gov/enviro/trisquery.dcn_details?tris_id=27282KDLCT710OA","https://enviro.epa.gov/enviro/rsei.html?facid=27282KDLCT710OA"
"OFS BRANDS INC PLANT 23","535 ARCHDALE BLVD","ARCHDALE","RANDOLPH","NC","27263","35.910449","-79.994202","7","https://enviro.epa.gov/enviro/tris_control_v2.tris_print?tris_id=2726WCRLNB535AR","https://enviro.epa.gov/enviro/trisquery.dcn_details?tris_id=2726WCRLNB535AR","https://enviro.epa.gov/enviro/rsei.html?facid=2726WCRLNB535AR"
"OLDCASTLE LAWN & GARDEN","107 RESERVATION ROAD","ABERDEEN","HOKE","NC","28315","35.090041","-79.36598","20","https://enviro.epa.gov/enviro/tris_control_v2.tris_print?tris_id=2837WLDCST17RES","https://enviro.epa.gov/enviro/trisquery.dcn_details?tris_id=2837WLDCST17RES","https://enviro.epa.gov/enviro/rsei.html?facid=2837WLDCST17RES"
"OLDCASTLE PRECAST INC","1431 PRODUCTS RD","FUQUAY-VARINA","WAKE","NC","27526","35.598138","-78.77314","21","https://enviro.epa.gov/enviro/tris_control_v2.tris_print?tris_id=27526NCPRD1431P","https://enviro.epa.gov/enviro/trisquery.dcn_details?tris_id=27526NCPRD1431P","https://enviro.epa.gov/enviro/rsei.html?facid=27526NCPRD1431P"
"OLDCASTLE PRECAST INC","920 WITHERS RD","RALEIGH","WAKE","NC","27603","35.730426","-78.663486","33","https://enviro.epa.gov/enviro/tris_control_v2.tris_print?tris_id=27603LDCST92WIT","https://enviro.epa.gov/enviro/trisquery.dcn_details?tris_id=27603LDCST92WIT","https://enviro.epa.gov/enviro/rsei.html?facid=27603LDCST92WIT"
"OLIVER RUBBER CO","408 TELEPHONE AVE","ASHEBORO","RANDOLPH","NC","27205","35.68579","-79.81244","104","https://enviro.epa.gov/enviro/tris_control_v2.tris_print?tris_id=27203LVRRB408TE","https://enviro.epa.gov/enviro/trisquery.dcn_details?tris_id=27203LVRRB408TE","https://enviro.epa.gov/enviro/rsei.html?facid=27203LVRRB408TE"
"OPW FUELING CONTAINMENT SYSTEMS","3250 HIGHWAY 70 BUSINESS WEST","SMITHFIELD","JOHNSTON","NC","27577","35.515551","-78.358476","2","https://enviro.epa.gov/enviro/tris_control_v2.tris_print?tris_id=2757WPWFLN325HI","https://enviro.epa.gov/enviro/trisquery.dcn_details?tris_id=2757WPWFLN325HI","https://enviro.epa.gov/enviro/rsei.html?facid=2757WPWFLN325HI"
"ORNAMENTAL PRODUCTS LLC","2214 SHORE ST","HIGH POINT","GUILFORD","NC","27263","35.91973","-80.00311","2","https://enviro.epa.gov/enviro/tris_control_v2.tris_print?tris_id=27263RNMNT2214S","https://enviro.epa.gov/enviro/trisquery.dcn_details?tris_id=27263RNMNT2214S","https://enviro.epa.gov/enviro/rsei.html?facid=27263RNMNT2214S"
"OXFORD UNIVERSITY PRESS","2001 EVANS RD","CARY","WAKE","NC","27513","35.82294","-78.80422","3","https://enviro.epa.gov/enviro/tris_control_v2.tris_print?tris_id=27513XFRDN21EVA","https://enviro.epa.gov/enviro/trisquery.dcn_details?tris_id=27513XFRDN21EVA","https://enviro.epa.gov/enviro/rsei.html?facid=27513XFRDN21EVA"
"PALLET ONE OF SILER CITY","2340 IKE BROOKS RD","SILER CITY","CHATHAM","NC","27344","35.65526","-79.39197","12","https://enviro.epa.gov/enviro/tris_control_v2.tris_print?tris_id=2734WPLLTN234IK","https://enviro.epa.gov/enviro/trisquery.dcn_details?tris_id=2734WPLLTN234IK","https://enviro.epa.gov/enviro/rsei.html?facid=2734WPLLTN234IK"
"PALM HARBOR HOMES","45 SILER CITY INDUSTRIAL PARK","SILER CITY","CHATHAM","NC","27344","35.75104","-79.48359","10","https://enviro.epa.gov/enviro/tris_control_v2.tris_print?tris_id=27344PLMHR45IND","https://enviro.epa.gov/enviro/trisquery.dcn_details?tris_id=27344PLMHR45IND","https://enviro.epa.gov/enviro/rsei.html?facid=27344PLMHR45IND"
"PBM GRAPHICS INC","4900 PROSPECTUS DR","DURHAM","DURHAM","NC","27713","35.89615","-78.89236","5","https://enviro.epa.gov/enviro/tris_control_v2.tris_print?tris_id=27713PBMGR4900P","https://enviro.epa.gov/enviro/trisquery.dcn_details?tris_id=27713PBMGR4900P","https://enviro.epa.gov/enviro/rsei.html?facid=27713PBMGR4900P"
"PBM GRAPHICS RTP FACILITY","3700 S MIAMI BLVD","DURHAM","DURHAM","NC","27703","35.913215","-78.850436","1","https://enviro.epa.gov/enviro/tris_control_v2.tris_print?tris_id=27703PBMGR37SMI","https://enviro.epa.gov/enviro/trisquery.dcn_details?tris_id=27703PBMGR37SMI","https://enviro.epa.gov/enviro/rsei.html?facid=27703PBMGR37SMI"
"PCC AIRFOILS INC","5105 REX MCLEOD DR","SANFORD","LEE","NC","27330","35.5515","-79.17933","9","https://enviro.epa.gov/enviro/tris_control_v2.tris_print?tris_id=27330PCCRF5105R","https://enviro.epa.gov/enviro/trisquery.dcn_details?tris_id=27330PCCRF5105R","https://enviro.epa.gov/enviro/rsei.html?facid=27330PCCRF5105R"
"PENTAIR WATER POOL & SPA INC.","1620 HAWKINS AVE.","SANFORD","LEE","NC","27330","35.50352","-79.17889","78","https://enviro.epa.gov/enviro/tris_control_v2.tris_print?tris_id=27330PCFBN1616H","https://enviro.epa.gov/enviro/trisquery.dcn_details?tris_id=27330PCFBN1616H","https://enviro.epa.gov/enviro/rsei.html?facid=27330PCFBN1616H"
"PEPSI BOTTLING VENTURES LLC","2838 WAKE FOREST RD","RALEIGH","WAKE","NC","27609","35.81844","-78.62463","10","https://enviro.epa.gov/enviro/tris_control_v2.tris_print?tris_id=27609PPSCL2838W","https://enviro.epa.gov/enviro/trisquery.dcn_details?tris_id=27609PPSCL2838W","https://enviro.epa.gov/enviro/rsei.html?facid=27609PPSCL2838W"
"PERDUE AGRIBUSINESS LLC - ANSONVILLE NC ANIMAL NUTRITION","2755 OLD HWY 52 WEST","ANSONVILLE","ANSON","NC","28007","35.18","-80.110001","26","https://enviro.epa.gov/enviro/tris_control_v2.tris_print?tris_id=28128NSNVLSR162","https://enviro.epa.gov/enviro/trisquery.dcn_details?tris_id=28128NSNVLSR162","https://enviro.epa.gov/enviro/rsei.html?facid=28128NSNVLSR162"
"PERDUE FOODS LLC - CANDOR FEEDMILL/EAGLE SPRINGS HATCHERY","HIGHWAY 211 EAST - 351 PERDUE WAY","CANDOR","MOORE","NC","27229","35.300916","-79.703216","138","https://enviro.epa.gov/enviro/tris_control_v2.tris_print?tris_id=27242PRDNCHWY21","https://enviro.epa.gov/enviro/trisquery.dcn_details?tris_id=27242PRDNCHWY21","https://enviro.epa.gov/enviro/rsei.html?facid=27242PRDNCHWY21"
"PGI NONWOVENS","1203 S CHICOPEE RD","BENSON","JOHNSTON","NC","27504","35.369539","-78.551032","13","https://enviro.epa.gov/enviro/tris_control_v2.tris_print?tris_id=27504PGNNW1203S","https://enviro.epa.gov/enviro/trisquery.dcn_details?tris_id=27504PGNNW1203S","https://enviro.epa.gov/enviro/rsei.html?facid=27504PGNNW1203S"
"PIEDMONT CHEMICAL INDUSTRIES I LLC","331 BURTON AVE","HIGH POINT","GUILFORD","NC","27262","35.93713","-80.03369","316","https://enviro.epa.gov/enviro/tris_control_v2.tris_print?tris_id=27260PDMNT331BU","https://enviro.epa.gov/enviro/trisquery.dcn_details?tris_id=27260PDMNT331BU","https://enviro.epa.gov/enviro/rsei.html?facid=27260PDMNT331BU"
"PILGRIM'S PRIDE CORP  BONLEE FEED MILL","3732 OLD US HWY 421 N","BONLEE","CHATHAM","NC","27213","35.650833","-79.416667","30","https://enviro.epa.gov/enviro/tris_control_v2.tris_print?tris_id=27213GLDKSOLDUS","https://enviro.epa.gov/enviro/trisquery.dcn_details?tris_id=27213GLDKSOLDUS","https://enviro.epa.gov/enviro/rsei.html?facid=27213GLDKSOLDUS"
"PILGRIM'S PRIDE CORP SANFORD FACILITY","484 ZIMMERMAN RD","SANFORD","LEE","NC","27330","35.558038","-79.22948","98","https://enviro.epa.gov/enviro/tris_control_v2.tris_print?tris_id=27330GLDNP6500Z","https://enviro.epa.gov/enviro/trisquery.dcn_details?tris_id=27330GLDNP6500Z","https://enviro.epa.gov/enviro/rsei.html?facid=27330GLDNP6500Z"
"PILGRIM'S PRIDE CORP STALEY FEEDMILL","2607 OLD 421 RD","STALEY","RANDOLPH","NC","27355","35.81061","-79.55357","63","https://enviro.epa.gov/enviro/tris_control_v2.tris_print?tris_id=27355LBRTY2607O","https://enviro.epa.gov/enviro/trisquery.dcn_details?tris_id=27355LBRTY2607O","https://enviro.epa.gov/enviro/rsei.html?facid=27355LBRTY2607O"
"PINE GLO PRODUCTS INC","US HWY 401 N","ROLESVILLE","WAKE","NC","27571","35.91745","-78.46698","1","https://enviro.epa.gov/enviro/tris_control_v2.tris_print?tris_id=27571PNGLPUSHWY","https://enviro.epa.gov/enviro/trisquery.dcn_details?tris_id=27571PNGLPUSHWY","https://enviro.epa.gov/enviro/rsei.html?facid=27571PNGLPUSHWY"
"PINE STATE CREAMERY CO","500 GLENWOOD AVE","RALEIGH","WAKE","NC","276286508","35.78669","-78.64725","12","https://enviro.epa.gov/enviro/tris_control_v2.tris_print?tris_id=27628PNSTT500GL","https://enviro.epa.gov/enviro/trisquery.dcn_details?tris_id=27628PNSTT500GL","https://enviro.epa.gov/enviro/rsei.html?facid=27628PNSTT500GL"
"POTTERS INDUSTRIES LLC","820 LUFKIN RD","APEX","WAKE","NC","27539","35.71365","-78.83641","17","https://enviro.epa.gov/enviro/tris_control_v2.tris_print?tris_id=27502PTTRS82LUF","https://enviro.epa.gov/enviro/trisquery.dcn_details?tris_id=27502PTTRS82LUF","https://enviro.epa.gov/enviro/rsei.html?facid=27502PTTRS82LUF"
"POTTERS INDUSTRIES LLC -THOMASVILLE","1202 E SUNRISE AVE","THOMASVILLE","DAVIDSON","NC","27360","35.876378","-80.049099","3","https://enviro.epa.gov/enviro/tris_control_v2.tris_print?tris_id=2736WPTTRS513CU","https://enviro.epa.gov/enviro/trisquery.dcn_details?tris_id=2736WPTTRS513CU","https://enviro.epa.gov/enviro/rsei.html?facid=2736WPTTRS513CU"
"POWERSECURE","1609 HERITAGE COMMERCE CT","WAKE FOREST","WAKE","NC","27587","35.95233","-78.51592","6","https://enviro.epa.gov/enviro/tris_control_v2.tris_print?tris_id=27587PWRSC169HE","https://enviro.epa.gov/enviro/trisquery.dcn_details?tris_id=27587PWRSC169HE","https://enviro.epa.gov/enviro/rsei.html?facid=27587PWRSC169HE"
"POWERSECURE","300 KITTY HAWK DR","MORRISVILLE","WAKE","NC","27560","35.88997","-78.80364","4","https://enviro.epa.gov/enviro/tris_control_v2.tris_print?tris_id=27560PWRSC3KITT","https://enviro.epa.gov/enviro/trisquery.dcn_details?tris_id=27560PWRSC3KITT","https://enviro.epa.gov/enviro/rsei.html?facid=27560PWRSC3KITT"
"POWERSECURE","340 CAPCOM AVE SUITE 107","WAKE FOREST","WAKE","NC","27587","35.947984","-78.526006","1","https://enviro.epa.gov/enviro/tris_control_v2.tris_print?tris_id=27587PWRSC34CAP","https://enviro.epa.gov/enviro/trisquery.dcn_details?tris_id=27587PWRSC34CAP","https://enviro.epa.gov/enviro/rsei.html?facid=27587PWRSC34CAP"
"PREFORMED LINE PRODUCTS","1700 WOODHURST LN","ALBEMARLE","STANLY","NC","28001","35.34279","-80.16595","70","https://enviro.epa.gov/enviro/tris_control_v2.tris_print?tris_id=28001PRFRM1700W","https://enviro.epa.gov/enviro/trisquery.dcn_details?tris_id=28001PRFRM1700W","https://enviro.epa.gov/enviro/rsei.html?facid=28001PRFRM1700W"
"PRESTIGE FABRICATORS INC","905 US HWY 49 S","ASHEBORO","RANDOLPH","NC","27204","35.682778","-79.854167","5","https://enviro.epa.gov/enviro/tris_control_v2.tris_print?tris_id=27204PRSTG905US","https://enviro.epa.gov/enviro/trisquery.dcn_details?tris_id=27204PRSTG905US","https://enviro.epa.gov/enviro/rsei.html?facid=27204PRSTG905US"
"PRESTIGE FABRICATORS INC.","2206 DUMONT ST","ASHEBORO","RANDOLPH","NC","27203","35.761476","-79.773884","70","https://enviro.epa.gov/enviro/tris_control_v2.tris_print?tris_id=27203PRSTG2206D","https://enviro.epa.gov/enviro/trisquery.dcn_details?tris_id=27203PRSTG2206D","https://enviro.epa.gov/enviro/rsei.html?facid=27203PRSTG2206D"
"PUBLIC WORKS COMMISSION BUTLER-WARNER GENERATION PLANT","STATE RD 1723 CUSTER AVE","FAYETTEVILLE","CUMBERLAND","NC","28301","35.098308","-78.829937","1","https://enviro.epa.gov/enviro/tris_control_v2.tris_print?tris_id=28301PBLCWSTATE","https://enviro.epa.gov/enviro/trisquery.dcn_details?tris_id=28301PBLCWSTATE","https://enviro.epa.gov/enviro/rsei.html?facid=28301PBLCWSTATE"
"PUGH LUBRICANTS - ASHEBORO","701 MCDOWELL RD","ASHEBORO","RANDOLPH","NC","27205","35.66982","-79.82894","73","https://enviro.epa.gov/enviro/tris_control_v2.tris_print?tris_id=27204PGHLC701MC","https://enviro.epa.gov/enviro/trisquery.dcn_details?tris_id=27204PGHLC701MC","https://enviro.epa.gov/enviro/rsei.html?facid=27204PGHLC701MC"
"RAM INDUSTRIES INC (DBA MARTIN INDUSTRIES)","1135 MONTGOMERY AVE","ALBEMARLE","STANLY","NC","28001","35.35537","-80.18022","5","https://enviro.epa.gov/enviro/tris_control_v2.tris_print?tris_id=28001RMNDN1135M","https://enviro.epa.gov/enviro/trisquery.dcn_details?tris_id=28001RMNDN1135M","https://enviro.epa.gov/enviro/rsei.html?facid=28001RMNDN1135M"
"RAVEN ANTENNA SYSTEMS (DBA GLOBAL SKYWARE)","1315 OUTLET CENTER DR","SMITHFIELD","JOHNSTON","NC","27577","35.51218","-78.3057","44","https://enviro.epa.gov/enviro/tris_control_v2.tris_print?tris_id=27577CHNNLINDUS","https://enviro.epa.gov/enviro/trisquery.dcn_details?tris_id=27577CHNNLINDUS","https://enviro.epa.gov/enviro/rsei.html?facid=27577CHNNLINDUS"
"READY MIXED CONCRETE - SANFORD PLANT 7","320 MARKET ST","SANFORD","LEE","NC","27330","35.47914","-79.17342","2","https://enviro.epa.gov/enviro/tris_control_v2.tris_print?tris_id=2733WRGSSN32MAR","https://enviro.epa.gov/enviro/trisquery.dcn_details?tris_id=2733WRGSSN32MAR","https://enviro.epa.gov/enviro/rsei.html?facid=2733WRGSSN32MAR"
"REDMAN HOMES INC","4130 HARVEY FAULK RD","SANFORD","LEE","NC","27330","35.432952","-79.12651","8","https://enviro.epa.gov/enviro/tris_control_v2.tris_print?tris_id=27330RDMNHPOBOX","https://enviro.epa.gov/enviro/trisquery.dcn_details?tris_id=27330RDMNHPOBOX","https://enviro.epa.gov/enviro/rsei.html?facid=27330RDMNHPOBOX"
"REDMAN HOMES INC  SANFORD 1","2509 COX MILL RD","SANFORD","LEE","NC","27330","35.45706","-79.10786","10","https://enviro.epa.gov/enviro/tris_control_v2.tris_print?tris_id=27330RDMNH2509C","https://enviro.epa.gov/enviro/trisquery.dcn_details?tris_id=27330RDMNH2509C","https://enviro.epa.gov/enviro/rsei.html?facid=27330RDMNH2509C"
"RICE HOSIERY","550 W FAIRFIELD RD","HIGH POINT","RANDOLPH","NC","27263","35.92338","-79.99072","2","https://enviro.epa.gov/enviro/tris_control_v2.tris_print?tris_id=27263RCHSR550WF","https://enviro.epa.gov/enviro/trisquery.dcn_details?tris_id=27263RCHSR550WF","https://enviro.epa.gov/enviro/rsei.html?facid=27263RCHSR550WF"
"RINKER THOMASVILLE PIPE","208 RANDOLPH ST","THOMASVILLE","DAVIDSON","NC","27360","35.877973","-80.07983","5","https://enviro.epa.gov/enviro/tris_control_v2.tris_print?tris_id=2736WTHMSV28RAN","https://enviro.epa.gov/enviro/trisquery.dcn_details?tris_id=2736WTHMSV28RAN","https://enviro.epa.gov/enviro/rsei.html?facid=2736WTHMSV28RAN"
"RITE INDUSTRIES INC","1124 ELON PL","HIGH POINT","GUILFORD","NC","27260","35.95928","-79.94296","61","https://enviro.epa.gov/enviro/tris_control_v2.tris_print?tris_id=27261RTNDS1124E","https://enviro.epa.gov/enviro/trisquery.dcn_details?tris_id=27261RTNDS1124E","https://enviro.epa.gov/enviro/rsei.html?facid=27261RTNDS1124E"
"ROBBINS PROCESSING PLANT","HWY 705 N","ROBBINS","MOORE","NC","27325","35.44029","-79.586446","15","https://enviro.epa.gov/enviro/tris_control_v2.tris_print?tris_id=27325PRDNCHIGHW","https://enviro.epa.gov/enviro/trisquery.dcn_details?tris_id=27325PRDNCHIGHW","https://enviro.epa.gov/enviro/rsei.html?facid=27325PRDNCHIGHW"
"ROYAL DEVELOPMENT CO","325 KETTERING RD","HIGH POINT","GUILFORD","NC","272631719","35.92602","-79.99386","56","https://enviro.epa.gov/enviro/tris_control_v2.tris_print?tris_id=27263RYLDV325KE","https://enviro.epa.gov/enviro/trisquery.dcn_details?tris_id=27263RYLDV325KE","https://enviro.epa.gov/enviro/rsei.html?facid=27263RYLDV325KE"
"RPR IND INC","RTE 5 OLD US HWY1","APEX","WAKE","NC","27502","35.714506","-78.83896","1","https://enviro.epa.gov/enviro/tris_control_v2.tris_print?tris_id=27502RPRNDROUTE","https://enviro.epa.gov/enviro/trisquery.dcn_details?tris_id=27502RPRNDROUTE","https://enviro.epa.gov/enviro/rsei.html?facid=27502RPRNDROUTE"
"S&W CLINTON PLANT","1395 TURKEY HWY","CLINTON","SAMPSON","NC","28328","34.9959","-78.295502","15","https://enviro.epa.gov/enviro/tris_control_v2.tris_print?tris_id=2832WSWCLN1395T","https://enviro.epa.gov/enviro/trisquery.dcn_details?tris_id=2832WSWCLN1395T","https://enviro.epa.gov/enviro/rsei.html?facid=2832WSWCLN1395T"
"S&W FAYETTEVILLE PLANT","1309 SOUTH REILLY ROAD","FAYETTEVILLE","CUMBERLAND","NC","28314","35.04842","-79.02384","17","https://enviro.epa.gov/enviro/tris_control_v2.tris_print?tris_id=2831WSWFYT139SU","https://enviro.epa.gov/enviro/trisquery.dcn_details?tris_id=2831WSWFYT139SU","https://enviro.epa.gov/enviro/rsei.html?facid=2831WSWFYT139SU"
"S&W SPRING LAKE PLANT","545 WEST MANCHESTER ROAD","SPRING LAKE","CUMBERLAND","NC","28390","35.18944","-79.00052","14","https://enviro.epa.gov/enviro/tris_control_v2.tris_print?tris_id=2839WSWSPR545WE","https://enviro.epa.gov/enviro/trisquery.dcn_details?tris_id=2839WSWSPR545WE","https://enviro.epa.gov/enviro/rsei.html?facid=2839WSWSPR545WE"
"SAFETY-KLEEN SYSTEMS ARCHDALE (ARC)","6182 OLD MENDENHALL RD","ARCHDALE","RANDOLPH","NC","27263","35.91512","-80.01621","79","https://enviro.epa.gov/enviro/tris_control_v2.tris_print?tris_id=27263SFTYK6182O","https://enviro.epa.gov/enviro/trisquery.dcn_details?tris_id=27263SFTYK6182O","https://enviro.epa.gov/enviro/rsei.html?facid=27263SFTYK6182O"
"SAFETY-KLEEN SYSTEMS RALEIGH (RAL)","125 SOMMERVILLE PARK RD","RALEIGH","WAKE","NC","27603","35.694679","-78.652937","69","https://enviro.epa.gov/enviro/tris_control_v2.tris_print?tris_id=27603SFTYK6225O","https://enviro.epa.gov/enviro/trisquery.dcn_details?tris_id=27603SFTYK6225O","https://enviro.epa.gov/enviro/rsei.html?facid=27603SFTYK6225O"
"SANFORD COCA-COLA BOTTLING CO","1605 HAWKINS AVE","SANFORD","LEE","NC","27330","35.5017","-79.17924","15","https://enviro.epa.gov/enviro/tris_control_v2.tris_print?tris_id=27330SNFRD1605H","https://enviro.epa.gov/enviro/trisquery.dcn_details?tris_id=27330SNFRD1605H","https://enviro.epa.gov/enviro/rsei.html?facid=27330SNFRD1605H"
"SANFORD FINISHING","US HWY #1 BYPASS","SANFORD","LEE","NC","273310550","35.458641","-79.207821","8","https://enviro.epa.gov/enviro/tris_control_v2.tris_print?tris_id=27330SNFRDUSHWY","https://enviro.epa.gov/enviro/trisquery.dcn_details?tris_id=27330SNFRDUSHWY","https://enviro.epa.gov/enviro/rsei.html?facid=27330SNFRDUSHWY"
"SAPONA MFG","2478 CEDAR FALLS RD","CEDAR FALLS","RANDOLPH","NC","27230","35.7483","-79.7261","2","https://enviro.epa.gov/enviro/tris_control_v2.tris_print?tris_id=27230SPNMN2478C","https://enviro.epa.gov/enviro/trisquery.dcn_details?tris_id=27230SPNMN2478C","https://enviro.epa.gov/enviro/rsei.html?facid=27230SPNMN2478C"
"SAPUTO CHEESE USA INC","116 INDUSTRIAL DR","BISCOE","MONTGOMERY","NC","27209","35.3623","-79.80204","5","https://enviro.epa.gov/enviro/tris_control_v2.tris_print?tris_id=2720WCRLND116IN","https://enviro.epa.gov/enviro/trisquery.dcn_details?tris_id=2720WCRLND116IN","https://enviro.epa.gov/enviro/rsei.html?facid=2720WCRLND116IN"
"SAPUTO CHEESE USA INC","131 WRIGHT WAY","TROY","MONTGOMERY","NC","27371","35.335328","-79.930111","4","https://enviro.epa.gov/enviro/tris_control_v2.tris_print?tris_id=2737WCRLNS131WB","https://enviro.epa.gov/enviro/trisquery.dcn_details?tris_id=2737WCRLNS131WB","https://enviro.epa.gov/enviro/rsei.html?facid=2737WCRLNS131WB"
"SARA LEE KNIT PRODS ASHEBORO TEXTILES PLANT","1305 S FAYETTEVILLE ST","ASHEBORO","RANDOLPH","NC","27203","35.689435","-79.81609","1","https://enviro.epa.gov/enviro/tris_control_v2.tris_print?tris_id=27203SRLKN1305S","https://enviro.epa.gov/enviro/trisquery.dcn_details?tris_id=27203SRLKN1305S","https://enviro.epa.gov/enviro/rsei.html?facid=27203SRLKN1305S"
"SCHINDLER ELEVATOR CORP","821 INDUSTRIAL DR","CLINTON","SAMPSON","NC","28328","35.026035","-78.334137","10","https://enviro.epa.gov/enviro/tris_control_v2.tris_print?tris_id=28328SCHND821IN","https://enviro.epa.gov/enviro/trisquery.dcn_details?tris_id=28328SCHND821IN","https://enviro.epa.gov/enviro/rsei.html?facid=28328SCHND821IN"
"SCHRADER BELLOWS","12415 CAPITAL BLVD","WAKE FOREST","WAKE","NC","27587","35.984913","-78.537054","5","https://enviro.epa.gov/enviro/tris_control_v2.tris_print?tris_id=27587SCHRDUS1NO","https://enviro.epa.gov/enviro/trisquery.dcn_details?tris_id=27587SCHRDUS1NO","https://enviro.epa.gov/enviro/rsei.html?facid=27587SCHRDUS1NO"
"SCM METAL PRODUCTS INC","2601 WECK DR","RESEARCH TRIANGLE PARK","DURHAM","NC","27709","35.93214","-78.84981","219","https://enviro.epa.gov/enviro/tris_control_v2.tris_print?tris_id=27709SCMMT2601W","https://enviro.epa.gov/enviro/trisquery.dcn_details?tris_id=27709SCMMT2601W","https://enviro.epa.gov/enviro/rsei.html?facid=27709SCMMT2601W"
"SEABOARD CHEMICAL CORP","5899 RIVERDALE DR","JAMESTOWN","GUILFORD","NC","27282","35.94458","-79.91108","14","https://enviro.epa.gov/enviro/tris_control_v2.tris_print?tris_id=27282SBRDC5899R","https://enviro.epa.gov/enviro/trisquery.dcn_details?tris_id=27282SBRDC5899R","https://enviro.epa.gov/enviro/rsei.html?facid=27282SBRDC5899R"
"SEQIRUS INC","475 GREEN OAKS PKWY","HOLLY SPRINGS","WAKE","NC","27540","35.65291","-78.86375","1","https://enviro.epa.gov/enviro/tris_control_v2.tris_print?tris_id=2754WSQRSN475GB","https://enviro.epa.gov/enviro/trisquery.dcn_details?tris_id=2754WSQRSN475GB","https://enviro.epa.gov/enviro/rsei.html?facid=2754WSQRSN475GB"
"SIEMENS INDUSTRY, INC.","7000 SIEMENS RD","WENDELL","WAKE","NC","27591","35.81655","-78.39706","23","https://enviro.epa.gov/enviro/tris_control_v2.tris_print?tris_id=27591SMNSNSR230","https://enviro.epa.gov/enviro/trisquery.dcn_details?tris_id=27591SMNSNSR230","https://enviro.epa.gov/enviro/rsei.html?facid=27591SMNSNSR230"
"SILVER KNIT INDUSTRIES INC","401 S HAMILTON ST","HIGH POINT","GUILFORD","NC","27260","35.95159","-80.00219","3","https://enviro.epa.gov/enviro/tris_control_v2.tris_print?tris_id=27260SLVRK401SO","https://enviro.epa.gov/enviro/trisquery.dcn_details?tris_id=27260SLVRK401SO","https://enviro.epa.gov/enviro/rsei.html?facid=27260SLVRK401SO"
"SILVER LINE WINDOWS MID-SOUTH DIV","2223 NE CREEK PKWY BLDG 6 RESEARCH TRI-CENTER N","DURHAM","DURHAM","NC","27713","35.935518","-78.880747","2","https://enviro.epa.gov/enviro/tris_control_v2.tris_print?tris_id=27713SLVRL2223N","https://enviro.epa.gov/enviro/trisquery.dcn_details?tris_id=27713SLVRL2223N","https://enviro.epa.gov/enviro/rsei.html?facid=27713SLVRL2223N"
"SLANE HOSIERY MILL","313 S CENTENNIAL ST","HIGH POINT","GUILFORD","NC","27260","35.954015","-79.99983","9","https://enviro.epa.gov/enviro/tris_control_v2.tris_print?tris_id=27226SLNHS313SC","https://enviro.epa.gov/enviro/trisquery.dcn_details?tris_id=27226SLNHS313SC","https://enviro.epa.gov/enviro/rsei.html?facid=27226SLNHS313SC"
"SMITHFIELD-CLINTON","424 E RAILROAD RD","CLINTON","SAMPSON","NC","28328","34.994252","-78.313318","80","https://enviro.epa.gov/enviro/tris_control_v2.tris_print?tris_id=28328THLND424RA","https://enviro.epa.gov/enviro/trisquery.dcn_details?tris_id=28328THLND424RA","https://enviro.epa.gov/enviro/rsei.html?facid=28328THLND424RA"
"SNYDER PAPER CORP","1104 WARD ST","HIGH POINT","GUILFORD","NC","27260","35.93907","-80.01796","11","https://enviro.epa.gov/enviro/tris_control_v2.tris_print?tris_id=27260SNYDR1104W","https://enviro.epa.gov/enviro/trisquery.dcn_details?tris_id=27260SNYDR1104W","https://enviro.epa.gov/enviro/rsei.html?facid=27260SNYDR1104W"
"SOLECTRON CORP","4500 EMPEROR BLVD","RESEARCH TRIANGLE PARK","DURHAM","NC","27709","35.87465","-78.84049","2","https://enviro.epa.gov/enviro/tris_control_v2.tris_print?tris_id=27709SLCTR4500E","https://enviro.epa.gov/enviro/trisquery.dcn_details?tris_id=27709SLCTR4500E","https://enviro.epa.gov/enviro/rsei.html?facid=27709SLCTR4500E"
"SOLECTRON GLOBAL SERVICES - RTP","900 AVIATION PKWY SUITE 400","MORRISVILLE","WAKE","NC","27560","35.83727","-78.81201","2","https://enviro.epa.gov/enviro/tris_control_v2.tris_print?tris_id=27560SLCTR900AV","https://enviro.epa.gov/enviro/trisquery.dcn_details?tris_id=27560SLCTR900AV","https://enviro.epa.gov/enviro/rsei.html?facid=27560SLCTR900AV"
"SOLECTRON RALEIGH SERVICES","1000 INNOVATION AVE","MORRISVILLE","WAKE","NC","27560","35.870441","-78.818458","2","https://enviro.epa.gov/enviro/tris_control_v2.tris_print?tris_id=27560SLCTR1INNV","https://enviro.epa.gov/enviro/trisquery.dcn_details?tris_id=27560SLCTR1INNV","https://enviro.epa.gov/enviro/rsei.html?facid=27560SLCTR1INNV"
"SOUTHBEND CO","1100 OLD HONEYCUTT RD","FUQUAY-VARINA","WAKE","NC","27526","35.58288","-78.75981","12","https://enviro.epa.gov/enviro/tris_control_v2.tris_print?tris_id=27526STHBN1100O","https://enviro.epa.gov/enviro/trisquery.dcn_details?tris_id=27526STHBN1100O","https://enviro.epa.gov/enviro/rsei.html?facid=27526STHBN1100O"
"SOUTHERN ENERGY OF NORTH CAROLINA","2100 STERLING DR","ALBEMARLE","STANLY","NC","28001","35.34062","-80.166549","2","https://enviro.epa.gov/enviro/tris_control_v2.tris_print?tris_id=28001STHRN2100S","https://enviro.epa.gov/enviro/trisquery.dcn_details?tris_id=28001STHRN2100S","https://enviro.epa.gov/enviro/rsei.html?facid=28001STHRN2100S"
"SOUTHERN EQUIPMENT CO (DBA RMCC) - FUQUA-VARINA - PLANT #10","1506 HOLLAND ROAD","FUQUAY VARINA","WAKE","NC","27526","35.569983","-78.768266","1","https://enviro.epa.gov/enviro/tris_control_v2.tris_print?tris_id=2752WSTHRN156HL","https://enviro.epa.gov/enviro/trisquery.dcn_details?tris_id=2752WSTHRN156HL","https://enviro.epa.gov/enviro/rsei.html?facid=2752WSTHRN156HL"
"SOUTHERN GROUNDING LLC","421 CAROLINA RD","ABERDEEN","MOORE","NC","28315","35.10942","-79.39196","14","https://enviro.epa.gov/enviro/tris_control_v2.tris_print?tris_id=28315STHRNHWY21","https://enviro.epa.gov/enviro/trisquery.dcn_details?tris_id=28315STHRNHWY21","https://enviro.epa.gov/enviro/rsei.html?facid=28315STHRNHWY21"
"SOUTHERN RESIN","3440 DENTON RD","THOMASVILLE","DAVIDSON","NC","27360","35.825849","-80.097031","84","https://enviro.epa.gov/enviro/tris_control_v2.tris_print?tris_id=27360STHRN3440D","https://enviro.epa.gov/enviro/trisquery.dcn_details?tris_id=27360STHRN3440D","https://enviro.epa.gov/enviro/rsei.html?facid=27360STHRN3440D"
"SPRINGS INDUSTRIES  AILEEN PLANT","402 CAPEL ST","BISCOE","MONTGOMERY","NC","27209","35.3543","-79.78242","7","https://enviro.epa.gov/enviro/tris_control_v2.tris_print?tris_id=27209SPRNG402CA","https://enviro.epa.gov/enviro/trisquery.dcn_details?tris_id=27209SPRNG402CA","https://enviro.epa.gov/enviro/rsei.html?facid=27209SPRNG402CA"
"SQUARE D CO","8001 HWY 64 E","KNIGHTDALE","WAKE","NC","27545","35.806344","-78.450856","84","https://enviro.epa.gov/enviro/tris_control_v2.tris_print?tris_id=27545SQRDCHWY64","https://enviro.epa.gov/enviro/trisquery.dcn_details?tris_id=27545SQRDCHWY64","https://enviro.epa.gov/enviro/rsei.html?facid=27545SQRDCHWY64"
"STANLEY FURNITURE CO","5364 HWY 211","WEST END","MOORE","NC","27376","35.239258","-79.567956","55","https://enviro.epa.gov/enviro/tris_control_v2.tris_print?tris_id=27376STNLYHWY21","https://enviro.epa.gov/enviro/trisquery.dcn_details?tris_id=27376STNLYHWY21","https://enviro.epa.gov/enviro/rsei.html?facid=27376STNLYHWY21"
"STARPET INC","801 PINEVIEW RD","ASHEBORO","RANDOLPH","NC","27203","35.77262","-79.82243","49","https://enviro.epa.gov/enviro/tris_control_v2.tris_print?tris_id=27203TLRMP801PI","https://enviro.epa.gov/enviro/trisquery.dcn_details?tris_id=27203TLRMP801PI","https://enviro.epa.gov/enviro/rsei.html?facid=27203TLRMP801PI"
"STATIC CONTROL COMPONENTS INC-PLANT 17","2903 LEE AVE","SANFORD","LEE","NC","27332","35.44927","-79.14385","28","https://enviro.epa.gov/enviro/tris_control_v2.tris_print?tris_id=27330STTCC2903L","https://enviro.epa.gov/enviro/trisquery.dcn_details?tris_id=27330STTCC2903L","https://enviro.epa.gov/enviro/rsei.html?facid=27330STTCC2903L"
"STATIC CONTROL COMPONENTS PLANT 3","205 WILLIAMS ST","SANFORD","LEE","NC","27330","35.451819","-79.149076","2","https://enviro.epa.gov/enviro/tris_control_v2.tris_print?tris_id=27330STTCC25WIL","https://enviro.epa.gov/enviro/trisquery.dcn_details?tris_id=27330STTCC25WIL","https://enviro.epa.gov/enviro/rsei.html?facid=27330STTCC25WIL"
"STEEL TECHNOLOGIES INC","307 INDUSTRIAL DR","CLINTON","SAMPSON","NC","28328","35.02219","-78.34419","4","https://enviro.epa.gov/enviro/tris_control_v2.tris_print?tris_id=28328STLTC37IND","https://enviro.epa.gov/enviro/trisquery.dcn_details?tris_id=28328STLTC37IND","https://enviro.epa.gov/enviro/rsei.html?facid=28328STLTC37IND"
"STEELFAB OF FAYETTEVILLE","950 COUNTRY CLUB DR","FAYETTEVILLE","CUMBERLAND","NC","28301","35.09883","-78.914385","8","https://enviro.epa.gov/enviro/tris_control_v2.tris_print?tris_id=2830WSTLFB95CUN","https://enviro.epa.gov/enviro/trisquery.dcn_details?tris_id=2830WSTLFB95CUN","https://enviro.epa.gov/enviro/rsei.html?facid=2830WSTLFB95CUN"
"STI POLYMER INC","5618 CLYDE RHYNE DRIVE","SANFORD","LEE","NC","27330","35.549708","-79.181971","151","https://enviro.epa.gov/enviro/tris_control_v2.tris_print?tris_id=2733WSDNTC5618C","https://enviro.epa.gov/enviro/trisquery.dcn_details?tris_id=2733WSDNTC5618C","https://enviro.epa.gov/enviro/rsei.html?facid=2733WSDNTC5618C"
"STROUPE MIRROR CO","102 E HOLLY HILL RD","THOMASVILLE","DAVIDSON","NC","27360","35.87163","-80.07236","1","https://enviro.epa.gov/enviro/tris_control_v2.tris_print?tris_id=27360STRPM102EH","https://enviro.epa.gov/enviro/trisquery.dcn_details?tris_id=27360STRPM102EH","https://enviro.epa.gov/enviro/rsei.html?facid=27360STRPM102EH"
"STRUCTURAL COATINGS INC","8029 HIGHWAY 70 WEST","CLAYTON","JOHNSTON","NC","27520","35.613766","-78.419016","3","https://enviro.epa.gov/enviro/tris_control_v2.tris_print?tris_id=2752WSTRCT829HI","https://enviro.epa.gov/enviro/trisquery.dcn_details?tris_id=2752WSTRCT829HI","https://enviro.epa.gov/enviro/rsei.html?facid=2752WSTRCT829HI"
"STYREX IND INC","240 BERKLEY ST","HIGH POINT","GUILFORD","NC","27262","35.92153","-80.03883","6","https://enviro.epa.gov/enviro/tris_control_v2.tris_print?tris_id=27262STYRX240BE","https://enviro.epa.gov/enviro/trisquery.dcn_details?tris_id=27262STYRX240BE","https://enviro.epa.gov/enviro/rsei.html?facid=27262STYRX240BE"
"SUMITOMO ELECTRIC LIGHTWAVE CORP","78 ALEXANDER DR","RESEARCH TRIANGLE PARK","DURHAM","NC","27709","35.916667","-78.866667","13","https://enviro.epa.gov/enviro/tris_control_v2.tris_print?tris_id=27709SMTML78ALE","https://enviro.epa.gov/enviro/trisquery.dcn_details?tris_id=27709SMTML78ALE","https://enviro.epa.gov/enviro/rsei.html?facid=27709SMTML78ALE"
"SUMMIT MOLDED PRODUCTS CONITRON PLANT","3761 OLD GLENOLA RD","TRINITY","RANDOLPH","NC","27370","35.911074","-80.016826","30","https://enviro.epa.gov/enviro/tris_control_v2.tris_print?tris_id=27370CNTRNROUTE","https://enviro.epa.gov/enviro/trisquery.dcn_details?tris_id=27370CNTRNROUTE","https://enviro.epa.gov/enviro/rsei.html?facid=27370CNTRNROUTE"
"SURTRONICS INC.","4001 BERYL RD","RALEIGH","WAKE","NC","27606","35.79463","-78.6941","145","https://enviro.epa.gov/enviro/tris_control_v2.tris_print?tris_id=27606SRTRN4001B","https://enviro.epa.gov/enviro/trisquery.dcn_details?tris_id=27606SRTRN4001B","https://enviro.epa.gov/enviro/rsei.html?facid=27606SRTRN4001B"
"SWIFT TEXTILES INC","200 N 13TH ST","ERWIN","HARNETT","NC","28339","35.32994","-78.67603","18","https://enviro.epa.gov/enviro/tris_control_v2.tris_print?tris_id=28339RWNML200NO","https://enviro.epa.gov/enviro/trisquery.dcn_details?tris_id=28339RWNML200NO","https://enviro.epa.gov/enviro/rsei.html?facid=28339RWNML200NO"
"SWIFT TEXTILES INC WEAVE PLANT","1004 S 13TH ST","ERWIN","HARNETT","NC","28339","35.31288","-78.68932","1","https://enviro.epa.gov/enviro/tris_control_v2.tris_print?tris_id=28339SWFTT1004S","https://enviro.epa.gov/enviro/trisquery.dcn_details?tris_id=28339SWFTT1004S","https://enviro.epa.gov/enviro/rsei.html?facid=28339SWFTT1004S"
"TARHEEL WOOD TREATING CO","10309 CHAPEL HILL RD","MORRISVILLE","WAKE","NC","27560","35.83328","-78.82809","1","https://enviro.epa.gov/enviro/tris_control_v2.tris_print?tris_id=27560TRHLW10309","https://enviro.epa.gov/enviro/trisquery.dcn_details?tris_id=27560TRHLW10309","https://enviro.epa.gov/enviro/rsei.html?facid=27560TRHLW10309"
"TE CONNECTIVITY","8000 PURFOY RD","FUQUAY-VARINA","WAKE","NC","27526","35.57986","-78.77185","16","https://enviro.epa.gov/enviro/tris_control_v2.tris_print?tris_id=27526RYCHMROUTE","https://enviro.epa.gov/enviro/trisquery.dcn_details?tris_id=27526RYCHMROUTE","https://enviro.epa.gov/enviro/rsei.html?facid=27526RYCHMROUTE"
"TECHNIMARK LLC","180 COMMERCE PL","ASHEBORO","RANDOLPH","NC","27203","35.77847","-79.81155","20","https://enviro.epa.gov/enviro/tris_control_v2.tris_print?tris_id=2720WTCHNM18CMM","https://enviro.epa.gov/enviro/trisquery.dcn_details?tris_id=2720WTCHNM18CMM","https://enviro.epa.gov/enviro/rsei.html?facid=2720WTCHNM18CMM"
"TECHNIMARK MOLDING INC","104 COMMERCE PL","RANDLEMAN","RANDOLPH","NC","27317","35.778471","-79.80934","1","https://enviro.epa.gov/enviro/tris_control_v2.tris_print?tris_id=27317TCHNM104CO","https://enviro.epa.gov/enviro/trisquery.dcn_details?tris_id=27317TCHNM104CO","https://enviro.epa.gov/enviro/rsei.html?facid=27317TCHNM104CO"
"TEKNOR APEX - NORTH CAROLINA","3518 DILLON RD","JAMESTOWN","GUILFORD","NC","27282","35.9919","-79.93883","20","https://enviro.epa.gov/enviro/tris_control_v2.tris_print?tris_id=2728WTKNRP3518D","https://enviro.epa.gov/enviro/trisquery.dcn_details?tris_id=2728WTKNRP3518D","https://enviro.epa.gov/enviro/rsei.html?facid=2728WTKNRP3518D"
"THE GOODYEAR TIRE & RUBBER CO FAYETTEVILLE PLANT","6650 RAMSEY ST","FAYETTEVILLE","CUMBERLAND","NC","28311","35.17187","-78.86062","192","https://enviro.epa.gov/enviro/tris_control_v2.tris_print?tris_id=28311KLLYS6650R","https://enviro.epa.gov/enviro/trisquery.dcn_details?tris_id=28311KLLYS6650R","https://enviro.epa.gov/enviro/rsei.html?facid=28311KLLYS6650R"
"THIS END UP FURNITURE CO PLANT 6","546 HARVEY FAULK RD","SANFORD","LEE","NC","27330","35.43031","-79.12678","2","https://enviro.epa.gov/enviro/tris_control_v2.tris_print?tris_id=27330THSND546HA","https://enviro.epa.gov/enviro/trisquery.dcn_details?tris_id=27330THSND546HA","https://enviro.epa.gov/enviro/rsei.html?facid=27330THSND546HA"
"THOMAS BUILT BUSES INC","1408 COURTESY RD","HIGH POINT","GUILFORD","NC","27260","35.94282","-80.02078","274","https://enviro.epa.gov/enviro/tris_control_v2.tris_print?tris_id=27260THMSB1408C","https://enviro.epa.gov/enviro/trisquery.dcn_details?tris_id=27260THMSB1408C","https://enviro.epa.gov/enviro/rsei.html?facid=27260THMSB1408C"
"THOMAS BUILT BUSES INC","715 W FAIRFIELD RD","HIGH POINT","GUILFORD","NC","27263","35.92156","-79.99726","183","https://enviro.epa.gov/enviro/tris_control_v2.tris_print?tris_id=27263THMSB715WF","https://enviro.epa.gov/enviro/trisquery.dcn_details?tris_id=27263THMSB715WF","https://enviro.epa.gov/enviro/rsei.html?facid=27263THMSB715WF"
"THOMAS CONCRETE","220 INTERNATIONAL DRIVE","MORRISVILLE","WAKE","NC","27560","35.838401","-78.822511","1","https://enviro.epa.gov/enviro/tris_control_v2.tris_print?tris_id=2756WTHMSC22INT","https://enviro.epa.gov/enviro/trisquery.dcn_details?tris_id=2756WTHMSC22INT","https://enviro.epa.gov/enviro/rsei.html?facid=2756WTHMSC22INT"
"THOMASVILLE FOREST PRODUCTS","RT 2 BOX 1027-B","THOMASVILLE","DAVIDSON","NC","27360","35.76888","-80.10554","12","https://enviro.epa.gov/enviro/tris_control_v2.tris_print?tris_id=27360THMSVCLARK","https://enviro.epa.gov/enviro/trisquery.dcn_details?tris_id=27360THMSVCLARK","https://enviro.epa.gov/enviro/rsei.html?facid=27360THMSVCLARK"
"THOMASVILLE FURNITURE INDUSTRIES INC","E GUILFORD & MEMORIAL PARK","THOMASVILLE","DAVIDSON","NC","27360","35.885344","-80.080261","12","https://enviro.epa.gov/enviro/tris_control_v2.tris_print?tris_id=27360THMSVEGUIL","https://enviro.epa.gov/enviro/trisquery.dcn_details?tris_id=27360THMSVEGUIL","https://enviro.epa.gov/enviro/rsei.html?facid=27360THMSVEGUIL"
"THOMASVILLE FURNITURE INDUSTRIES INC - COUNTY LINE","509 COUNTY LINE RD","THOMASVILLE","DAVIDSON","NC","27360","35.87711","-80.04906","6","https://enviro.epa.gov/enviro/tris_control_v2.tris_print?tris_id=27360THMSV509CO","https://enviro.epa.gov/enviro/trisquery.dcn_details?tris_id=27360THMSV509CO","https://enviro.epa.gov/enviro/rsei.html?facid=27360THMSV509CO"
"THOMASVILLE FURNITURE INDUSTRIES INC PLANT A/X/V FACE","320 W MAIN ST","THOMASVILLE","DAVIDSON","NC","27360","35.88105","-80.08918","81","https://enviro.epa.gov/enviro/tris_control_v2.tris_print?tris_id=27360THMSVWMAIN","https://enviro.epa.gov/enviro/trisquery.dcn_details?tris_id=27360THMSVWMAIN","https://enviro.epa.gov/enviro/rsei.html?facid=27360THMSVWMAIN"
"THOMASVILLE FURNITURE INDUSTRIES INC PLANT B","310 FISHER FERRY ST","THOMASVILLE","DAVIDSON","NC","27360","35.87612","-80.08425","67","https://enviro.epa.gov/enviro/tris_control_v2.tris_print?tris_id=27360THMSVCARMA","https://enviro.epa.gov/enviro/trisquery.dcn_details?tris_id=27360THMSVCARMA","https://enviro.epa.gov/enviro/rsei.html?facid=27360THMSVCARMA"
"THOMASVILLE FURNITURE INDUSTRIES INC PLANT C/M/W/SB","405 E MAIN ST","THOMASVILLE","DAVIDSON","NC","27360","35.88524","-80.07501","99","https://enviro.epa.gov/enviro/tris_control_v2.tris_print?tris_id=27360THMSV401EM","https://enviro.epa.gov/enviro/trisquery.dcn_details?tris_id=27360THMSV401EM","https://enviro.epa.gov/enviro/rsei.html?facid=27360THMSV401EM"
"THOMASVILLE FURNITURE INDUSTRIES INC PLANT D","801 TRINITY ST","THOMASVILLE","DAVIDSON","NC","27360","35.88613","-80.07079","68","https://enviro.epa.gov/enviro/tris_control_v2.tris_print?tris_id=27360THMSVEMAIN","https://enviro.epa.gov/enviro/trisquery.dcn_details?tris_id=27360THMSVEMAIN","https://enviro.epa.gov/enviro/rsei.html?facid=27360THMSVEMAIN"
"TIFFANY MARBLE & GLASS CO","4326 HWY 311","RANDLEMAN","RANDOLPH","NC","27317","35.811661","-79.83451","17","https://enviro.epa.gov/enviro/tris_control_v2.tris_print?tris_id=27317TFFNYHWY31","https://enviro.epa.gov/enviro/trisquery.dcn_details?tris_id=27317TFFNYHWY31","https://enviro.epa.gov/enviro/rsei.html?facid=27317TFFNYHWY31"
"TIMKEN CO ASHEBORO BEARING PLANT","3500 TIMKEN PL","RANDLEMAN","RANDOLPH","NC","27317","35.79806","-79.81859","96","https://enviro.epa.gov/enviro/tris_control_v2.tris_print?tris_id=27317THTMK3500T","https://enviro.epa.gov/enviro/trisquery.dcn_details?tris_id=27317THTMK3500T","https://enviro.epa.gov/enviro/rsei.html?facid=27317THTMK3500T"
"TIPPER TIE INC","LUFKIN RD","APEX","WAKE","NC","27502","35.72227","-78.82701","3","https://enviro.epa.gov/enviro/tris_control_v2.tris_print?tris_id=27502TPPRTLUFKI","https://enviro.epa.gov/enviro/trisquery.dcn_details?tris_id=27502TPPRTLUFKI","https://enviro.epa.gov/enviro/rsei.html?facid=27502TPPRTLUFKI"
"TOWNSEND FARMS INC BONLEE (9215)","4460 OLD HWY 421 S","BONLEE","CHATHAM","NC","27213","35.641755","-79.413036","80","https://enviro.epa.gov/enviro/tris_control_v2.tris_print?tris_id=27213TWNSNOLDHW","https://enviro.epa.gov/enviro/trisquery.dcn_details?tris_id=27213TWNSNOLDHW","https://enviro.epa.gov/enviro/rsei.html?facid=27213TWNSNOLDHW"
"TOWNSEND FARMS INC BONLEE (9217)","4920 OLD HWY 421 S","BONLEE","CHATHAM","NC","27213","35.637198","-79.407621","55","https://enviro.epa.gov/enviro/tris_control_v2.tris_print?tris_id=27312GLDNPOLDUS","https://enviro.epa.gov/enviro/trisquery.dcn_details?tris_id=27312GLDNPOLDUS","https://enviro.epa.gov/enviro/rsei.html?facid=27312GLDNPOLDUS"
"TOWNSEND INC PITTSBORO PLANT","270 MONCURE PITTSBORO RD","MONCURE","CHATHAM","NC","27559","35.703087","-79.175285","22","https://enviro.epa.gov/enviro/tris_control_v2.tris_print?tris_id=27312TWNSNMONCU","https://enviro.epa.gov/enviro/trisquery.dcn_details?tris_id=27312TWNSNMONCU","https://enviro.epa.gov/enviro/rsei.html?facid=27312TWNSNMONCU"
"TRACOR AEROSPACE","608 E MCNEILL ST","LILLINGTON","HARNETT","NC","27546","35.39151","-78.80857","9","https://enviro.epa.gov/enviro/tris_control_v2.tris_print?tris_id=27546TRCRR608EA","https://enviro.epa.gov/enviro/trisquery.dcn_details?tris_id=27546TRCRR608EA","https://enviro.epa.gov/enviro/rsei.html?facid=27546TRCRR608EA"
"TRANS-MATIC MANUFACTURING CO","5825 CLYDE RHYNE DR","SANFORD","LEE","NC","27330","35.55383","-79.17839","38","https://enviro.epa.gov/enviro/tris_control_v2.tris_print?tris_id=27330TRNSM5825C","https://enviro.epa.gov/enviro/trisquery.dcn_details?tris_id=27330TRNSM5825C","https://enviro.epa.gov/enviro/rsei.html?facid=27330TRNSM5825C"
"TRIAD-FABCO INC","1016 BAKER RD","HIGH POINT","GUILFORD","NC","272632130","35.93233","-79.97074","10","https://enviro.epa.gov/enviro/tris_control_v2.tris_print?tris_id=27260TRDFB1016B","https://enviro.epa.gov/enviro/trisquery.dcn_details?tris_id=27260TRDFB1016B","https://enviro.epa.gov/enviro/rsei.html?facid=27260TRDFB1016B"
"TRIAD-FABCO, INC.","1908 NUGGETT","HIGH POINT","GUILFORD","NC","272633205","35.94061","-79.96813","19","https://enviro.epa.gov/enviro/tris_control_v2.tris_print?tris_id=27260TRDFB1908N","https://enviro.epa.gov/enviro/trisquery.dcn_details?tris_id=27260TRDFB1908N","https://enviro.epa.gov/enviro/rsei.html?facid=27260TRDFB1908N"
"TRIANGLE BRICK - MERRY OAKS","294 KING RD","MONCURE","CHATHAM","NC","27559","35.64351","-79.00093","74","https://enviro.epa.gov/enviro/tris_control_v2.tris_print?tris_id=27559TRNGLUSHWY","https://enviro.epa.gov/enviro/trisquery.dcn_details?tris_id=27559TRNGLUSHWY","https://enviro.epa.gov/enviro/rsei.html?facid=27559TRNGLUSHWY"
"TRIANGLE BRICK CO","RT 1 BOX 70 HWY 52 N AT AIRPORT RD","WADESBORO","ANSON","NC","28170","35.019105","-80.085391","33","https://enviro.epa.gov/enviro/tris_control_v2.tris_print?tris_id=2817WTRNGL296US","https://enviro.epa.gov/enviro/trisquery.dcn_details?tris_id=2817WTRNGL296US","https://enviro.epa.gov/enviro/rsei.html?facid=2817WTRNGL296US"
"TRIANGLE BRICK-WADESBORO","2960 US HIGHWAY 52 N","WADESBORO","ANSON","NC","28170","35.019105","-80.085391","33","https://enviro.epa.gov/enviro/tris_control_v2.tris_print?tris_id=2817WTRNGL296US","https://enviro.epa.gov/enviro/trisquery.dcn_details?tris_id=2817WTRNGL296US","https://enviro.epa.gov/enviro/rsei.html?facid=2817WTRNGL296US"
"TRIANGLE ICE CO INC","8700 ICE DR","RALEIGH","WAKE","NC","27613","35.90126","-78.7579","1","https://enviro.epa.gov/enviro/tris_control_v2.tris_print?tris_id=27613TRNGL8700I","https://enviro.epa.gov/enviro/trisquery.dcn_details?tris_id=27613TRNGL8700I","https://enviro.epa.gov/enviro/rsei.html?facid=27613TRNGL8700I"
"TRINITY AMERICAN CORP","5275 GLENOLA INDL DR","HIGH POINT","RANDOLPH","NC","27263","35.86923","-79.90637","24","https://enviro.epa.gov/enviro/tris_control_v2.tris_print?tris_id=27263TRNTYHWY31","https://enviro.epa.gov/enviro/trisquery.dcn_details?tris_id=27263TRNTYHWY31","https://enviro.epa.gov/enviro/rsei.html?facid=27263TRNTYHWY31"
"TROY LUMBER CO","110 LESLIE ST","TROY","MONTGOMERY","NC","27371","35.367295","-79.893595","27","https://enviro.epa.gov/enviro/tris_control_v2.tris_print?tris_id=27371TRYLM110LE","https://enviro.epa.gov/enviro/trisquery.dcn_details?tris_id=27371TRYLM110LE","https://enviro.epa.gov/enviro/rsei.html?facid=27371TRYLM110LE"
"TT ELECTRONICS","2500 US 70 E BUSINESS","SMITHFIELD","JOHNSTON","NC","27577","35.490943","-78.269452","12","https://enviro.epa.gov/enviro/tris_control_v2.tris_print?tris_id=27577TTLCT25USH","https://enviro.epa.gov/enviro/trisquery.dcn_details?tris_id=27577TTLCT25USH","https://enviro.epa.gov/enviro/rsei.html?facid=27577TTLCT25USH"
"TYCO ELECTRONICS CORP","201 DICKENS RD","FUQUAY-VARINA","WAKE","NC","27526","35.61457","-78.80652","2","https://enviro.epa.gov/enviro/tris_control_v2.tris_print?tris_id=27526RYCHM201DI","https://enviro.epa.gov/enviro/trisquery.dcn_details?tris_id=27526RYCHM201DI","https://enviro.epa.gov/enviro/rsei.html?facid=27526RYCHM201DI"
"TYSON CENTRAL FARMS - FAYETTEVILLE FEED MILL","3281 BAYWOOD RD","FAYETTEVILLE","CUMBERLAND","NC","28301","35.09699","-78.78068","5","https://enviro.epa.gov/enviro/tris_control_v2.tris_print?tris_id=28301TYSNC3281B","https://enviro.epa.gov/enviro/trisquery.dcn_details?tris_id=28301TYSNC3281B","https://enviro.epa.gov/enviro/rsei.html?facid=28301TYSNC3281B"
"TYSON MEXICAN ORIGINAL","800 E MAIN ST","SANFORD","LEE","NC","27330","35.459218","-79.140252","2","https://enviro.epa.gov/enviro/tris_control_v2.tris_print?tris_id=27330TYSNM800EA","https://enviro.epa.gov/enviro/trisquery.dcn_details?tris_id=27330TYSNM800EA","https://enviro.epa.gov/enviro/rsei.html?facid=27330TYSNM800EA"
"U.S. ARMY FORT BRAGG","DPW ENV COMPLIANCE BRANCH BLDG 3-1137 REILLY RD","FORT BRAGG","CUMBERLAND","NC","28310","35.15705","-79.00036","249","https://enviro.epa.gov/enviro/tris_control_v2.tris_print?tris_id=28307DPTFRDIREC","https://enviro.epa.gov/enviro/trisquery.dcn_details?tris_id=28307DPTFRDIREC","https://enviro.epa.gov/enviro/rsei.html?facid=28307DPTFRDIREC"
"UNILIN FLOORING","550 CLONIGER DR","THOMASVILLE","DAVIDSON","NC","27360","35.86743","-80.05013","15","https://enviro.epa.gov/enviro/tris_control_v2.tris_print?tris_id=27360NLNFL55CLN","https://enviro.epa.gov/enviro/trisquery.dcn_details?tris_id=27360NLNFL55CLN","https://enviro.epa.gov/enviro/rsei.html?facid=27360NLNFL55CLN"
"UNILIN US MDF","149 HOMANIT USA RD","MOUNT GILEAD","MONTGOMERY","NC","27306","35.251428","-79.974688","372","https://enviro.epa.gov/enviro/tris_control_v2.tris_print?tris_id=27306HMNTS149HO","https://enviro.epa.gov/enviro/trisquery.dcn_details?tris_id=27306HMNTS149HO","https://enviro.epa.gov/enviro/rsei.html?facid=27306HMNTS149HO"
"UNIT STRUCTURES INC","HWY 54 W","MORRISVILLE","WAKE","NC","27560","35.850298","-78.799456","2","https://enviro.epa.gov/enviro/tris_control_v2.tris_print?tris_id=27560NTSTRHWY54","https://enviro.epa.gov/enviro/trisquery.dcn_details?tris_id=27560NTSTRHWY54","https://enviro.epa.gov/enviro/rsei.html?facid=27560NTSTRHWY54"
"UNITED DRUM INC","214 BERKLEY ST","HIGH POINT","GUILFORD","NC","27260","35.92349","-80.03846","31","https://enviro.epa.gov/enviro/tris_control_v2.tris_print?tris_id=27260NTDDR214BE","https://enviro.epa.gov/enviro/trisquery.dcn_details?tris_id=27260NTDDR214BE","https://enviro.epa.gov/enviro/rsei.html?facid=27260NTDDR214BE"
"UNIVAR SOLUTIONS USA INC","108 OAKDALE RD","JAMESTOWN","GUILFORD","NC","27282","35.99347","-79.93371","326","https://enviro.epa.gov/enviro/tris_control_v2.tris_print?tris_id=27282CHMCN108OA","https://enviro.epa.gov/enviro/trisquery.dcn_details?tris_id=27282CHMCN108OA","https://enviro.epa.gov/enviro/rsei.html?facid=27282CHMCN108OA"
"UNIVAR USA INC FAYETTEVILLE FACILITY","420 WORTH ST","FAYETTEVILLE","CUMBERLAND","NC","28301","35.048889","-78.882778","16","https://enviro.epa.gov/enviro/tris_control_v2.tris_print?tris_id=28304PRLLM334WO","https://enviro.epa.gov/enviro/trisquery.dcn_details?tris_id=28304PRLLM334WO","https://enviro.epa.gov/enviro/rsei.html?facid=28304PRLLM334WO"
"US EPA ORD/RESEARCH TRIANGLE PARK","86 TW ALEXANDER DR CARA LUCAS MD-D343-02","DURHAM","DURHAM","NC","27711","35.9014","-78.87979","1","https://enviro.epa.gov/enviro/tris_control_v2.tris_print?tris_id=27711SPRDR109TW","https://enviro.epa.gov/enviro/trisquery.dcn_details?tris_id=27711SPRDR109TW","https://enviro.epa.gov/enviro/rsei.html?facid=27711SPRDR109TW"
"US EPA ORD/RTP MAIN FACILITY","109 TW ALEXANDER DR CARA LUCAS  MD-D343-02","DURHAM","DURHAM","NC","27711","35.9014","-78.87979","1","https://enviro.epa.gov/enviro/tris_control_v2.tris_print?tris_id=27711SPRDR109TW","https://enviro.epa.gov/enviro/trisquery.dcn_details?tris_id=27711SPRDR109TW","https://enviro.epa.gov/enviro/rsei.html?facid=27711SPRDR109TW"
"V & E COMPONENTS","2130 BREVARD RD","HIGH POINT","GUILFORD","NC","27263","35.92655","-79.99816","24","https://enviro.epa.gov/enviro/tris_control_v2.tris_print?tris_id=27263VCMPN2130B","https://enviro.epa.gov/enviro/trisquery.dcn_details?tris_id=27263VCMPN2130B","https://enviro.epa.gov/enviro/rsei.html?facid=27263VCMPN2130B"
"V & E COMPONENTS","4207 CHEYENNE DR","ARCHDALE","RANDOLPH","NC","27263","35.89378","-79.9586","6","https://enviro.epa.gov/enviro/tris_control_v2.tris_print?tris_id=27263VCMPN4207C","https://enviro.epa.gov/enviro/trisquery.dcn_details?tris_id=27263VCMPN4207C","https://enviro.epa.gov/enviro/rsei.html?facid=27263VCMPN4207C"
"V & E COMPONENTS INC","720 FAIRFIELD RD","HIGH POINT","GUILFORD","NC","27263","35.924137","-79.970763","19","https://enviro.epa.gov/enviro/tris_control_v2.tris_print?tris_id=27263VCMPN720FA","https://enviro.epa.gov/enviro/trisquery.dcn_details?tris_id=27263VCMPN720FA","https://enviro.epa.gov/enviro/rsei.html?facid=27263VCMPN720FA"
"VALASSIS INSERTS DURHAM PRINTING DIV","4918 PROSPECTUS DR","DURHAM","DURHAM","NC","27713","35.89319","-78.89232","1","https://enviro.epa.gov/enviro/tris_control_v2.tris_print?tris_id=27713VLSSS4918P","https://enviro.epa.gov/enviro/trisquery.dcn_details?tris_id=27713VLSSS4918P","https://enviro.epa.gov/enviro/rsei.html?facid=27713VLSSS4918P"
"VALCOR INC","5829 TRIANGLE DR BLDG 6","RALEIGH","WAKE","NC","27617","35.89663","-78.74513","1","https://enviro.epa.gov/enviro/tris_control_v2.tris_print?tris_id=27617VLCRN5829T","https://enviro.epa.gov/enviro/trisquery.dcn_details?tris_id=27617VLCRN5829T","https://enviro.epa.gov/enviro/rsei.html?facid=27617VLCRN5829T"
"VALLEY PROTEINS INC - FAYETTEVILLE FACILITY","1309 INDUSTRIAL DR","FAYETTEVILLE","CUMBERLAND","NC","28301","35.03104","-78.86301","94","https://enviro.epa.gov/enviro/tris_control_v2.tris_print?tris_id=28302CPFRF1309I","https://enviro.epa.gov/enviro/trisquery.dcn_details?tris_id=28302CPFRF1309I","https://enviro.epa.gov/enviro/rsei.html?facid=28302CPFRF1309I"
"VALLEY PROTEINS INC - WADESBORO FACILITY","656 LITTLE DUNCAN RD","WADESBORO","ANSON","NC","28170","35.038241","-80.082839","18","https://enviro.epa.gov/enviro/tris_control_v2.tris_print?tris_id=28170CRLNBLITTL","https://enviro.epa.gov/enviro/trisquery.dcn_details?tris_id=28170CRLNBLITTL","https://enviro.epa.gov/enviro/rsei.html?facid=28170CRLNBLITTL"
"VITAFOAM INC","1205 TRINITY STREET","THOMASVILLE","DAVIDSON","NC","27360","35.88497","-80.05779","57","https://enviro.epa.gov/enviro/tris_control_v2.tris_print?tris_id=27360PRLDC1205T","https://enviro.epa.gov/enviro/trisquery.dcn_details?tris_id=27360PRLDC1205T","https://enviro.epa.gov/enviro/rsei.html?facid=27360PRLDC1205T"
"VON JOHAN FURNITURE CO","600 MAY RD","THOMASVILLE","DAVIDSON","NC","27360","35.843138","-80.083149","5","https://enviro.epa.gov/enviro/tris_control_v2.tris_print?tris_id=27360VNJHNMAYRD","https://enviro.epa.gov/enviro/trisquery.dcn_details?tris_id=27360VNJHNMAYRD","https://enviro.epa.gov/enviro/rsei.html?facid=27360VNJHNMAYRD"
"VPG","951 WENDELL BLVD","WENDELL","WAKE","NC","27591","35.8031","-78.41304","25","https://enviro.epa.gov/enviro/tris_control_v2.tris_print?tris_id=27591MSRMNHIGHW","https://enviro.epa.gov/enviro/trisquery.dcn_details?tris_id=27591MSRMNHIGHW","https://enviro.epa.gov/enviro/rsei.html?facid=27591MSRMNHIGHW"
"W A DAVIS MILLING CO INC","126 S CENTENNIAL ST","HIGH POINT","GUILFORD","NC","272612204","35.95874","-80.0013","2","https://enviro.epa.gov/enviro/tris_control_v2.tris_print?tris_id=27261WDVSM126SC","https://enviro.epa.gov/enviro/trisquery.dcn_details?tris_id=27261WDVSM126SC","https://enviro.epa.gov/enviro/rsei.html?facid=27261WDVSM126SC"
"W.R. GRACE & CO. - CONN. GRACE CONSTRUCTION PRODUCTS","1541 WILMINGTON RD","FAYETTEVILLE","CUMBERLAND","NC","28306","35.01881","-78.86527","6","https://enviro.epa.gov/enviro/tris_control_v2.tris_print?tris_id=28306WRGRC1541W","https://enviro.epa.gov/enviro/trisquery.dcn_details?tris_id=28306WRGRC1541W","https://enviro.epa.gov/enviro/rsei.html?facid=28306WRGRC1541W"
"WAKEFIELD-VETTE DBA SIMON INDUSTRIES","2910 INDUSTRIAL DR","RALEIGH","WAKE","NC","27609","35.819967","-78.618257","2","https://enviro.epa.gov/enviro/tris_control_v2.tris_print?tris_id=2760WWKFLD291IN","https://enviro.epa.gov/enviro/trisquery.dcn_details?tris_id=2760WWKFLD291IN","https://enviro.epa.gov/enviro/rsei.html?facid=2760WWKFLD291IN"
"WARREN OIL CO LLC - DUNN NC","2340 US-301 N","DUNN","HARNETT","NC","28334","35.33032","-78.59476","50","https://enviro.epa.gov/enviro/tris_control_v2.tris_print?tris_id=28335WRRNL234US","https://enviro.epa.gov/enviro/trisquery.dcn_details?tris_id=28335WRRNL234US","https://enviro.epa.gov/enviro/rsei.html?facid=28335WRRNL234US"
"WATKINS-JOHNSON CO","1000 W POWELL RD","FUQUAY-VARINA","WAKE","NC","275269399","35.610906","-78.801261","6","https://enviro.epa.gov/enviro/tris_control_v2.tris_print?tris_id=27526WTKNS1000O","https://enviro.epa.gov/enviro/trisquery.dcn_details?tris_id=27526WTKNS1000O","https://enviro.epa.gov/enviro/rsei.html?facid=27526WTKNS1000O"
"WAYNE TRADEMARK PRINTING & PACKAGING","607 W GRIMES AVE","HIGH POINT","GUILFORD","NC","27261","35.95","-80.01126","4","https://enviro.epa.gov/enviro/tris_control_v2.tris_print?tris_id=27261WYNTR607WG","https://enviro.epa.gov/enviro/trisquery.dcn_details?tris_id=27261WYNTR607WG","https://enviro.epa.gov/enviro/rsei.html?facid=27261WYNTR607WG"
"WCRICHARDS CO","101 E MAPLE ST","ABERDEEN","MOORE","NC","28315","35.13386","-79.42488","70","https://enviro.epa.gov/enviro/tris_control_v2.tris_print?tris_id=28315WCRCH101EA","https://enviro.epa.gov/enviro/trisquery.dcn_details?tris_id=28315WCRCH101EA","https://enviro.epa.gov/enviro/rsei.html?facid=28315WCRCH101EA"
"WECK","100 WECK DR","DURHAM","DURHAM","NC","27709","35.926546","-78.850526","7","https://enviro.epa.gov/enviro/tris_control_v2.tris_print?tris_id=27709DWRDW100WE","https://enviro.epa.gov/enviro/trisquery.dcn_details?tris_id=27709DWRDW100WE","https://enviro.epa.gov/enviro/rsei.html?facid=27709DWRDW100WE"
"WEIMAN CO","1603 LEONARD ST","RAMSEUR","RANDOLPH","NC","27316","35.73682","-79.65737","51","https://enviro.epa.gov/enviro/tris_control_v2.tris_print?tris_id=27316WMNCXPOBOX","https://enviro.epa.gov/enviro/trisquery.dcn_details?tris_id=27316WMNCXPOBOX","https://enviro.epa.gov/enviro/rsei.html?facid=27316WMNCXPOBOX"
"WHITIN ROBERTS CO","109 MCNEIL RD","SANFORD","LEE","NC","273300250","35.5129","-79.21217","5","https://enviro.epa.gov/enviro/tris_control_v2.tris_print?tris_id=27330WHTNR109MC","https://enviro.epa.gov/enviro/trisquery.dcn_details?tris_id=27330WHTNR109MC","https://enviro.epa.gov/enviro/rsei.html?facid=27330WHTNR109MC"
"WILDERNESS NC INC","313 NEW CUT RD","LEXINGTON","DAVIDSON","NC","27292","35.77853","-80.124053","17","https://enviro.epa.gov/enviro/tris_control_v2.tris_print?tris_id=27292WLDRN313NE","https://enviro.epa.gov/enviro/trisquery.dcn_details?tris_id=27292WLDRN313NE","https://enviro.epa.gov/enviro/rsei.html?facid=27292WLDRN313NE"
"WILDERNESS NORTH CAROLINA INC","7578 US HWY 64 E","LEXINGTON","DAVIDSON","NC","27292","35.7781","-80.1217","5","https://enviro.epa.gov/enviro/tris_control_v2.tris_print?tris_id=27292THMSV7578U","https://enviro.epa.gov/enviro/trisquery.dcn_details?tris_id=27292THMSV7578U","https://enviro.epa.gov/enviro/rsei.html?facid=27292THMSV7578U"
"WOLFSPEED INC.","4600 SILICON DR","DURHAM","DURHAM","NC","27703","35.899298","-78.840802","159","https://enviro.epa.gov/enviro/tris_control_v2.tris_print?tris_id=27703CRRSR4600S","https://enviro.epa.gov/enviro/trisquery.dcn_details?tris_id=27703CRRSR4600S","https://enviro.epa.gov/enviro/rsei.html?facid=27703CRRSR4600S"
"WOLFSPEED INC. (RTP)","3026 CORNWALLIS RD","RESEARCH TRIANGLE PARK","DURHAM","NC","27709","35.9192","-78.8728","61","https://enviro.epa.gov/enviro/tris_control_v2.tris_print?tris_id=27709GMCRL3026C","https://enviro.epa.gov/enviro/trisquery.dcn_details?tris_id=27709GMCRL3026C","https://enviro.epa.gov/enviro/rsei.html?facid=27709GMCRL3026C"
"WRENN BROTHERS INC.","902 S CHATHAM AVE","SILER CITY","CHATHAM","NC","27344","35.71326","-79.45724","7","https://enviro.epa.gov/enviro/tris_control_v2.tris_print?tris_id=27344WRNNB902SC","https://enviro.epa.gov/enviro/trisquery.dcn_details?tris_id=27344WRNNB902SC","https://enviro.epa.gov/enviro/rsei.html?facid=27344WRNNB902SC"
"WYETH-LEDERLE VACCINES","4300 OAK PARK","SANFORD","LEE","NC","27330","35.53918","-79.17456","7","https://enviro.epa.gov/enviro/tris_control_v2.tris_print?tris_id=27330LRLPR4300O","https://enviro.epa.gov/enviro/trisquery.dcn_details?tris_id=27330LRLPR4300O","https://enviro.epa.gov/enviro/rsei.html?facid=27330LRLPR4300O"
